{
 "cells": [
  {
   "cell_type": "code",
   "execution_count": 1,
   "metadata": {},
   "outputs": [],
   "source": [
    "import numpy as np"
   ]
  },
  {
   "cell_type": "markdown",
   "metadata": {},
   "source": [
    "> - Four lettersL ICAO code of station identifier\n",
    ">- Issuance Time (7 letters)\n",
    ">> - in the from DDHHMMZ\n",
    ">>  - DD= , HH= MM=\n",
    ">- Wind (can vary in length)\n",
    ">>- first 3 digits: wind direction\n",
    ">>- next 2 digits mean speed\n",
    ">>- optional G for gus\n",
    ">>>- followed by 2 or 3 digit maximum speed\n",
    ">>-next 2-3 digits units\n",
    ">>>-KT=knots, KMH=km/hr, MPS=m/s\n",
    ">- if wind direction varies 60 degrees or more, followed by 3 digits V 3 digits\n",
    ">- prevailing visibility in statue miles: number SM\n",
    ">>- runway visiual range R number L/R/C / P/M 4 digit value FT/M V / U/D/D\n",
    ">>>- P=plus, M=minus, V=variability, U=up, D=down, N=no change\n",
    ">- present weather chart with lots of options\n",
    ">- sky cover\n",
    ">>- SKC=sky clear, NSC=no significant clouds, FEW=few, SCT=scattered, BKN=broken, OVC=overcast\n",
    ">- temperature/dewpoint (2 digit temps/2 digit dp) (M for minus)\n",
    ">- altimeter setting and indicator"
   ]
  },
  {
   "cell_type": "markdown",
   "metadata": {},
   "source": [
    "note ZULU time (24 hour time in UTC), use knots, directions in degrees"
   ]
  },
  {
   "cell_type": "code",
   "execution_count": 2,
   "metadata": {},
   "outputs": [],
   "source": [
    "import metpy #install metpy using conda -- I personally had erros when using pip"
   ]
  },
  {
   "cell_type": "code",
   "execution_count": 3,
   "metadata": {},
   "outputs": [],
   "source": [
    "from metpy.units import units"
   ]
  },
  {
   "cell_type": "code",
   "execution_count": 1,
   "metadata": {},
   "outputs": [
    {
     "data": {
      "text/html": [
       "<div>\n",
       "<style scoped>\n",
       "    .dataframe tbody tr th:only-of-type {\n",
       "        vertical-align: middle;\n",
       "    }\n",
       "\n",
       "    .dataframe tbody tr th {\n",
       "        vertical-align: top;\n",
       "    }\n",
       "\n",
       "    .dataframe thead th {\n",
       "        text-align: right;\n",
       "    }\n",
       "</style>\n",
       "<table border=\"1\" class=\"dataframe\">\n",
       "  <thead>\n",
       "    <tr style=\"text-align: right;\">\n",
       "      <th></th>\n",
       "      <th>station_id</th>\n",
       "      <th>latitude</th>\n",
       "      <th>longitude</th>\n",
       "      <th>elevation</th>\n",
       "      <th>date_time</th>\n",
       "      <th>wind_direction</th>\n",
       "      <th>wind_speed</th>\n",
       "      <th>wind_gust</th>\n",
       "      <th>visibility</th>\n",
       "      <th>current_wx1</th>\n",
       "      <th>...</th>\n",
       "      <th>air_temperature</th>\n",
       "      <th>dew_point_temperature</th>\n",
       "      <th>altimeter</th>\n",
       "      <th>current_wx1_symbol</th>\n",
       "      <th>current_wx2_symbol</th>\n",
       "      <th>current_wx3_symbol</th>\n",
       "      <th>remarks</th>\n",
       "      <th>air_pressure_at_sea_level</th>\n",
       "      <th>eastward_wind</th>\n",
       "      <th>northward_wind</th>\n",
       "    </tr>\n",
       "    <tr>\n",
       "      <th>station_id</th>\n",
       "      <th></th>\n",
       "      <th></th>\n",
       "      <th></th>\n",
       "      <th></th>\n",
       "      <th></th>\n",
       "      <th></th>\n",
       "      <th></th>\n",
       "      <th></th>\n",
       "      <th></th>\n",
       "      <th></th>\n",
       "      <th></th>\n",
       "      <th></th>\n",
       "      <th></th>\n",
       "      <th></th>\n",
       "      <th></th>\n",
       "      <th></th>\n",
       "      <th></th>\n",
       "      <th></th>\n",
       "      <th></th>\n",
       "      <th></th>\n",
       "      <th></th>\n",
       "    </tr>\n",
       "  </thead>\n",
       "  <tbody>\n",
       "    <tr>\n",
       "      <th>KATL</th>\n",
       "      <td>KATL</td>\n",
       "      <td>33.63</td>\n",
       "      <td>-84.45</td>\n",
       "      <td>296</td>\n",
       "      <td>2023-11-11 23:51:00</td>\n",
       "      <td>90</td>\n",
       "      <td>4.0</td>\n",
       "      <td>NaN</td>\n",
       "      <td>16093.44</td>\n",
       "      <td>NaN</td>\n",
       "      <td>...</td>\n",
       "      <td>13.0</td>\n",
       "      <td>-2.0</td>\n",
       "      <td>30.13</td>\n",
       "      <td>0</td>\n",
       "      <td>0</td>\n",
       "      <td>0</td>\n",
       "      <td>AO2 SLP204 T01281017 10139 20128 51006</td>\n",
       "      <td>1020.79</td>\n",
       "      <td>-4.0</td>\n",
       "      <td>-2.449294e-16</td>\n",
       "    </tr>\n",
       "  </tbody>\n",
       "</table>\n",
       "<p>1 rows × 31 columns</p>\n",
       "</div>"
      ],
      "text/plain": [
       "           station_id  latitude  longitude  elevation           date_time  \\\n",
       "station_id                                                                  \n",
       "KATL             KATL     33.63     -84.45        296 2023-11-11 23:51:00   \n",
       "\n",
       "            wind_direction  wind_speed  wind_gust  visibility  current_wx1  \\\n",
       "station_id                                                                   \n",
       "KATL                    90         4.0        NaN    16093.44          NaN   \n",
       "\n",
       "            ...  air_temperature  dew_point_temperature altimeter  \\\n",
       "station_id  ...                                                     \n",
       "KATL        ...             13.0                   -2.0     30.13   \n",
       "\n",
       "            current_wx1_symbol  current_wx2_symbol  current_wx3_symbol  \\\n",
       "station_id                                                               \n",
       "KATL                         0                   0                   0   \n",
       "\n",
       "                                           remarks  air_pressure_at_sea_level  \\\n",
       "station_id                                                                      \n",
       "KATL        AO2 SLP204 T01281017 10139 20128 51006                    1020.79   \n",
       "\n",
       "            eastward_wind  northward_wind  \n",
       "station_id                                 \n",
       "KATL                 -4.0   -2.449294e-16  \n",
       "\n",
       "[1 rows x 31 columns]"
      ]
     },
     "execution_count": 1,
     "metadata": {},
     "output_type": "execute_result"
    }
   ],
   "source": [
    "from metpy.io import parse_metar_to_dataframe\n",
    "\n",
    "# Example METAR data\n",
    "metar_data = 'METAR KATL 112351Z 09004KT 10SM FEW250 13/M02 A3013 RMK AO2 SLP204 T01281017 10139 20128 51006'\n",
    "\n",
    "# Parse METAR data to a pandas DataFrame\n",
    "df = parse_metar_to_dataframe(metar_data)\n",
    "\n",
    "# Display the DataFrame\n",
    "df\n"
   ]
  },
  {
   "cell_type": "code",
   "execution_count": 7,
   "metadata": {},
   "outputs": [
    {
     "data": {
      "text/plain": [
       "Index(['station_id', 'latitude', 'longitude', 'elevation', 'date_time',\n",
       "       'wind_direction', 'wind_speed', 'wind_gust', 'visibility',\n",
       "       'current_wx1', 'current_wx2', 'current_wx3', 'low_cloud_type',\n",
       "       'low_cloud_level', 'medium_cloud_type', 'medium_cloud_level',\n",
       "       'high_cloud_type', 'high_cloud_level', 'highest_cloud_type',\n",
       "       'highest_cloud_level', 'cloud_coverage', 'air_temperature',\n",
       "       'dew_point_temperature', 'altimeter', 'current_wx1_symbol',\n",
       "       'current_wx2_symbol', 'current_wx3_symbol', 'remarks',\n",
       "       'air_pressure_at_sea_level', 'eastward_wind', 'northward_wind'],\n",
       "      dtype='object')"
      ]
     },
     "execution_count": 7,
     "metadata": {},
     "output_type": "execute_result"
    }
   ],
   "source": [
    "df.columns"
   ]
  },
  {
   "cell_type": "code",
   "execution_count": null,
   "metadata": {},
   "outputs": [
    {
     "name": "stdout",
     "output_type": "stream",
     "text": [
      "Cleaning Up Station Information for station UES\n"
     ]
    }
   ],
   "source": [
    "import datetime\n",
    "from urllib.request import urlopen\n",
    "import json\n",
    "from IPython.display import clear_output\n",
    "\n",
    "# Array containing all the US States 2-Letter codes\n",
    "states = \"\"\"AK AL AR AZ CA CO CT DE FL GA HI IA ID IL IN KS KY LA MA MD ME\n",
    " MI MN MO MS MT NC ND NE NH NJ NM NV NY OH OK OR PA RI SC SD TN TX UT VA VT\n",
    " WA WI WV WY\"\"\"\n",
    "# Array to hold the dictionary correspondent to each station\n",
    "stations = []\n",
    "# Looping through states\n",
    "for state in states.split():\n",
    "    \n",
    "    clear_output(wait=True)\n",
    "    print(f'Loading stations for state {state}')\n",
    "    \n",
    "    # Manipulating the uri to the proper network corresponding to the state\n",
    "    uri = (\n",
    "        \"https://mesonet.agron.iastate.edu/\"\n",
    "        f\"geojson/network/{state}_ASOS.geojson\"\n",
    "    )\n",
    "    # Loading the data from the uri of the state\n",
    "    data = urlopen(uri)\n",
    "    # Appending the list of stations gathered, interpreted by json\n",
    "    stations += json.load(data)[\"features\"]\n",
    "    \n",
    "# This bit will clean up the dictionaries that are returned, \n",
    "# not important, but you can comment this seciton out and see how the\n",
    "# original dictionaries look. Not all that pretty.\n",
    "clear_output(wait=True)\n",
    "print(\"Cleaning Up Station Information\")\n",
    "for station in stations:\n",
    "    clear_output(wait=True)\n",
    "    print(f\"Cleaning Up Station Information for station {station['id']}\")\n",
    "    for key in station['properties'].keys():\n",
    "        station[key] = station['properties'][key]\n",
    "    del station['properties']\n",
    "    station['lon'] = station['geometry']['coordinates'][0]\n",
    "    station['lat'] = station['geometry']['coordinates'][1]\n",
    "    del station['geometry']\n",
    "    del station['type']\n",
    "    del station['sid']\n",
    "clear_output(wait=True)\n",
    "print(f'{len(stations)} stations found!')"
   ]
  },
  {
   "cell_type": "code",
   "execution_count": 6,
   "metadata": {},
   "outputs": [
    {
     "data": {
      "text/html": [
       "<div>\n",
       "<style scoped>\n",
       "    .dataframe tbody tr th:only-of-type {\n",
       "        vertical-align: middle;\n",
       "    }\n",
       "\n",
       "    .dataframe tbody tr th {\n",
       "        vertical-align: top;\n",
       "    }\n",
       "\n",
       "    .dataframe thead th {\n",
       "        text-align: right;\n",
       "    }\n",
       "</style>\n",
       "<table border=\"1\" class=\"dataframe\">\n",
       "  <thead>\n",
       "    <tr style=\"text-align: right;\">\n",
       "      <th></th>\n",
       "      <th>station</th>\n",
       "      <th>valid</th>\n",
       "      <th>lon</th>\n",
       "      <th>lat</th>\n",
       "      <th>tmpf</th>\n",
       "      <th>relh</th>\n",
       "      <th>drct</th>\n",
       "      <th>sknt</th>\n",
       "      <th>p01i</th>\n",
       "      <th>skyc1</th>\n",
       "      <th>...</th>\n",
       "      <th>skyl2</th>\n",
       "      <th>skyl3</th>\n",
       "      <th>skyl4</th>\n",
       "      <th>wxcodes</th>\n",
       "      <th>ice_accretion_1hr</th>\n",
       "      <th>metar</th>\n",
       "      <th>wspd</th>\n",
       "      <th>wind_E</th>\n",
       "      <th>wind_N</th>\n",
       "      <th>elevation</th>\n",
       "    </tr>\n",
       "  </thead>\n",
       "  <tbody>\n",
       "    <tr>\n",
       "      <th>0</th>\n",
       "      <td>PADK</td>\n",
       "      <td>2023-01-01 00:00:00</td>\n",
       "      <td>-176.646</td>\n",
       "      <td>51.878</td>\n",
       "      <td>NaN</td>\n",
       "      <td>NaN</td>\n",
       "      <td>360.0</td>\n",
       "      <td>11.0</td>\n",
       "      <td>NaN</td>\n",
       "      <td>SCT</td>\n",
       "      <td>...</td>\n",
       "      <td>2300.0</td>\n",
       "      <td>3500.0</td>\n",
       "      <td>NaN</td>\n",
       "      <td>NaN</td>\n",
       "      <td>NaN</td>\n",
       "      <td>PADK 010000Z AUTO 36011KT SCT016 BKN023 BKN035...</td>\n",
       "      <td>5.658884</td>\n",
       "      <td>-1.386027e-15</td>\n",
       "      <td>5.658884</td>\n",
       "      <td>4.0</td>\n",
       "    </tr>\n",
       "    <tr>\n",
       "      <th>1</th>\n",
       "      <td>PADK</td>\n",
       "      <td>2023-01-01 00:05:00</td>\n",
       "      <td>-176.646</td>\n",
       "      <td>51.878</td>\n",
       "      <td>NaN</td>\n",
       "      <td>NaN</td>\n",
       "      <td>360.0</td>\n",
       "      <td>11.0</td>\n",
       "      <td>NaN</td>\n",
       "      <td>SCT</td>\n",
       "      <td>...</td>\n",
       "      <td>2300.0</td>\n",
       "      <td>2900.0</td>\n",
       "      <td>NaN</td>\n",
       "      <td>NaN</td>\n",
       "      <td>NaN</td>\n",
       "      <td>PADK 010005Z AUTO 36011KT SCT016 BKN023 BKN029...</td>\n",
       "      <td>5.658884</td>\n",
       "      <td>-1.386027e-15</td>\n",
       "      <td>5.658884</td>\n",
       "      <td>4.0</td>\n",
       "    </tr>\n",
       "    <tr>\n",
       "      <th>2</th>\n",
       "      <td>PADK</td>\n",
       "      <td>2023-01-01 00:10:00</td>\n",
       "      <td>-176.646</td>\n",
       "      <td>51.878</td>\n",
       "      <td>NaN</td>\n",
       "      <td>NaN</td>\n",
       "      <td>350.0</td>\n",
       "      <td>8.0</td>\n",
       "      <td>NaN</td>\n",
       "      <td>SCT</td>\n",
       "      <td>...</td>\n",
       "      <td>2300.0</td>\n",
       "      <td>3500.0</td>\n",
       "      <td>NaN</td>\n",
       "      <td>NaN</td>\n",
       "      <td>NaN</td>\n",
       "      <td>PADK 010010Z AUTO 35008KT SCT016 BKN023 OVC035...</td>\n",
       "      <td>4.115552</td>\n",
       "      <td>-7.146581e-01</td>\n",
       "      <td>4.053028</td>\n",
       "      <td>4.0</td>\n",
       "    </tr>\n",
       "    <tr>\n",
       "      <th>3</th>\n",
       "      <td>PADK</td>\n",
       "      <td>2023-01-01 00:15:00</td>\n",
       "      <td>-176.646</td>\n",
       "      <td>51.878</td>\n",
       "      <td>NaN</td>\n",
       "      <td>NaN</td>\n",
       "      <td>330.0</td>\n",
       "      <td>5.0</td>\n",
       "      <td>0.01</td>\n",
       "      <td>FEW</td>\n",
       "      <td>...</td>\n",
       "      <td>2100.0</td>\n",
       "      <td>3500.0</td>\n",
       "      <td>NaN</td>\n",
       "      <td>NaN</td>\n",
       "      <td>NaN</td>\n",
       "      <td>PADK 010015Z AUTO 33005KT FEW014 BKN021 OVC035...</td>\n",
       "      <td>2.572220</td>\n",
       "      <td>-1.286110e+00</td>\n",
       "      <td>2.227608</td>\n",
       "      <td>4.0</td>\n",
       "    </tr>\n",
       "    <tr>\n",
       "      <th>4</th>\n",
       "      <td>PADK</td>\n",
       "      <td>2023-01-01 00:20:00</td>\n",
       "      <td>-176.646</td>\n",
       "      <td>51.878</td>\n",
       "      <td>NaN</td>\n",
       "      <td>NaN</td>\n",
       "      <td>330.0</td>\n",
       "      <td>5.0</td>\n",
       "      <td>0.01</td>\n",
       "      <td>FEW</td>\n",
       "      <td>...</td>\n",
       "      <td>2100.0</td>\n",
       "      <td>3500.0</td>\n",
       "      <td>NaN</td>\n",
       "      <td>NaN</td>\n",
       "      <td>NaN</td>\n",
       "      <td>PADK 010020Z AUTO 33005KT FEW012 BKN021 OVC035...</td>\n",
       "      <td>2.572220</td>\n",
       "      <td>-1.286110e+00</td>\n",
       "      <td>2.227608</td>\n",
       "      <td>4.0</td>\n",
       "    </tr>\n",
       "    <tr>\n",
       "      <th>...</th>\n",
       "      <td>...</td>\n",
       "      <td>...</td>\n",
       "      <td>...</td>\n",
       "      <td>...</td>\n",
       "      <td>...</td>\n",
       "      <td>...</td>\n",
       "      <td>...</td>\n",
       "      <td>...</td>\n",
       "      <td>...</td>\n",
       "      <td>...</td>\n",
       "      <td>...</td>\n",
       "      <td>...</td>\n",
       "      <td>...</td>\n",
       "      <td>...</td>\n",
       "      <td>...</td>\n",
       "      <td>...</td>\n",
       "      <td>...</td>\n",
       "      <td>...</td>\n",
       "      <td>...</td>\n",
       "      <td>...</td>\n",
       "      <td>...</td>\n",
       "    </tr>\n",
       "    <tr>\n",
       "      <th>329</th>\n",
       "      <td>PADK</td>\n",
       "      <td>2023-01-01 23:40:00</td>\n",
       "      <td>-176.646</td>\n",
       "      <td>51.878</td>\n",
       "      <td>NaN</td>\n",
       "      <td>NaN</td>\n",
       "      <td>310.0</td>\n",
       "      <td>13.0</td>\n",
       "      <td>0.01</td>\n",
       "      <td>SCT</td>\n",
       "      <td>...</td>\n",
       "      <td>2600.0</td>\n",
       "      <td>3300.0</td>\n",
       "      <td>NaN</td>\n",
       "      <td>NaN</td>\n",
       "      <td>NaN</td>\n",
       "      <td>PADK 012340Z AUTO 31013KT SCT016 BKN026 OVC033...</td>\n",
       "      <td>6.687772</td>\n",
       "      <td>-5.123131e+00</td>\n",
       "      <td>4.298817</td>\n",
       "      <td>4.0</td>\n",
       "    </tr>\n",
       "    <tr>\n",
       "      <th>330</th>\n",
       "      <td>PADK</td>\n",
       "      <td>2023-01-01 23:45:00</td>\n",
       "      <td>-176.646</td>\n",
       "      <td>51.878</td>\n",
       "      <td>NaN</td>\n",
       "      <td>NaN</td>\n",
       "      <td>330.0</td>\n",
       "      <td>16.0</td>\n",
       "      <td>0.01</td>\n",
       "      <td>SCT</td>\n",
       "      <td>...</td>\n",
       "      <td>2800.0</td>\n",
       "      <td>3400.0</td>\n",
       "      <td>NaN</td>\n",
       "      <td>NaN</td>\n",
       "      <td>NaN</td>\n",
       "      <td>PADK 012345Z AUTO 33016KT SCT014 BKN028 OVC034...</td>\n",
       "      <td>8.231104</td>\n",
       "      <td>-4.115552e+00</td>\n",
       "      <td>7.128345</td>\n",
       "      <td>4.0</td>\n",
       "    </tr>\n",
       "    <tr>\n",
       "      <th>331</th>\n",
       "      <td>PADK</td>\n",
       "      <td>2023-01-01 23:50:00</td>\n",
       "      <td>-176.646</td>\n",
       "      <td>51.878</td>\n",
       "      <td>NaN</td>\n",
       "      <td>NaN</td>\n",
       "      <td>320.0</td>\n",
       "      <td>14.0</td>\n",
       "      <td>0.01</td>\n",
       "      <td>SCT</td>\n",
       "      <td>...</td>\n",
       "      <td>2400.0</td>\n",
       "      <td>3500.0</td>\n",
       "      <td>NaN</td>\n",
       "      <td>NaN</td>\n",
       "      <td>NaN</td>\n",
       "      <td>PADK 012350Z AUTO 32014KT SCT015 BKN024 OVC035...</td>\n",
       "      <td>7.202216</td>\n",
       "      <td>-4.629495e+00</td>\n",
       "      <td>5.517218</td>\n",
       "      <td>4.0</td>\n",
       "    </tr>\n",
       "    <tr>\n",
       "      <th>332</th>\n",
       "      <td>PADK</td>\n",
       "      <td>2023-01-01 23:55:00</td>\n",
       "      <td>-176.646</td>\n",
       "      <td>51.878</td>\n",
       "      <td>NaN</td>\n",
       "      <td>NaN</td>\n",
       "      <td>330.0</td>\n",
       "      <td>14.0</td>\n",
       "      <td>0.01</td>\n",
       "      <td>FEW</td>\n",
       "      <td>...</td>\n",
       "      <td>2400.0</td>\n",
       "      <td>3500.0</td>\n",
       "      <td>NaN</td>\n",
       "      <td>NaN</td>\n",
       "      <td>NaN</td>\n",
       "      <td>PADK 012355Z AUTO 33014KT FEW015 BKN024 OVC035...</td>\n",
       "      <td>7.202216</td>\n",
       "      <td>-3.601108e+00</td>\n",
       "      <td>6.237302</td>\n",
       "      <td>4.0</td>\n",
       "    </tr>\n",
       "    <tr>\n",
       "      <th>333</th>\n",
       "      <td>PADK</td>\n",
       "      <td>2023-01-01 23:56:00</td>\n",
       "      <td>-176.646</td>\n",
       "      <td>51.878</td>\n",
       "      <td>37.0</td>\n",
       "      <td>92.76</td>\n",
       "      <td>330.0</td>\n",
       "      <td>14.0</td>\n",
       "      <td>0.01</td>\n",
       "      <td>FEW</td>\n",
       "      <td>...</td>\n",
       "      <td>2400.0</td>\n",
       "      <td>3500.0</td>\n",
       "      <td>NaN</td>\n",
       "      <td>NaN</td>\n",
       "      <td>NaN</td>\n",
       "      <td>PADK 012356Z AUTO 33014G20KT FEW015 BKN024 OVC...</td>\n",
       "      <td>7.202216</td>\n",
       "      <td>-3.601108e+00</td>\n",
       "      <td>6.237302</td>\n",
       "      <td>4.0</td>\n",
       "    </tr>\n",
       "  </tbody>\n",
       "</table>\n",
       "<p>334 rows × 24 columns</p>\n",
       "</div>"
      ],
      "text/plain": [
       "    station               valid      lon     lat  tmpf   relh   drct  sknt  \\\n",
       "0      PADK 2023-01-01 00:00:00 -176.646  51.878   NaN    NaN  360.0  11.0   \n",
       "1      PADK 2023-01-01 00:05:00 -176.646  51.878   NaN    NaN  360.0  11.0   \n",
       "2      PADK 2023-01-01 00:10:00 -176.646  51.878   NaN    NaN  350.0   8.0   \n",
       "3      PADK 2023-01-01 00:15:00 -176.646  51.878   NaN    NaN  330.0   5.0   \n",
       "4      PADK 2023-01-01 00:20:00 -176.646  51.878   NaN    NaN  330.0   5.0   \n",
       "..      ...                 ...      ...     ...   ...    ...    ...   ...   \n",
       "329    PADK 2023-01-01 23:40:00 -176.646  51.878   NaN    NaN  310.0  13.0   \n",
       "330    PADK 2023-01-01 23:45:00 -176.646  51.878   NaN    NaN  330.0  16.0   \n",
       "331    PADK 2023-01-01 23:50:00 -176.646  51.878   NaN    NaN  320.0  14.0   \n",
       "332    PADK 2023-01-01 23:55:00 -176.646  51.878   NaN    NaN  330.0  14.0   \n",
       "333    PADK 2023-01-01 23:56:00 -176.646  51.878  37.0  92.76  330.0  14.0   \n",
       "\n",
       "     p01i skyc1  ...   skyl2   skyl3  skyl4  wxcodes  ice_accretion_1hr  \\\n",
       "0     NaN   SCT  ...  2300.0  3500.0    NaN      NaN                NaN   \n",
       "1     NaN   SCT  ...  2300.0  2900.0    NaN      NaN                NaN   \n",
       "2     NaN   SCT  ...  2300.0  3500.0    NaN      NaN                NaN   \n",
       "3    0.01   FEW  ...  2100.0  3500.0    NaN      NaN                NaN   \n",
       "4    0.01   FEW  ...  2100.0  3500.0    NaN      NaN                NaN   \n",
       "..    ...   ...  ...     ...     ...    ...      ...                ...   \n",
       "329  0.01   SCT  ...  2600.0  3300.0    NaN      NaN                NaN   \n",
       "330  0.01   SCT  ...  2800.0  3400.0    NaN      NaN                NaN   \n",
       "331  0.01   SCT  ...  2400.0  3500.0    NaN      NaN                NaN   \n",
       "332  0.01   FEW  ...  2400.0  3500.0    NaN      NaN                NaN   \n",
       "333  0.01   FEW  ...  2400.0  3500.0    NaN      NaN                NaN   \n",
       "\n",
       "                                                 metar      wspd  \\\n",
       "0    PADK 010000Z AUTO 36011KT SCT016 BKN023 BKN035...  5.658884   \n",
       "1    PADK 010005Z AUTO 36011KT SCT016 BKN023 BKN029...  5.658884   \n",
       "2    PADK 010010Z AUTO 35008KT SCT016 BKN023 OVC035...  4.115552   \n",
       "3    PADK 010015Z AUTO 33005KT FEW014 BKN021 OVC035...  2.572220   \n",
       "4    PADK 010020Z AUTO 33005KT FEW012 BKN021 OVC035...  2.572220   \n",
       "..                                                 ...       ...   \n",
       "329  PADK 012340Z AUTO 31013KT SCT016 BKN026 OVC033...  6.687772   \n",
       "330  PADK 012345Z AUTO 33016KT SCT014 BKN028 OVC034...  8.231104   \n",
       "331  PADK 012350Z AUTO 32014KT SCT015 BKN024 OVC035...  7.202216   \n",
       "332  PADK 012355Z AUTO 33014KT FEW015 BKN024 OVC035...  7.202216   \n",
       "333  PADK 012356Z AUTO 33014G20KT FEW015 BKN024 OVC...  7.202216   \n",
       "\n",
       "           wind_E    wind_N elevation  \n",
       "0   -1.386027e-15  5.658884       4.0  \n",
       "1   -1.386027e-15  5.658884       4.0  \n",
       "2   -7.146581e-01  4.053028       4.0  \n",
       "3   -1.286110e+00  2.227608       4.0  \n",
       "4   -1.286110e+00  2.227608       4.0  \n",
       "..            ...       ...       ...  \n",
       "329 -5.123131e+00  4.298817       4.0  \n",
       "330 -4.115552e+00  7.128345       4.0  \n",
       "331 -4.629495e+00  5.517218       4.0  \n",
       "332 -3.601108e+00  6.237302       4.0  \n",
       "333 -3.601108e+00  6.237302       4.0  \n",
       "\n",
       "[334 rows x 24 columns]"
      ]
     },
     "execution_count": 6,
     "metadata": {},
     "output_type": "execute_result"
    }
   ],
   "source": [
    "import numpy as np\n",
    "import pandas as pd\n",
    "# This variable should indicate the path from this Jupyter Notebook to the root directory of the repo.\n",
    "root_path = '../'\n",
    "# Adds the repo's root to the list of paths\n",
    "import sys\n",
    "sys.path.append(root_path)\n",
    "# Utilities package\n",
    "#from src.backend import utils\n",
    "\n",
    "# A custom function that turns strings into ints, floats, dates, or, if all else fails, the original string.\n",
    "def my_eval(s):\n",
    "    \"\"\"\n",
    "    Converts a string into an integer, float, or date object, depending on the string's content. \n",
    "    If the conversion is unsuccessful, returns the original string.\n",
    "\n",
    "    This function attempts to interpret a string in the following order:\n",
    "    1. Tries to convert the string to an integer.\n",
    "    2. If unsuccessful, tries to convert it to a float.\n",
    "    3. If still unsuccessful, tries to convert it to a date.\n",
    "    4. If all conversions fail, it returns the original string.\n",
    "\n",
    "    Parameters:\n",
    "    - s (str): The string to convert.\n",
    "\n",
    "    Returns:\n",
    "    - int, float, datetime.date, or str: The converted value or the original string if all conversions fail.\n",
    "    \"\"\"\n",
    "    try:\n",
    "        # Try to convert the string to a number (int or float)\n",
    "        return int(s)\n",
    "    except ValueError:\n",
    "        try:\n",
    "            return float(s)\n",
    "        except ValueError:\n",
    "            try:\n",
    "                # Try to convert the string to a datetime date\n",
    "                return datetime.datetime.strptime(s, '%Y-%m-%d').date()\n",
    "            except ValueError:\n",
    "                # If all conversions fail, return the original string\n",
    "                return s\n",
    "            \n",
    "# Function that will interpret the utf-8 text data recovered and turn it into a dataframe\n",
    "def text_to_dataframe(data):\n",
    "    \"\"\"\n",
    "    Converts a text block of data into a Pandas DataFrame.\n",
    "\n",
    "    The function processes a long string of data, where each line represents either a comment, \n",
    "    a header (with column names), or a row of data. Lines beginning with '#' are comments and \n",
    "    are ignored, as are empty lines. The first line of non-commented text is treated as the header, \n",
    "    providing the column names for the DataFrame. Subsequent lines of data are split by commas \n",
    "    and added to the respective columns.\n",
    "\n",
    "    Each entry in the data is processed by the 'my_eval' function to attempt conversion into \n",
    "    int, float, or date types, falling back to the original string if necessary.\n",
    "\n",
    "    Parameters:\n",
    "    - data (str): The block of text data to convert.\n",
    "\n",
    "    Returns:\n",
    "    - DataFrame: A Pandas DataFrame representing the structured data.\n",
    "    \"\"\"\n",
    "\n",
    "    # Dictionary that will become a dataframe\n",
    "    data_values = {}\n",
    "    # Looping thorugh lines of data\n",
    "    for line in data.split('\\n'):\n",
    "        # Ignoring empty lines or commented-out lines\n",
    "        if not line.startswith('#') and len(line) > 0:\n",
    "            # The first non-commented line contains the data columns.\n",
    "            # If there's nothing in the dictionary, it means that we're there, redefine the dictionary\n",
    "            if len(data_values) == 0:\n",
    "                # Start a dictionary where the keys are the columns, and entries are empty arrays (which we'll populate)\n",
    "                data_values = {col:[] for col in line.split(',')}\n",
    "            # If we're not in the columns line, we're in a line that contains data\n",
    "            else:\n",
    "                # Split data and append it to each entry of dictionary\n",
    "                line_data = line.split(',')\n",
    "                for i, col in enumerate(data_values.keys()):\n",
    "                    data_values[col] += [my_eval(line_data[i])]\n",
    "    return pd.DataFrame(data_values)\n",
    "\n",
    "# Function to filter stations to ones that have any data in between startts and endts\n",
    "def filter_stations(stations, startts, endts):\n",
    "    \"\"\"\n",
    "    Filter the list of station dictionaries. Include a station if its operation \n",
    "    dates overlap with the provided startts and endts, even partially.\n",
    "\n",
    "    Parameters:\n",
    "    - stations (list of dicts): The list of station dictionaries.\n",
    "    - startts (datetime): The start datetime.\n",
    "    - endts (datetime): The end datetime.\n",
    "\n",
    "    Returns:\n",
    "    - list of dicts: The filtered list of stations.\n",
    "    \"\"\"\n",
    "    filtered_stations = []\n",
    "\n",
    "    for station in stations:\n",
    "        # Parse the station's operation start and end dates.\n",
    "        # It's important to handle cases where these dates are None or empty strings.\n",
    "        archive_begin_str = station.get('archive_begin', '')\n",
    "        archive_end_str = station.get('archive_end', '')\n",
    "\n",
    "        try:\n",
    "            archive_begin = datetime.datetime.strptime(archive_begin_str, '%Y-%m-%d') if archive_begin_str else None\n",
    "        except ValueError:\n",
    "            archive_begin = None\n",
    "\n",
    "        try:\n",
    "            # If archive_end is None or an empty string, we assume the station is still operational\n",
    "            archive_end = datetime.datetime.strptime(archive_end_str, '%Y-%m-%d') if archive_end_str else datetime.datetime.max\n",
    "        except ValueError:\n",
    "            archive_end = None\n",
    "\n",
    "        # Check if the station's operation dates overlap with the query dates.\n",
    "        # The station is considered valid if its operation dates overlap even partially with the query dates.\n",
    "        if archive_begin is not None and archive_end is not None:\n",
    "            if (startts <= archive_end and endts >= archive_begin):\n",
    "                filtered_stations.append(station)\n",
    "\n",
    "    return filtered_stations\n",
    "\n",
    "# Start and end dates for analysis\n",
    "startts = datetime.datetime(2023, 1, 1)\n",
    "endts = datetime.datetime(2023, 1, 2)\n",
    "# Filtering stations to ones that have data in between startts and endtts\n",
    "stations = filter_stations(stations, startts, endts)\n",
    "# Base URL to manipulate\n",
    "service = \"http://mesonet.agron.iastate.edu/cgi-bin/request/asos.py?data=all&tz=Etc/UTC&format=comma&latlon=yes&\"\n",
    "# Adding dates to URL in proper format\n",
    "service += startts.strftime(\"year1=%Y&month1=%m&day1=%d&\")\n",
    "service += endts.strftime(\"year2=%Y&month2=%m&day2=%d&\")\n",
    "# Specifying the station to get data from\n",
    "station = stations[0]\n",
    "# These are the data columns that we care about, we'll ignore the rest\n",
    "columns_of_interest = ['station', 'valid', 'lon', 'lat', 'tmpf',\n",
    "                    'relh', 'drct', 'sknt', 'p01i', 'skyc1', 'skyc2',\n",
    "                    'skyc3', 'skyc4', 'skyl1', 'skyl2', 'skyl3', 'skyl4',\n",
    "                    'wxcodes', 'ice_accretion_1hr', 'metar']\n",
    "# Building proper uri for the request\n",
    "uri = f\"{service}&station={station['id']}\"\n",
    "\n",
    "clear_output(wait=True)\n",
    "print(f\"Requesting data for station {station['id']} on base-url: {service}\")\n",
    "# Loading raw data for a single station\n",
    "data = urlopen(uri, timeout=300).read().decode(\"utf-8\")\n",
    "# Interpreting data to a dataframe\n",
    "data = text_to_dataframe(data)[columns_of_interest]\n",
    "\n",
    "# This Section will slightly tweak some aspects of the data to make them nicer and more human-readable\n",
    "\n",
    "# Interprets the 'valid' entry as a datetime object\n",
    "data['valid'] = pd.to_datetime(data['valid'])\n",
    "# Calculates the equivalent timestamp to each date\n",
    "#data['timestamp'] = data['valid'].apply(utils.to_unix_timestamp)\n",
    "# Whenever there's missing data, it's filled with an 'M', this code will replace that with NaNs\n",
    "data = data.replace('M', np.nan)\n",
    "# This code will create the column `wspd`, which is the measured wind speed in meters per second, instead of knots.\n",
    "data['wspd'] = data['sknt']*0.514444\n",
    "# Creates columns of the North and East decomposition of the wind vector\n",
    "data['wind_E'] = np.sin(data['drct']/180*np.pi)*data['wspd']\n",
    "data['wind_N'] = np.cos(data['drct']/180*np.pi)*data['wspd']\n",
    "# Creating a dataframe for the stations found so we can assign an elevation to the data according to the station id.\n",
    "stations_df = pd.DataFrame(stations)\n",
    "# Assigning 'elevation' to each entry based on the station id\n",
    "data = pd.merge(data, stations_df[['id', 'elevation']], left_on='station', right_on='id', how='left')\n",
    "# Deleting 'id' column that is created as a side-product of the process above\n",
    "data.drop('id', axis='columns', inplace=True)\n",
    "\n",
    "# sorting data by date\n",
    "data.sort_values(by='valid', ignore_index=True, inplace=True)\n",
    "data"
   ]
  },
  {
   "cell_type": "code",
   "execution_count": 22,
   "metadata": {},
   "outputs": [
    {
     "name": "stderr",
     "output_type": "stream",
     "text": [
      "/var/folders/5c/4dc4m3p13_gd8160xmlxf97c0000gn/T/ipykernel_14397/798714318.py:1: DtypeWarning: Columns (14) have mixed types. Specify dtype option on import or set low_memory=False.\n",
      "  data = pd.read_csv('../data/weather/1672617600_1672704000.csv')\n"
     ]
    }
   ],
   "source": [
    "data = pd.read_csv('../data/weather/1672617600_1672704000.csv')"
   ]
  },
  {
   "cell_type": "code",
   "execution_count": 34,
   "metadata": {},
   "outputs": [],
   "source": [
    "metardf=data[['metar']].copy()"
   ]
  },
  {
   "cell_type": "code",
   "execution_count": 35,
   "metadata": {},
   "outputs": [
    {
     "data": {
      "text/html": [
       "<div>\n",
       "<style scoped>\n",
       "    .dataframe tbody tr th:only-of-type {\n",
       "        vertical-align: middle;\n",
       "    }\n",
       "\n",
       "    .dataframe tbody tr th {\n",
       "        vertical-align: top;\n",
       "    }\n",
       "\n",
       "    .dataframe thead th {\n",
       "        text-align: right;\n",
       "    }\n",
       "</style>\n",
       "<table border=\"1\" class=\"dataframe\">\n",
       "  <thead>\n",
       "    <tr style=\"text-align: right;\">\n",
       "      <th></th>\n",
       "      <th>metar</th>\n",
       "    </tr>\n",
       "  </thead>\n",
       "  <tbody>\n",
       "    <tr>\n",
       "      <th>0</th>\n",
       "      <td>K04V 010013Z AUTO 31009KT 10SM CLR 00/M03 A298...</td>\n",
       "    </tr>\n",
       "    <tr>\n",
       "      <th>1</th>\n",
       "      <td>K04V 010033Z AUTO 31008KT 10SM CLR 00/M03 A298...</td>\n",
       "    </tr>\n",
       "    <tr>\n",
       "      <th>2</th>\n",
       "      <td>K04V 010053Z AUTO 29007KT 10SM CLR 00/M03 A299...</td>\n",
       "    </tr>\n",
       "    <tr>\n",
       "      <th>3</th>\n",
       "      <td>K04V 010113Z AUTO 30011G14KT 10SM CLR M01/M03 ...</td>\n",
       "    </tr>\n",
       "    <tr>\n",
       "      <th>4</th>\n",
       "      <td>K04V 010133Z AUTO 31006KT 10SM SCT100 M01/M03 ...</td>\n",
       "    </tr>\n",
       "    <tr>\n",
       "      <th>...</th>\n",
       "      <td>...</td>\n",
       "    </tr>\n",
       "    <tr>\n",
       "      <th>415940</th>\n",
       "      <td>KZZV 012340Z AUTO 33002KT 10SM BKN030 09/08 A3...</td>\n",
       "    </tr>\n",
       "    <tr>\n",
       "      <th>415941</th>\n",
       "      <td>KZZV 012345Z AUTO 00000KT 10SM SCT022 BKN030 0...</td>\n",
       "    </tr>\n",
       "    <tr>\n",
       "      <th>415942</th>\n",
       "      <td>KZZV 012350Z AUTO 00000KT 10SM BKN022 OVC030 0...</td>\n",
       "    </tr>\n",
       "    <tr>\n",
       "      <th>415943</th>\n",
       "      <td>KZZV 012353Z AUTO 00000KT 10SM BKN022 OVC030 0...</td>\n",
       "    </tr>\n",
       "    <tr>\n",
       "      <th>415944</th>\n",
       "      <td>KZZV 012355Z AUTO 00000KT 10SM BKN022 OVC030 0...</td>\n",
       "    </tr>\n",
       "  </tbody>\n",
       "</table>\n",
       "<p>415945 rows × 1 columns</p>\n",
       "</div>"
      ],
      "text/plain": [
       "                                                    metar\n",
       "0       K04V 010013Z AUTO 31009KT 10SM CLR 00/M03 A298...\n",
       "1       K04V 010033Z AUTO 31008KT 10SM CLR 00/M03 A298...\n",
       "2       K04V 010053Z AUTO 29007KT 10SM CLR 00/M03 A299...\n",
       "3       K04V 010113Z AUTO 30011G14KT 10SM CLR M01/M03 ...\n",
       "4       K04V 010133Z AUTO 31006KT 10SM SCT100 M01/M03 ...\n",
       "...                                                   ...\n",
       "415940  KZZV 012340Z AUTO 33002KT 10SM BKN030 09/08 A3...\n",
       "415941  KZZV 012345Z AUTO 00000KT 10SM SCT022 BKN030 0...\n",
       "415942  KZZV 012350Z AUTO 00000KT 10SM BKN022 OVC030 0...\n",
       "415943  KZZV 012353Z AUTO 00000KT 10SM BKN022 OVC030 0...\n",
       "415944  KZZV 012355Z AUTO 00000KT 10SM BKN022 OVC030 0...\n",
       "\n",
       "[415945 rows x 1 columns]"
      ]
     },
     "execution_count": 35,
     "metadata": {},
     "output_type": "execute_result"
    }
   ],
   "source": [
    "metardf"
   ]
  },
  {
   "cell_type": "code",
   "execution_count": 36,
   "metadata": {},
   "outputs": [
    {
     "name": "stdout",
     "output_type": "stream",
     "text": [
      "<class 'pandas.core.frame.DataFrame'>\n",
      "RangeIndex: 415945 entries, 0 to 415944\n",
      "Data columns (total 1 columns):\n",
      " #   Column  Non-Null Count   Dtype \n",
      "---  ------  --------------   ----- \n",
      " 0   metar   415945 non-null  object\n",
      "dtypes: object(1)\n",
      "memory usage: 3.2+ MB\n"
     ]
    }
   ],
   "source": [
    "metardf.info()"
   ]
  },
  {
   "cell_type": "code",
   "execution_count": 41,
   "metadata": {
    "collapsed": true,
    "jupyter": {
     "outputs_hidden": true
    }
   },
   "outputs": [
    {
     "data": {
      "text/plain": [
       "['METAR K04V 010013Z AUTO 31009KT 10SM CLR 00/M03 A2989 RMK AO2',\n",
       " 'METAR K04V 010033Z AUTO 31008KT 10SM CLR 00/M03 A2989 RMK AO2',\n",
       " 'METAR K04V 010053Z AUTO 29007KT 10SM CLR 00/M03 A2990 RMK AO2',\n",
       " 'METAR K04V 010113Z AUTO 30011G14KT 10SM CLR M01/M03 A2990 RMK AO2',\n",
       " 'METAR K04V 010133Z AUTO 31006KT 10SM SCT100 M01/M03 A2991 RMK AO2',\n",
       " 'METAR K04V 010153Z AUTO 28005KT 10SM SCT100 M02/M04 A2992 RMK AO2',\n",
       " 'METAR K04V 010213Z AUTO 31009KT 10SM CLR M03/M05 A2992 RMK AO2',\n",
       " 'METAR K04V 010233Z AUTO 27004KT 10SM CLR M03/M05 A2993 RMK AO2',\n",
       " 'METAR K04V 010253Z AUTO 00000KT 10SM CLR M04/M06 A2993 RMK AO2',\n",
       " 'METAR K04V 010313Z AUTO 29003KT 10SM CLR M05/M06 A2994 RMK AO2',\n",
       " 'METAR K04V 010333Z AUTO 31005KT 10SM SCT090 M04/M05 A2994 RMK AO2',\n",
       " 'METAR K04V 010353Z AUTO 29005KT 10SM BKN090 M04/M05 A2994 RMK AO2',\n",
       " 'METAR K04V 010413Z AUTO 00000KT 10SM BKN080 M04/M06 A2995 RMK AO2',\n",
       " 'METAR K04V 010433Z AUTO 00000KT 10SM SCT080 M05/M06 A2995 RMK AO2',\n",
       " 'METAR K04V 010453Z AUTO 00000KT 10SM CLR M05/M06 A2995 RMK AO2',\n",
       " 'METAR K04V 010513Z AUTO 28008KT 10SM CLR M07/M07 A2996 RMK AO2',\n",
       " 'METAR K04V 010533Z AUTO 31003KT 10SM CLR M06/M07 A2996 RMK AO2',\n",
       " 'METAR K04V 010553Z AUTO 00000KT 10SM CLR M05/M06 A2996 RMK AO2 PWINO',\n",
       " 'METAR K04V 010613Z AUTO 00000KT 10SM CLR M06/M07 A2996 RMK AO2 PWINO',\n",
       " 'METAR K04V 010633Z AUTO 31003KT 10SM SCT065 SCT070 M05/M06 A2997 RMK AO2 PWINO',\n",
       " 'METAR K04V 010653Z AUTO 00000KT 10SM SCT060 M05/M06 A2997 RMK AO2 PWINO',\n",
       " 'METAR K04V 010713Z AUTO 32003KT 10SM SCT014 M05/M06 A2995 RMK AO2 PWINO',\n",
       " 'METAR K04V 010733Z AUTO 30003KT 10SM SCT016 M06/M07 A2995 RMK AO2 PWINO',\n",
       " 'METAR K04V 010753Z AUTO 29007KT 10SM BKN014 OVC080 M06/M07 A2994 RMK AO2 PWINO',\n",
       " 'METAR K04V 010813Z AUTO 31005KT 10SM SCT014 SCT080 M05/M06 A2994 RMK AO2 PWINO',\n",
       " 'METAR K04V 010833Z AUTO 31006KT 10SM SCT014 SCT070 SCT100 M03/M03 A2994 RMK AO2 PWINO',\n",
       " 'METAR K04V 010853Z AUTO 30007KT 10SM SCT090 SCT120 M05/M05 A2994 RMK AO2 PWINO',\n",
       " 'METAR K04V 010913Z AUTO 30008KT 10SM SCT120 M04/M06 A2994 RMK AO2 PWINO',\n",
       " 'METAR K04V 010933Z AUTO 30009KT 10SM SCT070 M03/M05 A2994 RMK AO2 PWINO',\n",
       " 'METAR K04V 010953Z AUTO 29010KT 10SM SCT070 M03/M05 A2994 RMK AO2 PWINO',\n",
       " 'METAR K04V 011013Z AUTO 30009KT 10SM SCT075 SCT085 M02/M03 A2994 RMK AO2 PWINO',\n",
       " 'METAR K04V 011033Z AUTO 31005KT 10SM SCT075 M02/M04 A2994 RMK AO2 PWINO',\n",
       " 'METAR K04V 011053Z AUTO 31010KT 10SM CLR M03/M04 A2993 RMK AO2 PWINO',\n",
       " 'METAR K04V 011113Z AUTO 33006KT 10SM CLR M03/M05 A2993 RMK AO2 PWINO',\n",
       " 'METAR K04V 011133Z AUTO 31008KT 10SM CLR M03/M05 A2992 RMK AO2 PWINO',\n",
       " 'METAR K04V 011153Z AUTO 30007KT 10SM CLR M03/M05 A2994 RMK AO2 PWINO',\n",
       " 'METAR K04V 011213Z AUTO 30005KT 10SM CLR M04/M06 A2994 RMK AO2 PWINO',\n",
       " 'METAR K04V 011233Z AUTO 30004KT 10SM SCT120 M04/M05 A2994 RMK AO2 PWINO',\n",
       " 'METAR K04V 011253Z AUTO 30003KT 10SM SCT120 M05/M05 A2994 RMK AO2 PWINO',\n",
       " 'METAR K04V 011313Z AUTO 00000KT 10SM SCT120 M05/M06 A2994 RMK AO2 PWINO',\n",
       " 'METAR K04V 011333Z AUTO 27003KT 10SM CLR M05/M06 A2994 RMK AO2 PWINO',\n",
       " 'METAR K04V 011353Z AUTO 30005KT 10SM CLR M05/M06 A2994 RMK AO2 PWINO',\n",
       " 'METAR K04V 011413Z AUTO 29003KT 10SM CLR M05/M06 A2996 RMK AO2 PWINO',\n",
       " 'METAR K04V 011433Z AUTO 01003KT 10SM CLR M06/M06 A2996 RMK AO2 PWINO',\n",
       " 'METAR K04V 011453Z AUTO 03003KT 10SM CLR M05/M06 A2995 RMK AO2 PWINO',\n",
       " 'METAR K04V 011513Z AUTO 27003KT 10SM CLR M03/M04 A2997 RMK AO2 PWINO',\n",
       " 'METAR K04V 011533Z AUTO 28005KT 10SM CLR M04/M05 A2997 RMK AO2 PWINO',\n",
       " 'METAR K04V 011553Z AUTO 28004KT 10SM CLR M03/M05 A2996 RMK AO2',\n",
       " 'METAR K04V 011613Z AUTO 28004KT 10SM CLR M02/M03 A2997 RMK AO2',\n",
       " 'METAR K04V 011633Z AUTO 28004KT 10SM CLR M01/M03 A2997 RMK AO2',\n",
       " 'METAR K04V 011653Z AUTO 29003KT 10SM CLR M01/M03 A2997 RMK AO2',\n",
       " 'METAR K04V 011713Z AUTO 28004KT 10SM CLR 00/M03 A2997 RMK AO2',\n",
       " 'METAR K04V 011733Z AUTO 27003KT 10SM CLR 00/M03 A2997 RMK AO2',\n",
       " 'METAR K04V 011753Z AUTO 00000KT 10SM SCT018 01/M02 A2997 RMK AO2',\n",
       " 'METAR K04V 011813Z AUTO 00000KT 10SM SCT020 SCT044 BKN050 01/M02 A2995 RMK AO2',\n",
       " 'METAR K04V 011833Z AUTO 00000KT 10SM SCT020 SCT046 02/M02 A2993 RMK AO2',\n",
       " 'METAR K04V 011853Z AUTO 00000KT 10SM SCT020 SCT024 03/M01 A2990 RMK AO2',\n",
       " 'METAR K04V 011913Z AUTO 16004KT 10SM SCT020 04/M02 A2989 RMK AO2',\n",
       " 'METAR K04V 011933Z AUTO 00000KT 10SM CLR 04/M02 A2987 RMK AO2',\n",
       " 'METAR K04V 011953Z AUTO 14004KT 10SM BKN090 05/M03 A2986 RMK AO2',\n",
       " 'METAR K04V 012013Z AUTO 13006KT 10SM BKN090 05/M03 A2984 RMK AO2',\n",
       " 'METAR K04V 012033Z AUTO 13005KT 10SM SCT060 BKN080 BKN090 06/M04 A2983 RMK AO2',\n",
       " 'METAR K04V 012053Z AUTO 00000KT 10SM SCT046 BKN055 OVC075 05/M04 A2983 RMK AO2',\n",
       " 'METAR K04V 012113Z AUTO 19003KT 10SM BKN043 OVC055 06/M04 A2983 RMK AO2',\n",
       " 'METAR K04V 012133Z AUTO 00000KT 10SM OVC045 06/M05 A2983 RMK AO2',\n",
       " 'METAR K04V 012153Z AUTO 00000KT 10SM SCT036 OVC045 05/M04 A2983 RMK AO2',\n",
       " 'METAR K04V 012213Z AUTO 19005KT 10SM SCT034 BKN044 OVC065 05/M04 A2983 RMK AO2',\n",
       " 'METAR K04V 012233Z AUTO 21006KT 10SM SCT043 BKN050 OVC065 05/M05 A2983 RMK AO2',\n",
       " 'METAR K04V 012253Z AUTO 31004KT 10SM BKN038 OVC050 04/M03 A2983 RMK AO2',\n",
       " 'METAR K04V 012313Z AUTO 00000KT 10SM SCT030 OVC039 04/M03 A2984 RMK AO2',\n",
       " 'METAR K04V 012333Z AUTO 06007KT 10SM SCT024 BKN036 OVC043 03/M03 A2984 RMK AO2',\n",
       " 'METAR K04V 012353Z AUTO 03005KT 10SM SCT023 BKN032 OVC049 02/M02 A2984 RMK AO2',\n",
       " 'METAR K04W 010015Z AUTO 14005KT 10SM OVC017 00/M01 A2967 RMK AO2',\n",
       " 'METAR K04W 010035Z AUTO 14006KT 10SM OVC017 00/M01 A2968 RMK AO2',\n",
       " 'METAR K04W 010055Z AUTO 14003KT 10SM OVC015 00/M01 A2968 RMK AO2',\n",
       " 'METAR K04W 010115Z AUTO 15004KT 10SM OVC015 00/M01 A2968 RMK AO2',\n",
       " 'METAR K04W 010135Z AUTO 15007KT 10SM OVC015 00/M01 A2969 RMK AO2',\n",
       " 'METAR K04W 010155Z AUTO 15006KT 10SM OVC013 00/M01 A2969 RMK AO2',\n",
       " 'METAR K04W 010215Z AUTO 15007KT 10SM OVC011 00/M01 A2969 RMK AO2',\n",
       " 'METAR K04W 010235Z AUTO 16006KT 10SM OVC011 00/M01 A2969 RMK AO2',\n",
       " 'METAR K04W 010255Z AUTO 16006KT 7SM OVC011 00/00 A2969 RMK AO2',\n",
       " 'METAR K04W 010315Z AUTO 16004KT 7SM OVC009 00/00 A2969 RMK AO2',\n",
       " 'METAR K04W 010335Z AUTO 16005KT 10SM OVC009 00/00 A2969 RMK AO2',\n",
       " 'METAR K04W 010355Z AUTO 16005KT 10SM OVC009 00/00 A2969 RMK AO2',\n",
       " 'METAR K04W 010415Z AUTO 15006KT 10SM OVC009 00/00 A2968 RMK AO2',\n",
       " 'METAR K04W 010435Z AUTO 17005KT 10SM OVC011 00/00 A2968 RMK AO2',\n",
       " 'METAR K04W 010455Z AUTO 17005KT 10SM OVC011 00/00 A2968 RMK AO2',\n",
       " 'METAR K04W 010515Z AUTO 17003KT 10SM OVC011 00/00 A2969 RMK AO2',\n",
       " 'METAR K04W 010535Z AUTO 16004KT 10SM OVC011 00/00 A2968 RMK AO2',\n",
       " 'METAR K04W 010555Z AUTO 15004KT 10SM OVC013 00/00 A2968 RMK AO2',\n",
       " 'METAR K04W 010615Z AUTO 16003KT 10SM OVC015 00/00 A2967 RMK AO2',\n",
       " 'METAR K04W 010635Z AUTO 19003KT 10SM OVC013 00/00 A2968 RMK AO2',\n",
       " 'METAR K04W 010655Z AUTO 19003KT 10SM OVC013 00/00 A2969 RMK AO2',\n",
       " 'METAR K04W 010715Z AUTO 19003KT 10SM OVC013 00/00 A2969 RMK AO2',\n",
       " 'METAR K04W 010735Z AUTO 19003KT 10SM OVC015 00/00 A2969 RMK AO2',\n",
       " 'METAR K04W 010755Z AUTO 20003KT 10SM OVC017 00/00 A2969 RMK AO2',\n",
       " 'METAR K04W 010815Z AUTO 20003KT 10SM OVC015 00/00 A2970 RMK AO2',\n",
       " 'METAR K04W 010835Z AUTO 20004KT 10SM OVC015 00/00 A2971 RMK AO2',\n",
       " 'METAR K04W 010855Z AUTO 24004KT 10SM OVC013 00/00 A2972 RMK AO2',\n",
       " 'METAR K04W 010915Z AUTO 24004KT 10SM OVC013 00/00 A2973 RMK AO2',\n",
       " 'METAR K04W 010935Z AUTO 22004KT 10SM OVC015 00/00 A2973 RMK AO2',\n",
       " 'METAR K04W 010955Z AUTO 24005KT 10SM OVC015 00/00 A2974 RMK AO2',\n",
       " 'METAR K04W 011015Z AUTO 25004KT 10SM OVC015 00/00 A2974 RMK AO2',\n",
       " 'METAR K04W 011035Z AUTO 24005KT 10SM OVC017 00/00 A2974 RMK AO2',\n",
       " 'METAR K04W 011055Z AUTO 24005KT 10SM OVC017 00/00 A2974 RMK AO2',\n",
       " 'METAR K04W 011115Z AUTO 24005KT 10SM OVC017 00/00 A2975 RMK AO2',\n",
       " 'METAR K04W 011135Z AUTO 24004KT 10SM OVC017 00/00 A2976 RMK AO2',\n",
       " 'METAR K04W 011155Z AUTO 26003KT 10SM OVC017 00/M01 A2976 RMK AO2',\n",
       " 'METAR K04W 011215Z AUTO 24004KT 10SM OVC017 00/M01 A2977 RMK AO2',\n",
       " 'METAR K04W 011235Z AUTO 25003KT 10SM OVC017 00/M01 A2977 RMK AO2',\n",
       " 'METAR K04W 011255Z AUTO 00000KT 10SM OVC015 00/M01 A2978 RMK AO2',\n",
       " 'METAR K04W 011315Z AUTO 26003KT 10SM OVC013 00/M01 A2979 RMK AO2',\n",
       " 'METAR K04W 011335Z AUTO 25003KT 10SM OVC013 00/M01 A2979 RMK AO2',\n",
       " 'METAR K04W 011355Z AUTO 24004KT 10SM OVC013 00/M01 A2979 RMK AO2',\n",
       " 'METAR K04W 011415Z AUTO 26004KT 10SM OVC013 00/M02 A2980 RMK AO2',\n",
       " 'METAR K04W 011435Z AUTO 23008KT 10SM OVC013 00/M01 A2981 RMK AO2',\n",
       " 'METAR K04W 011455Z AUTO 24006KT 10SM OVC013 00/M01 A2982 RMK AO2',\n",
       " 'METAR K04W 011515Z AUTO 23006KT 10SM OVC013 00/M02 A2983 RMK AO2',\n",
       " 'METAR K04W 011535Z AUTO 25008KT 10SM OVC011 00/M02 A2984 RMK AO2',\n",
       " 'METAR K04W 011555Z AUTO 26007KT 10SM OVC011 00/M02 A2984 RMK AO2',\n",
       " 'METAR K04W 011615Z AUTO 23008KT 10SM OVC009 00/M02 A2985 RMK AO2',\n",
       " 'METAR K04W 011635Z AUTO 23009KT 10SM OVC009 00/M02 A2986 RMK AO2',\n",
       " 'METAR K04W 011655Z AUTO 22007KT 7SM OVC009 00/M02 A2986 RMK AO2',\n",
       " 'METAR K04W 011715Z AUTO 22007KT 7SM OVC007 00/M02 A2986 RMK AO2',\n",
       " 'METAR K04W 011735Z AUTO 24008KT 5SM BR OVC007 M01/M02 A2986 RMK AO2',\n",
       " 'METAR K04W 011755Z AUTO 22009KT 5SM BR OVC007 00/M02 A2988 RMK AO2',\n",
       " 'METAR K04W 011815Z AUTO 26009KT 7SM OVC007 M01/M02 A2986 RMK AO2',\n",
       " 'METAR K04W 011835Z AUTO 24007KT 5SM BR OVC007 M01/M02 A2987 RMK AO2',\n",
       " 'METAR K04W 011855Z AUTO 24008KT 5SM BR OVC007 M01/M02 A2987 RMK AO2',\n",
       " 'METAR K04W 011915Z AUTO 22008KT 7SM OVC007 M01/M02 A2988 RMK AO2',\n",
       " 'METAR K04W 011935Z AUTO 22007KT 5SM BR OVC007 M01/M02 A2989 RMK AO2',\n",
       " 'METAR K04W 011955Z AUTO 23009KT 7SM OVC007 M01/M02 A2988 RMK AO2',\n",
       " 'METAR K04W 012015Z AUTO 22007KT 7SM OVC009 M01/M02 A2988 RMK AO2',\n",
       " 'METAR K04W 012035Z AUTO 24007KT 5SM BR OVC009 M01/M02 A2989 RMK AO2',\n",
       " 'METAR K04W 012055Z AUTO 21006KT 5SM BR OVC009 M01/M02 A2988 RMK AO2',\n",
       " 'METAR K04W 012115Z AUTO 21006KT 4SM BR OVC009 M01/M02 A2989 RMK AO2',\n",
       " 'METAR K04W 012135Z AUTO 22006KT 4SM BR OVC009 M01/M02 A2990 RMK AO2',\n",
       " 'METAR K04W 012155Z AUTO 23007KT 4SM BR OVC007 M01/M02 A2991 RMK AO2',\n",
       " 'METAR K04W 012215Z AUTO 23006KT 5SM BR OVC007 M01/M02 A2991 RMK AO2',\n",
       " 'METAR K04W 012235Z AUTO 22006KT 5SM BR OVC009 M01/M02 A2991 RMK AO2',\n",
       " 'METAR K04W 012255Z AUTO 23006KT 5SM BR OVC009 M01/M02 A2993 RMK AO2',\n",
       " 'METAR K04W 012315Z AUTO 22006KT 7SM OVC011 M01/M02 A2993 RMK AO2',\n",
       " 'METAR K04W 012335Z AUTO 23006KT 10SM OVC013 M01/M03 A2994 RMK AO2',\n",
       " 'METAR K04W 012355Z AUTO 23007KT 10SM OVC013 M02/M03 A2995 RMK AO2',\n",
       " 'METAR K05U 010015Z AUTO 35005KT 1SM BR OVC003 01/01 A2970 RMK A01',\n",
       " 'METAR K05U 010035Z AUTO 00000KT 3/4SM BR OVC002 01/01 A2970 RMK A01',\n",
       " 'METAR K05U 010055Z AUTO 00000KT 1 1/2SM BR OVC002 00/01 A2970 RMK A01 P0002',\n",
       " 'METAR K05U 010115Z AUTO 00000KT 1SM BR OVC002 00/00 A2970 RMK A01',\n",
       " 'METAR K05U 010130Z AUTO 00000KT 1SM BR OVC002 00/00 A2969 RMK A01',\n",
       " 'METAR K05U 010155Z AUTO 00000KT 3/4SM BR OVC002 00/00 A2969 RMK A01 P0001',\n",
       " 'METAR K05U 010215Z AUTO 00000KT 1 1/2SM BR OVC003 00/00 A2969 RMK A01',\n",
       " 'METAR K05U 010235Z AUTO 00000KT 1SM BR OVC003 00/00 A2969 RMK A01',\n",
       " 'METAR K05U 010255Z AUTO 00000KT 1SM BR OVC003 M00/M00 A2968 RMK A01 P0001',\n",
       " 'METAR K05U 010315Z AUTO 00000KT 1/2SM BR OVC002 M00/M00 A2968 RMK A01',\n",
       " 'METAR K05U 010335Z AUTO 00000KT 3/4SM BR OVC002 M00/M00 A2968 RMK A01',\n",
       " 'METAR K05U 010355Z AUTO 00000KT 1SM BR OVC002 M01/M00 A2968 RMK A01',\n",
       " 'METAR K05U 010415Z AUTO 00000KT 3/4SM BR OVC002 M01/M01 A2968 RMK A01',\n",
       " 'METAR K05U 010435Z AUTO 00000KT 3/4SM BR OVC002 M01/M01 A2967 RMK A01',\n",
       " 'METAR K05U 010455Z AUTO 00000KT 1 1/2SM BR OVC004 M01/M01 A2967 RMK A01',\n",
       " 'METAR K05U 010515Z AUTO 00000KT 1 3/4SM BR OVC004 M01/M01 A2967 RMK A01',\n",
       " 'METAR K05U 010535Z AUTO 00000KT 3/4SM BR OVC003 M01/M01 A2967 RMK A01',\n",
       " 'METAR K05U 010555Z AUTO 00000KT 1SM BR OVC002 M01/M01 A2966 RMK A01',\n",
       " 'METAR K05U 010615Z AUTO 00000KT 1 1/4SM BR OVC002 M01/M01 A2966 RMK A01',\n",
       " 'METAR K05U 010635Z AUTO 00000KT 1 1/2SM BR OVC003 M01/M01 A2966 RMK A01',\n",
       " 'METAR K05U 010655Z AUTO 00000KT 1 1/4SM BR OVC002 M01/M01 A2966 RMK A01',\n",
       " 'METAR K05U 010710Z AUTO 00000KT 1 3/4SM BR OVC003 M01/M01 A2966 RMK A01',\n",
       " 'METAR K05U 010735Z AUTO 00000KT 2SM BR OVC004 M01/M01 A2966 RMK A01',\n",
       " 'METAR K05U 010755Z AUTO 00000KT 2 1/2SM BR OVC004 M01/M01 A2965 RMK A01',\n",
       " 'METAR K05U 010815Z AUTO 00000KT 2SM BR OVC004 M01/M01 A2965 RMK A01',\n",
       " 'METAR K05U 010835Z AUTO 00000KT 1 1/4SM BR OVC002 M01/M01 A2965 RMK A01',\n",
       " 'METAR K05U 010855Z AUTO 00000KT 3/4SM BR OVC002 M01/M01 A2964 RMK A01',\n",
       " 'METAR K05U 010915Z AUTO 00000KT 3/4SM BR OVC002 M01/M01 A2964 RMK A01',\n",
       " 'METAR K05U 010935Z AUTO 00000KT 1 1/4SM BR OVC003 M01/M01 A2965 RMK A01',\n",
       " 'METAR K05U 010955Z AUTO 00000KT 1SM BR OVC002 M01/M01 A2964 RMK A01 P0001',\n",
       " 'METAR K05U 011015Z AUTO 00000KT 1SM BR OVC002 M01/M01 A2964 RMK A01',\n",
       " 'METAR K05U 011035Z AUTO 00000KT 1 1/2SM BR OVC002 M01/M01 A2965 RMK A01',\n",
       " 'METAR K05U 011055Z AUTO 00000KT 1 1/4SM BR OVC002 M01/M01 A2964 RMK A01 P0001',\n",
       " 'METAR K05U 011115Z AUTO 00000KT 2SM BR BKN004 M01/M01 A2963 RMK A01',\n",
       " 'METAR K05U 011135Z AUTO 00000KT 3SM BR OVC005 M01/M01 A2963 RMK A01',\n",
       " 'METAR K05U 011155Z AUTO 00000KT 4SM BR OVC005 M01/M01 A2963 RMK A01',\n",
       " 'METAR K05U 011215Z AUTO 00000KT 4SM BR OVC005 M01/M01 A2962 RMK A01',\n",
       " 'METAR K05U 011235Z AUTO 00000KT 1SM BR OVC003 M02/M02 A2963 RMK A01',\n",
       " 'METAR K05U 011250Z AUTO 00000KT 1SM BR OVC002 M02/M02 A2963 RMK A01',\n",
       " 'METAR K05U 011315Z AUTO 00000KT 1/2SM BR OVC002 M02/M02 A2964 RMK A01',\n",
       " 'METAR K05U 011335Z AUTO 00000KT 1 1/4SM BR BKN002 OVC008 M02/M02 A2965 RMK A01',\n",
       " 'METAR K05U 011355Z AUTO 00000KT 2 1/2SM BR FEW002 SCT007 BKN015 M02/M02 A2965 RMK A01',\n",
       " 'METAR K05U 011415Z AUTO 00000KT 1 1/4SM BR BKN002 BKN007 BKN015 M02/M02 A2966 RMK A01',\n",
       " 'METAR K05U 011435Z AUTO 00000KT 1/2SM FZFG OVC002 M02/M02 A2967 RMK A01',\n",
       " 'METAR K05U 011455Z AUTO 00000KT 1/4SM FZFG OVC002 M02/M02 A2967 RMK A01 P0002',\n",
       " 'METAR K05U 011515Z AUTO 00000KT 1/4SM FZFG OVC002 M02/M02 A2968 RMK A01',\n",
       " 'METAR K05U 011535Z AUTO 00000KT 1/4SM FZFG OVC002 M02/M02 A2969 RMK A01',\n",
       " 'METAR K05U 011555Z AUTO 00000KT 1/2SM FZFG OVC002 M03/M03 A2969 RMK A01 P0001',\n",
       " 'METAR K05U 011615Z AUTO 00000KT 3/4SM BR BKN002 M03/M03 A2970 RMK A01',\n",
       " 'METAR K05U 011635Z AUTO 00000KT 3/4SM BR BKN003 M03/M03 A2971 RMK A01',\n",
       " 'METAR K05U 011655Z AUTO 00000KT 3/4SM BR BKN003 M03/M03 A2972 RMK A01',\n",
       " 'METAR K05U 011715Z AUTO 00000KT 1/2SM BR BKN002 M03/M03 A2972 RMK A01',\n",
       " 'METAR K05U 011735Z AUTO 00000KT 3/4SM BR BKN003 M03/M03 A2973 RMK A01',\n",
       " 'METAR K05U 011755Z AUTO 00000KT 3/4SM BR VV005 M02/M03 A2973 RMK A01 P0001',\n",
       " 'METAR K05U 011815Z AUTO 00000KT 3/4SM BR VV005 M02/M03 A2973 RMK A01',\n",
       " 'METAR K05U 011830Z AUTO 00000KT 1SM BR CLR M02/M03 A2973 RMK A01',\n",
       " 'METAR K05U 011855Z AUTO 00000KT 1 3/4SM BR CLR M02/M03 A2971 RMK A01',\n",
       " 'METAR K05U 011915Z AUTO 00000KT 2 1/2SM BR CLR M02/M03 A2972 RMK A01',\n",
       " 'METAR K05U 011935Z AUTO 00000KT 4SM BR FEW020 M02/M03 A2971 RMK A01',\n",
       " 'METAR K05U 011955Z AUTO 00000KT 2 1/2SM BR CLR M02/M04 A2971 RMK A01',\n",
       " 'METAR K05U 012015Z AUTO 00000KT 2SM BR FEW020 M02/M04 A2970 RMK A01',\n",
       " 'METAR K05U 012035Z AUTO 00000KT 1 1/4SM BR SCT020 M02/M04 A2970 RMK A01',\n",
       " 'METAR K05U 012055Z AUTO 00000KT 1 1/2SM BR SCT015 M02/M04 A2971 RMK A01 P0001',\n",
       " 'METAR K05U 012115Z AUTO 00000KT 1 1/4SM BR SCT013 SCT019 M02/M04 A2972 RMK A01',\n",
       " 'METAR K05U 012135Z AUTO 00000KT 1 1/2SM BR SCT014 BKN020 M02/M04 A2972 RMK A01',\n",
       " 'METAR K05U 012155Z AUTO 00000KT 1 1/4SM BR SCT014 BKN020 M02/M04 A2972 RMK A01',\n",
       " 'METAR K05U 012215Z AUTO 00000KT 2 1/2SM BR SCT018 SCT023 M02/M04 A2973 RMK A01',\n",
       " 'METAR K05U 012235Z AUTO 00000KT 5SM BR BKN020 M02/M04 A2973 RMK A01',\n",
       " 'METAR K05U 012255Z AUTO 00000KT 3SM BR FEW002 OVC021 M03/M04 A2974 RMK A01',\n",
       " 'METAR K05U 012315Z AUTO 00000KT 1 1/4SM BR FEW002 BKN014 BKN020 M03/M05 A2975 RMK A01',\n",
       " 'METAR K05U 012335Z AUTO 00000KT 1SM BR BKN002 BKN014 BKN019 M03/M05 A2975 RMK A01',\n",
       " 'METAR K05U 012355Z AUTO 00000KT 1SM BR BKN002 OVC027 M03/M05 A2975 RMK A01',\n",
       " 'METAR K06C 010015Z AUTO 12004KT 10SM OVC080 02/M01 A2987 RMK AO2 T00221008',\n",
       " 'METAR K06C 010035Z AUTO 10003KT 10SM OVC080 02/00 A2988 RMK AO2 T00201005',\n",
       " 'METAR K06C 010055Z AUTO 14005KT 10SM OVC065 02/M01 A2988 RMK AO2 T00211006',\n",
       " 'METAR K06C 010115Z AUTO 11006KT 10SM SCT065 BKN075 OVC100 02/00 A2987 RMK AO2 T00201005',\n",
       " 'METAR K06C 010135Z AUTO 12006KT 10SM SCT075 OVC100 02/00 A2987 RMK AO2 T00201003',\n",
       " 'METAR K06C 010155Z AUTO 14003KT 10SM OVC100 02/00 A2988 RMK AO2 T00200000',\n",
       " 'METAR K06C 010215Z AUTO 13006KT 10SM OVC100 02/00 A2986 RMK AO2 T00200002',\n",
       " 'METAR K06C 010235Z AUTO 12004KT 10SM OVC100 02/01 A2986 RMK AO2 T00190005',\n",
       " 'METAR K06C 010255Z AUTO 00000KT 10SM SCT085 OVC100 02/01 A2988 RMK AO2 T00200005',\n",
       " 'METAR K06C 010315Z AUTO 00000KT 10SM BKN075 OVC085 02/01 A2989 RMK AO2 T00200006',\n",
       " 'METAR K06C 010335Z AUTO 11003KT 10SM OVC070 02/01 A2988 RMK AO2 T00170006',\n",
       " 'METAR K06C 010355Z AUTO 12005KT 10SM SCT060 BKN070 OVC085 02/01 A2986 RMK AO2 T00210009',\n",
       " 'METAR K06C 010415Z AUTO 11005KT 10SM BKN065 OVC095 02/01 A2986 RMK AO2 T00200010',\n",
       " 'METAR K06C 010435Z AUTO 00000KT 10SM OVC065 02/01 A2987 RMK AO2 T00200011',\n",
       " 'METAR K06C 010455Z AUTO 00000KT 10SM BKN065 OVC080 02/01 A2987 RMK AO2 T00200011',\n",
       " 'METAR K06C 010515Z AUTO 11004KT 10SM OVC080 02/01 A2986 RMK AO2 T00180011',\n",
       " 'METAR K06C 010535Z AUTO 13007KT 10SM BKN070 OVC075 02/02 A2983 RMK AO2 T00200015',\n",
       " 'METAR K06C 010555Z AUTO 12005KT 10SM OVC065 02/02 A2983 RMK AO2 T00210015 10022 20015 400351041',\n",
       " 'METAR K06C 010615Z AUTO 00000KT 10SM OVC065 02/02 A2983 RMK AO2 T00220017',\n",
       " 'METAR K06C 010635Z AUTO 12004KT 7SM OVC065 02/02 A2983 RMK AO2 T00220018',\n",
       " 'METAR K06C 010655Z AUTO 13004KT 7SM BKN020 OVC065 02/02 A2982 RMK AO2 T00220021',\n",
       " 'METAR K06C 010715Z AUTO 13004KT 7SM BKN015 OVC020 03/02 A2982 RMK AO2 T00250023',\n",
       " 'METAR K06C 010735Z AUTO 16004KT 7SM OVC013 03/03 A2983 RMK AO2 T00260026',\n",
       " 'METAR K06C 010755Z AUTO 14003KT 5SM OVC011 03/03 A2983 RMK AO2 T00260026',\n",
       " 'METAR K06C 010815Z AUTO 00000KT 4SM OVC009 03/03 A2983 RMK AO2 P0001 T00270027',\n",
       " 'METAR K06C 010835Z AUTO 00000KT 2SM OVC009 03/03 A2983 RMK AO2 P0003 T00260026',\n",
       " 'METAR K06C 010855Z AUTO 00000KT 2SM OVC007 03/03 A2983 RMK AO2 P0008 60008 T00280028',\n",
       " 'METAR K06C 010915Z AUTO 00000KT 1 3/4SM OVC005 03/03 A2983 RMK AO2 P0002 T00300030',\n",
       " 'METAR K06C 010935Z AUTO 00000KT 3SM OVC005 04/04 A2983 RMK AO2 P0002 T00350035',\n",
       " 'METAR K06C 010955Z AUTO 00000KT 4SM OVC003 04/04 A2982 RMK AO2 P0002 T00360036',\n",
       " 'METAR K06C 011015Z AUTO 18003KT 3SM OVC003 04/04 A2982 RMK AO2 T00370037',\n",
       " 'METAR K06C 011035Z AUTO 00000KT 3SM OVC003 04/04 A2982 RMK AO2 T00390039',\n",
       " 'METAR K06C 011055Z AUTO 19003KT 2 1/2SM OVC003 04/04 A2982 RMK AO2 P0001 T00400040',\n",
       " 'METAR K06C 011115Z AUTO 19004KT 1 1/2SM OVC003 04/04 A2983 RMK AO2 T00400040',\n",
       " 'METAR K06C 011135Z AUTO 23004KT 1 1/4SM OVC003 04/04 A2984 RMK AO2 T00410041',\n",
       " 'METAR K06C 011155Z AUTO 22003KT 1SM OVC003 04/04 A2984 RMK AO2 60011 70011 T00420042 10042 20021',\n",
       " 'METAR K06C 011215Z AUTO 23004KT 1/2SM OVC003 04/04 A2985 RMK AO2 T00410041',\n",
       " 'METAR K06C 011235Z AUTO 26003KT 3/4SM OVC003 05/05 A2985 RMK AO2 T00450045',\n",
       " 'METAR K06C 011255Z AUTO 26005KT 3SM OVC003 05/05 A2985 RMK AO2 T00470047',\n",
       " 'METAR K06C 011315Z AUTO 26004KT 4SM OVC003 05/05 A2986 RMK AO2 T00480048',\n",
       " 'METAR K06C 011335Z AUTO 25003KT 4SM OVC003 05/05 A2986 RMK AO2 T00470047',\n",
       " 'METAR K06C 011355Z AUTO 26004KT 2 1/2SM OVC003 05/05 A2988 RMK AO2 T00460046',\n",
       " 'METAR K06C 011415Z AUTO 25003KT 2 1/2SM OVC003 05/05 A2988 RMK AO2 T00460046',\n",
       " 'METAR K06C 011435Z AUTO 27005KT 3SM OVC003 05/05 A2989 RMK AO2 T00460046',\n",
       " 'METAR K06C 011455Z AUTO 26005KT 2SM OVC003 05/05 A2990 RMK AO2 T00450045',\n",
       " 'METAR K06C 011515Z AUTO 26003KT 3SM OVC005 05/05 A2991 RMK AO2 T00450045',\n",
       " 'METAR K06C 011535Z AUTO 24005KT 2 1/2SM OVC005 05/05 A2992 RMK AO2 T00460046',\n",
       " 'METAR K06C 011555Z AUTO 27003KT 2 1/2SM OVC005 05/05 A2993 RMK AO2 T00450045',\n",
       " 'METAR K06C 011615Z AUTO 24005KT 2SM OVC003 05/05 A2993 RMK AO2 T00450045',\n",
       " 'METAR K06C 011635Z AUTO 24005KT 1 3/4SM OVC003 04/04 A2993 RMK AO2 T00420042',\n",
       " 'METAR K06C 011655Z AUTO 23006KT 1 1/2SM OVC003 04/04 A2994 RMK AO2 T00400040',\n",
       " 'METAR K06C 011715Z AUTO 22006KT 1 1/2SM OVC003 04/04 A2994 RMK AO2 T00400040',\n",
       " 'METAR K06C 011735Z AUTO 23005KT 3/4SM OVC003 04/04 A2994 RMK AO2 T00370037',\n",
       " 'METAR K06C 011755Z AUTO 26005KT 1 1/4SM OVC003 04/04 A2994 RMK AO2 T00400040 10048 20037',\n",
       " 'METAR K06C 011815Z AUTO 22007KT 1 1/4SM OVC003 04/04 A2994 RMK AO2 T00410041',\n",
       " 'METAR K06C 011835Z AUTO 23007KT 1 3/4SM OVC003 04/04 A2995 RMK AO2 T00440044',\n",
       " 'METAR K06C 011855Z AUTO 25005KT 1 3/4SM OVC003 04/04 A2994 RMK AO2 T00420042',\n",
       " 'METAR K06C 011915Z AUTO 27004KT 3SM OVC003 05/05 A2994 RMK AO2 T00450045',\n",
       " 'METAR K06C 011935Z AUTO 26003KT 4SM OVC003 05/05 A2993 RMK AO2 T00470047',\n",
       " 'METAR K06C 011955Z AUTO 26003KT 5SM SCT005 05/05 A2993 RMK AO2 T00500050',\n",
       " 'METAR K06C 012015Z AUTO 25004KT 5SM SCT007 06/06 A2994 RMK AO2 T00550055',\n",
       " 'METAR K06C 012035Z AUTO 23005KT 7SM SCT007 06/06 A2995 RMK AO2 T00600060',\n",
       " 'METAR K06C 012055Z AUTO 22005KT 7SM CLR 06/06 A2995 RMK AO2 T00570055',\n",
       " 'METAR K06C 012115Z AUTO 24004KT 7SM CLR 06/06 A2996 RMK AO2 T00560055',\n",
       " 'METAR K06C 012135Z AUTO 24003KT 5SM CLR 05/05 A2997 RMK AO2 T00530053',\n",
       " 'METAR K06C 012155Z AUTO 24003KT 5SM CLR 05/05 A2997 RMK AO2 T00510051',\n",
       " 'METAR K06C 012215Z AUTO 24003KT 5SM SCT120 05/05 A2997 RMK AO2 T00500050',\n",
       " 'METAR K06C 012235Z AUTO 23003KT 5SM BKN110 05/05 A2998 RMK AO2 T00470047',\n",
       " 'METAR K06C 012255Z AUTO 00000KT 5SM SCT110 04/04 A2997 RMK AO2 T00430043',\n",
       " 'METAR K06C 012315Z AUTO 00000KT 3SM CLR 04/04 A2995 RMK AO2 T00360036',\n",
       " 'METAR K06C 012335Z AUTO 00000KT 3SM CLR 04/04 A2994 RMK AO2 T00350035',\n",
       " 'METAR K06C 012355Z AUTO 00000KT 2 1/2SM CLR 03/03 A2997 RMK AO2 T00320032 10060 20030',\n",
       " 'METAR K06D 010015Z AUTO 18007G20KT 3/4SM BR OVC002 M10/M10 A2958 RMK AO2',\n",
       " 'METAR K06D 010035Z AUTO 1 1/2SM BR OVC002 M10/M10 A2958 RMK AO2',\n",
       " 'METAR K06D 010055Z AUTO 19008G16KT 1 1/2SM BR OVC002 M10/M10 A2958 RMK AO2',\n",
       " 'METAR K06D 010115Z AUTO 20005G13KT 2SM BR OVC002 M10/M10 A2959 RMK AO2',\n",
       " 'METAR K06D 010135Z AUTO 19008G14KT 2SM BR OVC003 M10/M10 A2959 RMK AO2',\n",
       " 'METAR K06D 010155Z AUTO 1 1/4SM BR OVC002 M10/M10 A2960 RMK AO2',\n",
       " 'METAR K06D 010215Z AUTO 20007G12KT 1 3/4SM BR OVC002 M10/M10 A2960 RMK AO2',\n",
       " 'METAR K06D 010235Z AUTO 21011KT 5SM BR OVC002 M10/M10 A2961 RMK AO2',\n",
       " 'METAR K06D 010255Z AUTO 7SM OVC003 M10/M10 A2961 RMK AO2',\n",
       " 'METAR K06D 010315Z AUTO 10SM OVC003 M10/M10 A2961 RMK AO2',\n",
       " 'METAR K06D 010335Z AUTO 19007KT 10SM BKN004 OVC055 M10/M10 A2961 RMK AO2',\n",
       " 'METAR K06D 010355Z AUTO 9SM BKN005 OVC060 M10/M10 A2960 RMK AO2',\n",
       " 'METAR K06D 010415Z AUTO 00000KT 7SM FEW005 FEW044 BKN060 M11/M11 A2960 RMK AO2',\n",
       " 'METAR K06D 010435Z AUTO 20006KT 10SM BKN050 BKN060 M10/M11 A2961 RMK AO2',\n",
       " 'METAR K06D 010455Z AUTO 00000KT 9SM OVC050 M10/M10 A2961 RMK AO2',\n",
       " 'METAR K06D 010515Z AUTO 7SM BKN002 OVC050 M10/M10 A2961 RMK AO2',\n",
       " 'METAR K06D 010535Z AUTO 3SM BR OVC002 M10/M11 A2962 RMK AO2',\n",
       " 'METAR K06D 010555Z AUTO 3SM BR OVC002 M10/M11 A2962 RMK AO2',\n",
       " 'METAR K06D 010615Z AUTO 30003KT 4SM BR OVC002 M10/M11 A2963 RMK AO2',\n",
       " 'METAR K06D 010635Z AUTO 10SM BKN003 M11/M11 A2963 RMK AO2',\n",
       " 'METAR K06D 010655Z AUTO 7SM FEW003 M11/M12 A2963 RMK AO2',\n",
       " 'METAR K06D 010715Z AUTO 33009KT 9SM CLR M13/M14 A2964 RMK AO2',\n",
       " 'METAR K06D 010735Z AUTO 6SM BR CLR M14/M15 A2964 RMK AO2',\n",
       " 'METAR K06D 010755Z AUTO 10SM BKN022 M15/M16 A2964 RMK AO2',\n",
       " 'METAR K06D 010815Z AUTO 10SM BKN013 OVC022 M13/M13 A2965 RMK AO2',\n",
       " 'METAR K06D 010835Z AUTO 10SM OVC013 M12/M12 A2965 RMK AO2',\n",
       " 'METAR K06D 010855Z AUTO 10SM OVC015 M11/M12 A2966 RMK AO2',\n",
       " 'METAR K06D 010915Z AUTO 10SM OVC013 M10/M11 A2967 RMK AO2',\n",
       " 'METAR K06D 010935Z AUTO 33005KT 10SM OVC014 M10/M10 A2967 RMK AO2',\n",
       " 'METAR K06D 010955Z AUTO 10SM OVC014 M10/M10 A2968 RMK AO2',\n",
       " 'METAR K06D 011015Z AUTO 00000G32KT 6SM -SN BKN014 BKN021 OVC027 M10/M10 A2968 RMK AO2',\n",
       " 'METAR K06D 011035Z AUTO 3SM -SN FEW002 BKN023 OVC028 M10/M10 A2968 RMK AO2',\n",
       " 'METAR K06D 011055Z AUTO 10SM FEW013 BKN024 OVC029 M10/M10 A2968 RMK AO2',\n",
       " 'METAR K06D 011115Z AUTO 10SM OVC028 M10/M10 A2969 RMK AO2',\n",
       " 'METAR K06D 011135Z AUTO 10SM OVC029 M09/M10 A2969 RMK AO2',\n",
       " 'METAR K06D 011155Z AUTO 10SM OVC028 M09/M10 A2969 RMK AO2',\n",
       " 'METAR K06D 011215Z AUTO 00000KT 10SM OVC029 M09/M10 A2970 RMK AO2',\n",
       " 'METAR K06D 011235Z AUTO 10SM BKN030 OVC036 M09/M09 A2971 RMK AO2',\n",
       " 'METAR K06D 011255Z AUTO 18004KT 10SM OVC037 M09/M09 A2972 RMK AO2',\n",
       " 'METAR K06D 011315Z AUTO 00000KT 10SM OVC037 M09/M09 A2973 RMK AO2',\n",
       " 'METAR K06D 011335Z AUTO 00000KT 10SM SCT037 OVC050 M09/M09 A2973 RMK AO2',\n",
       " 'METAR K06D 011355Z AUTO 00000KT 10SM OVC048 M09/M09 A2974 RMK AO2',\n",
       " 'METAR K06D 011415Z AUTO 00000KT 10SM SCT024 OVC045 M09/M09 A2975 RMK AO2',\n",
       " 'METAR K06D 011435Z AUTO 00000KT 10SM OVC024 M09/M09 A2977 RMK AO2',\n",
       " 'METAR K06D 011455Z AUTO 00000KT 10SM OVC026 M09/M09 A2977 RMK AO2',\n",
       " 'METAR K06D 011515Z AUTO 00000KT 10SM SCT027 OVC036 M08/M09 A2978 RMK AO2',\n",
       " 'METAR K06D 011535Z AUTO VRB06G25KT 10SM OVC033 M08/M08 A2979 RMK AO2',\n",
       " 'METAR K06D 011555Z AUTO 33011KT 10SM OVC031 M08/M08 A2980 RMK AO2',\n",
       " 'METAR K06D 011615Z AUTO 31008KT 10SM FEW013 OVC031 M08/M08 A2982 RMK AO2',\n",
       " 'METAR K06D 011635Z AUTO 31008KT 10SM SCT032 OVC042 M08/M08 A2983 RMK AO2',\n",
       " 'METAR K06D 011655Z AUTO 33011KT 10SM BKN043 SCT060 OVC100 M08/M09 A2983 RMK AO2',\n",
       " 'METAR K06D 011715Z AUTO 28007KT 10SM SCT015 SCT060 OVC095 M08/M08 A2984 RMK AO2',\n",
       " 'METAR K06D 011735Z AUTO 31011KT 10SM BKN014 BKN020 OVC027 M08/M09 A2984 RMK AO2',\n",
       " 'METAR K06D 011755Z AUTO 30007KT 10SM OVC012 M08/M08 A2984 RMK AO2',\n",
       " 'METAR K06D 011815Z AUTO 34008KT 10SM BKN011 OVC019 M08/M08 A2985 RMK AO2',\n",
       " 'METAR K06D 011835Z AUTO 33008KT 10SM FEW011 SCT020 SCT025 M08/M09 A2985 RMK AO2',\n",
       " 'METAR K06D 011855Z AUTO 33007KT 10SM FEW011 M09/M09 A2986 RMK AO2',\n",
       " 'METAR K06D 011915Z AUTO 34006KT 10SM BKN012 M08/M09 A2986 RMK AO2',\n",
       " 'METAR K06D 011935Z AUTO 35008KT 10SM OVC012 M09/M10 A2986 RMK AO2',\n",
       " 'METAR K06D 011955Z AUTO 33006KT 10SM OVC010 M10/M10 A2986 RMK AO2',\n",
       " 'METAR K06D 012015Z AUTO 35007KT 10SM OVC010 M10/M11 A2987 RMK AO2',\n",
       " 'METAR K06D 012035Z AUTO 33008KT 10SM OVC010 M11/M11 A2987 RMK AO2',\n",
       " 'METAR K06D 012055Z AUTO 33008KT 10SM OVC010 M11/M12 A2987 RMK AO2',\n",
       " 'METAR K06D 012115Z AUTO 35007KT 10SM SCT011 M12/M13 A2988 RMK AO2',\n",
       " 'METAR K06D 012135Z AUTO 34006KT 10SM CLR M12/M12 A2988 RMK AO2',\n",
       " 'METAR K06D 012155Z AUTO 31005KT 10SM CLR M12/M13 A2989 RMK AO2',\n",
       " 'METAR K06D 012215Z AUTO 31005KT 10SM CLR M13/M13 A2991 RMK AO2',\n",
       " 'METAR K06D 012235Z AUTO 30006KT 9SM CLR M14/M15 A2991 RMK AO2',\n",
       " 'METAR K06D 012255Z AUTO 28003KT 10SM CLR M14/M15 A2991 RMK AO2',\n",
       " 'METAR K06D 012315Z AUTO 34004KT 10SM CLR M15/M15 A2992 RMK AO2',\n",
       " 'METAR K06D 012335Z AUTO 34004KT 10SM CLR M16/M17 A2993 RMK AO2',\n",
       " 'METAR K06D 012355Z AUTO 00000KT 10SM CLR M17/M17 A2994 RMK AO2',\n",
       " 'METAR K08D 010015Z AUTO 22004KT 10SM CLR M07/M07 A2955 RMK AO2',\n",
       " 'METAR K08D 010035Z AUTO 26003KT 10SM CLR M08/M08 A2956 RMK AO2',\n",
       " 'METAR K08D 010055Z AUTO 29006KT 10SM CLR M08/M08 A2956 RMK AO2',\n",
       " 'METAR K08D 010115Z AUTO 28010KT 10SM CLR M08/M08 A2956 RMK AO2',\n",
       " 'METAR K08D 010135Z AUTO 28015KT 10SM CLR M06/M06 A2956 RMK AO2',\n",
       " 'METAR K08D 010155Z AUTO 29014KT 10SM CLR M07/M07 A2957 RMK AO2',\n",
       " 'METAR K08D 010215Z AUTO 29015KT 10SM CLR M07/M07 A2958 RMK AO2',\n",
       " 'METAR K08D 010235Z AUTO 29015KT 10SM CLR M07/M07 A2958 RMK AO2',\n",
       " 'METAR K08D 010255Z AUTO 29014KT 10SM CLR M07/M07 A2958 RMK AO2',\n",
       " 'METAR K08D 010315Z AUTO 29013KT 10SM CLR M08/M08 A2959 RMK AO2',\n",
       " 'METAR K08D 010335Z AUTO 29012KT 10SM CLR M08/M08 A2959 RMK AO2',\n",
       " 'METAR K08D 010355Z AUTO 29009KT 10SM CLR M09/M09 A2960 RMK AO2',\n",
       " 'METAR K08D 010415Z AUTO 36004KT 10SM CLR M10/M09 A2961 RMK AO2',\n",
       " 'METAR K08D 010435Z AUTO 00000KT 10SM CLR M10/M10 A2961 RMK AO2',\n",
       " 'METAR K08D 010455Z AUTO 00000KT 10SM CLR M11/M11 A2961 RMK AO2',\n",
       " 'METAR K08D 010515Z AUTO 00000KT 1/2SM FZFG OVC002 M10/M10 A2962 RMK AO2',\n",
       " 'METAR K08D 010535Z AUTO 00000KT 1/4SM FZFG OVC002 M09/M09 A2962 RMK AO2',\n",
       " 'METAR K08D 010555Z AUTO VRB05KT 10SM FEW002 BKN009 BKN015 M10/M09 A2964 RMK AO2',\n",
       " 'METAR K08D 010615Z AUTO 00000KT 10SM BKN008 OVC012 M10/M10 A2964 RMK AO2',\n",
       " 'METAR K08D 010635Z AUTO 22004KT 10SM BKN005 OVC010 M09/M09 A2965 RMK AO2',\n",
       " 'METAR K08D 010655Z AUTO 28004KT 10SM OVC005 M08/M08 A2966 RMK AO2',\n",
       " 'METAR K08D 010715Z AUTO 27004KT 10SM OVC005 M08/M08 A2966 RMK AO2',\n",
       " 'METAR K08D 010735Z AUTO 00000KT 7SM OVC003 M07/M07 A2967 RMK AO2',\n",
       " 'METAR K08D 010755Z AUTO 32009KT 1/4SM FZFG OVC002 M06/M06 A2968 RMK AO2',\n",
       " 'METAR K08D 010815Z AUTO 30008KT 3/4SM BR OVC002 M06/M06 A2969 RMK AO2',\n",
       " 'METAR K08D 010835Z AUTO 31008KT 1/2SM BR OVC002 M07/M06 A2970 RMK AO2',\n",
       " 'METAR K08D 010855Z AUTO 30009KT 1/4SM FZFG OVC002 M07/M07 A2971 RMK AO2',\n",
       " 'METAR K08D 010915Z AUTO 28009KT 2SM BR OVC003 M07/M07 A2972 RMK AO2',\n",
       " 'METAR K08D 010935Z AUTO 28007KT 2SM BR OVC003 M07/M07 A2972 RMK AO2',\n",
       " 'METAR K08D 010955Z AUTO VRB06KT 3SM BR OVC003 M08/M08 A2973 RMK AO2',\n",
       " 'METAR K08D 011015Z AUTO 29008KT 1 1/4SM BR OVC003 M08/M08 A2973 RMK AO2',\n",
       " 'METAR K08D 011035Z AUTO 28010KT 2 1/2SM BR OVC003 M09/M08 A2974 RMK AO2',\n",
       " 'METAR K08D 011055Z AUTO 28005G10KT 6SM BR OVC003 M09/M09 A2975 RMK AO2',\n",
       " 'METAR K08D 011115Z AUTO 28006KT 3/4SM BR OVC003 M09/M09 A2975 RMK AO2',\n",
       " 'METAR K08D 011135Z AUTO 30007G15KT 1/4SM FZFG OVC002 M09/M09 A2976 RMK AO2',\n",
       " 'METAR K08D 011155Z AUTO 29012KT 1/4SM FZFG OVC002 M09/M08 A2976 RMK AO2',\n",
       " 'METAR K08D 011215Z AUTO 29010G16KT 2SM BR BKN002 OVC007 M09/M09 A2976 RMK AO2',\n",
       " 'METAR K08D 011235Z AUTO 31009G15KT 7SM OVC003 M09/M09 A2976 RMK AO2',\n",
       " 'METAR K08D 011255Z AUTO 28007KT 10SM SCT004 M10/M10 A2977 RMK AO2',\n",
       " 'METAR K08D 011315Z AUTO 31004KT 10SM CLR M11/M11 A2977 RMK AO2',\n",
       " 'METAR K08D 011335Z AUTO 30007KT 10SM CLR M11/M11 A2978 RMK AO2',\n",
       " 'METAR K08D 011355Z AUTO 27005KT 10SM CLR M12/M12 A2978 RMK AO2',\n",
       " 'METAR K08D 011415Z AUTO 27006KT 10SM FEW003 M12/M12 A2979 RMK AO2',\n",
       " 'METAR K08D 011435Z AUTO 24006KT 9SM BKN002 M12/M12 A2981 RMK AO2',\n",
       " 'METAR K08D 011455Z AUTO 29008KT 10SM FEW002 M13/M13 A2981 RMK AO2',\n",
       " 'METAR K08D 011515Z AUTO 31007KT 10SM CLR M13/M13 A2982 RMK AO2',\n",
       " 'METAR K08D 011535Z AUTO 31004KT 10SM CLR M14/M14 A2983 RMK AO2',\n",
       " 'METAR K08D 011555Z AUTO 32004KT 10SM CLR M14/M14 A2985 RMK AO2',\n",
       " 'METAR K08D 011615Z AUTO 29011KT 10SM CLR M13/M14 A2986 RMK AO2',\n",
       " 'METAR K08D 011635Z AUTO 32012KT 10SM -SN BKN006 M13/M13 A2986 RMK AO2',\n",
       " 'METAR K08D 011655Z AUTO 30012KT 10SM -SN OVC006 M13/M13 A2988 RMK AO2',\n",
       " 'METAR K08D 011715Z AUTO 30011G17KT 7SM -SN OVC006 M13/M13 A2989 RMK AO2',\n",
       " 'METAR K08D 011735Z AUTO 30016KT 9SM -SN OVC008 M13/M13 A2989 RMK AO2',\n",
       " 'METAR K08D 011755Z AUTO 29008G17KT 7SM -SN FEW003 OVC007 M13/M13 A2991 RMK AO2',\n",
       " 'METAR K08D 011815Z AUTO 29013KT 6SM -SN OVC005 M13/M13 A2989 RMK AO2',\n",
       " 'METAR K08D 011835Z AUTO 31012KT 8SM -SN OVC005 M13/M13 A2990 RMK AO2',\n",
       " 'METAR K08D 011855Z AUTO 31007G13KT 10SM -SN OVC006 M13/M13 A2990 RMK AO2',\n",
       " 'METAR K08D 011915Z AUTO 30017KT 2 1/2SM -SN OVC006 M13/M13 A2989 RMK AO2',\n",
       " 'METAR K08D 011935Z AUTO 29013G19KT 1SM -SN OVC005 M12/M12 A2990 RMK AO2 VIS 1/4V4',\n",
       " 'METAR K08D 011955Z AUTO 30011KT 1/4SM -SN OVC002 M12/M12 A2990 RMK AO2',\n",
       " 'METAR K08D 012015Z AUTO 29013KT 3/4SM -SN OVC002 M12/M12 A2990 RMK AO2',\n",
       " 'METAR K08D 012035Z AUTO 30011KT 2 1/2SM -SN OVC002 M12/M12 A2990 RMK AO2 VIS 1V4',\n",
       " 'METAR K08D 012055Z AUTO 31013KT 1 1/4SM -SN OVC002 M11/M11 A2990 RMK AO2 VIS 1/2V5',\n",
       " 'METAR K08D 012115Z AUTO 30014KT 1 1/2SM BR OVC003 M11/M11 A2989 RMK AO2',\n",
       " 'METAR K08D 012135Z AUTO 30015KT 3/4SM BR OVC002 M12/M11 A2989 RMK AO2',\n",
       " 'METAR K08D 012155Z AUTO 29014KT 6SM BR BKN002 M12/M12 A2990 RMK AO2',\n",
       " 'METAR K08D 012215Z AUTO 28012KT 10SM FEW002 M12/M12 A2992 RMK AO2',\n",
       " 'METAR K08D 012235Z AUTO 30010KT 10SM CLR M12/M12 A2992 RMK AO2',\n",
       " 'METAR K08D 012255Z AUTO 29014KT 10SM CLR M12/M12 A2993 RMK AO2',\n",
       " 'METAR K08D 012315Z AUTO 29015KT 10SM CLR M12/M13 A2993 RMK AO2',\n",
       " 'METAR K08D 012335Z AUTO 29016KT 10SM CLR M13/M13 A2993 RMK AO2',\n",
       " 'METAR K08D 012355Z AUTO 29013KT 10SM CLR M13/M13 A2994 RMK AO2',\n",
       " 'METAR K0A9 010015Z AUTO 29006KT 10SM BKN011 OVC016 12/12 A2998 RMK A01',\n",
       " 'METAR K0A9 010035Z AUTO 29006KT 10SM SCT012 BKN018 OVC023 13/12 A3001 RMK A01',\n",
       " 'METAR K0A9 010055Z AUTO 24004KT 10SM FEW011 BKN021 OVC047 12/12 A3000 RMK A01',\n",
       " 'METAR K0A9 010115Z AUTO 23004KT 10SM FEW011 SCT037 OVC048 12/12 A3000 RMK A01',\n",
       " 'METAR K0A9 010135Z AUTO 00000KT 9SM BKN009 BKN012 OVC049 12/11 A2999 RMK A01',\n",
       " 'METAR K0A9 010155Z AUTO 00000KT 6SM BR BKN010 BKN013 OVC024 10/10 A3000 RMK A01',\n",
       " 'METAR K0A9 010215Z AUTO 00000KT 2SM BR FEW011 OVC022 11/11 A3000 RMK A01 VIS 1 1/4V4',\n",
       " 'METAR K0A9 010235Z AUTO 00000KT 1 1/4SM BR OVC019 11/10 A3000 RMK A01',\n",
       " 'METAR K0A9 010255Z AUTO 00000KT 2 1/2SM BR BKN016 OVC022 11/11 A3001 RMK A01',\n",
       " 'METAR K0A9 010315Z AUTO 00000KT 2SM BR FEW014 SCT019 OVC023 11/11 A3001 RMK A01',\n",
       " 'METAR K0A9 010335Z AUTO 11003KT 1 1/4SM BR OVC021 11/11 A3001 RMK A01',\n",
       " 'METAR K0A9 010355Z AUTO 00000KT 11/10 A3002 RMK A01',\n",
       " 'METAR K0A9 010415Z AUTO 00000KT 1/2SM FG SCT002 OVC015 10/10 A3002 RMK A01',\n",
       " 'METAR K0A9 010435Z AUTO 00000KT M1/4SM FG BKN002 OVC013 10/10 A3002 RMK A01',\n",
       " 'METAR K0A9 010455Z AUTO 00000KT M1/4SM FG BKN002 OVC011 10/10 A3002 RMK A01',\n",
       " 'METAR K0A9 010515Z AUTO 00000KT 1/4SM FG BKN002 OVC008 10/10 A3002 RMK A01',\n",
       " 'METAR K0A9 010535Z AUTO 00000KT 1/2SM FG SCT002 OVC007 10/10 A3002 RMK A01',\n",
       " 'METAR K0A9 010555Z AUTO 00000KT M1/4SM FG BKN002 OVC008 09/09 A3002 RMK A01',\n",
       " 'METAR K0A9 010615Z AUTO 00000KT 1/4SM FG BKN002 OVC009 10/10 A3002 RMK A01',\n",
       " 'METAR K0A9 010635Z AUTO 00000KT 3/4SM BR BKN007 OVC019 10/10 A3002 RMK A01',\n",
       " 'METAR K0A9 010655Z AUTO 00000KT 2SM BR FEW008 SCT017 BKN027 10/10 A3003 RMK A01',\n",
       " 'METAR K0A9 010715Z AUTO 00000KT 4SM BR BKN010 BKN018 OVC025 10/10 A3003 RMK A01',\n",
       " 'METAR K0A9 010735Z AUTO 00000KT 3SM BR BKN011 OVC017 10/10 A3003 RMK A01',\n",
       " 'METAR K0A9 010755Z AUTO 00000KT 3SM BR BKN011 OVC018 10/10 A3003 RMK A01',\n",
       " 'METAR K0A9 010815Z AUTO 22004KT 3SM BR FEW013 BKN030 OVC036 10/10 A3003 RMK A01',\n",
       " 'METAR K0A9 010835Z AUTO 24003KT 3SM BR BKN022 BKN027 OVC032 10/10 A3003 RMK A01',\n",
       " 'METAR K0A9 010855Z AUTO 23004KT 3SM BR BKN017 OVC023 11/11 A3003 RMK A01',\n",
       " 'METAR K0A9 010915Z AUTO 25004KT 3SM BR SCT009 BKN018 OVC030 11/10 A3003 RMK A01',\n",
       " 'METAR K0A9 010935Z AUTO 00000KT 1 1/2SM BR BKN010 BKN019 OVC026 10/10 A3003 RMK A01',\n",
       " 'METAR K0A9 010955Z AUTO 00000KT 1 3/4SM BR BKN012 OVC020 10/10 A3003 RMK A01',\n",
       " 'METAR K0A9 011015Z AUTO 00000KT 2 1/2SM BR FEW009 BKN015 OVC022 10/10 A3003 RMK A01',\n",
       " 'METAR K0A9 011035Z AUTO 00000KT 3/4SM BR BKN011 OVC021 09/09 A3003 RMK A01',\n",
       " 'METAR K0A9 011055Z AUTO 00000KT 2 1/2SM BR FEW011 BKN018 OVC023 10/10 A3004 RMK A01',\n",
       " 'METAR K0A9 011115Z AUTO 00000KT 3SM BR SCT014 BKN022 OVC027 10/10 A3005 RMK A01',\n",
       " 'METAR K0A9 011135Z AUTO 00000KT 2 1/2SM BR FEW012 BKN021 OVC045 10/09 A3006 RMK A01',\n",
       " 'METAR K0A9 011155Z AUTO 00000KT 3/4SM BR BKN018 OVC022 09/09 A3006 RMK A01 VIS 1/4V2',\n",
       " 'METAR K0A9 011215Z AUTO 00000KT 2SM BR FEW009 BKN015 OVC045 10/10 A3008 RMK A01 VIS 1 1/2V3',\n",
       " 'METAR K0A9 011235Z AUTO VRB03KT 3SM BR FEW010 FEW016 OVC046 10/10 A3008 RMK A01',\n",
       " 'METAR K0A9 011255Z AUTO 00000KT 2SM BR SCT011 SCT016 OVC046 10/10 A3009 RMK A01',\n",
       " 'METAR K0A9 011315Z AUTO 00000KT 2SM BR FEW011 BKN042 BKN047 10/09 A3009 RMK A01',\n",
       " 'METAR K0A9 011335Z AUTO 00000KT 1/2SM BR BKN002 BKN044 OVC055 10/10 A3010 RMK A01 VIS 1/4V1 1/4',\n",
       " 'METAR K0A9 011355Z AUTO 00000KT 1 1/4SM BR SCT002 BKN026 OVC048 10/09 A3010 RMK A01',\n",
       " 'METAR K0A9 011415Z AUTO 00000KT 1 3/4SM BR SCT002 SCT010 OVC026 10/10 A3010 RMK A01',\n",
       " 'METAR K0A9 011435Z AUTO 00000KT 2SM BR FEW010 BKN022 OVC026 11/11 A3011 RMK A01',\n",
       " 'METAR K0A9 011455Z AUTO 00000KT 5SM BR SCT014 OVC021 12/12 A3011 RMK A01',\n",
       " 'METAR K0A9 011515Z AUTO 00000KT 8SM OVC017 12/12 A3012 RMK A01',\n",
       " 'METAR K0A9 011535Z AUTO 00000KT 10SM SCT017 OVC070 13/13 A3012 RMK A01',\n",
       " 'METAR K0A9 011555Z AUTO 00000KT 10SM BKN013 BKN017 OVC070 13/13 A3012 RMK A01',\n",
       " 'METAR K0A9 011615Z AUTO 00000KT 10SM SCT013 BKN017 OVC065 14/12 A3011 RMK A01',\n",
       " 'METAR K0A9 011635Z AUTO 00000KT 10SM SCT014 OVC065 14/12 A3010 RMK A01',\n",
       " 'METAR K0A9 011655Z AUTO 22004KT 10SM BKN016 BKN022 OVC065 15/12 A3009 RMK A01',\n",
       " 'METAR K0A9 011715Z AUTO 23005KT 10SM SCT017 BKN021 BKN038 15/12 A3008 RMK A01',\n",
       " 'METAR K0A9 011735Z AUTO 24005KT 10SM SCT019 BKN024 OVC037 15/12 A3008 RMK A01',\n",
       " 'METAR K0A9 011755Z AUTO 30005KT 10SM SCT022 BKN029 OVC034 15/11 A3007 RMK A01',\n",
       " 'METAR K0A9 011815Z AUTO 24005KT 10SM SCT024 OVC032 16/11 A3007 RMK A01',\n",
       " 'METAR K0A9 011835Z AUTO 25007KT 230V290 10SM FEW023 OVC032 16/11 A3007 RMK A01',\n",
       " 'METAR K0A9 011855Z AUTO VRB05KT 10SM FEW025 SCT031 BKN037 16/11 A3007 RMK A01',\n",
       " 'METAR K0A9 011915Z AUTO 28005KT 10SM FEW024 BKN038 BKN044 16/11 A3006 RMK A01',\n",
       " 'METAR K0A9 011935Z AUTO VRB06G12KT 10SM FEW024 FEW038 FEW044 17/11 A3006 RMK A01',\n",
       " 'METAR K0A9 011955Z AUTO 27007G13KT 10SM SCT027 SCT041 BKN049 17/11 A3007 RMK A01',\n",
       " 'METAR K0A9 012015Z AUTO 31007G13KT 290V350 10SM SCT026 BKN031 OVC040 15/11 A3007 RMK A01',\n",
       " 'METAR K0A9 012035Z AUTO 31008G14KT 10SM FEW024 SCT029 BKN041 15/11 A3008 RMK A01',\n",
       " 'METAR K0A9 012055Z AUTO VRB05G12KT 10SM FEW023 BKN042 OVC055 15/11 A3009 RMK A01',\n",
       " 'METAR K0A9 012115Z AUTO 33006G12KT 10SM FEW024 SCT034 BKN055 15/11 A3010 RMK A01',\n",
       " 'METAR K0A9 012135Z AUTO VRB03G10KT 10SM BKN055 15/11 A3011 RMK A01',\n",
       " 'METAR K0A9 012155Z AUTO VRB03KT 10SM OVC055 15/11 A3011 RMK A01',\n",
       " 'METAR K0A9 012215Z AUTO 00000KT 10SM SCT045 BKN050 14/11 A3011 RMK A01',\n",
       " 'METAR K0A9 012235Z AUTO 00000KT 10SM BKN041 OVC049 12/10 A3011 RMK A01',\n",
       " 'METAR K0A9 012255Z AUTO 00000KT 10SM BKN039 BKN046 10/09 A3012 RMK A01',\n",
       " 'METAR K0A9 012315Z AUTO 00000KT 10SM FEW037 BKN046 10/09 A3012 RMK A01',\n",
       " 'METAR K0A9 012335Z AUTO 00000KT 10SM FEW046 09/08 A3012 RMK A01',\n",
       " 'METAR K0A9 012355Z AUTO 00000KT 9SM CLR 09/08 A3013 RMK A01',\n",
       " 'METAR K0CO 010015Z AUTO 27022G42KT M07/M08 A2983 RMK AO2 PWINO',\n",
       " 'METAR K0CO 010035Z AUTO 26019G22KT M07/M08 A2984 RMK AO2 P0001 PWINO',\n",
       " 'METAR K0CO 010055Z AUTO 26016G25KT M07/M08 A2985 RMK AO2 P0002 PWINO',\n",
       " 'METAR K0CO 010115Z AUTO 27025G36KT M07/M07 A2985 RMK AO2 P0001 PWINO',\n",
       " 'METAR K0CO 010135Z AUTO 27024G32KT M07/M07 A2985 RMK AO2 P0002 PWINO',\n",
       " 'METAR K0CO 010155Z AUTO 27027G37KT M07/M07 A2985 RMK AO2 P0002 PWINO',\n",
       " 'METAR K0CO 010215Z AUTO 27031G39KT M07/M07 A2984 RMK AO2 P0001 PWINO',\n",
       " 'METAR K0CO 010235Z AUTO 27030G40KT M06/M07 A2984 RMK AO2 P0001 PWINO',\n",
       " 'METAR K0CO 010255Z AUTO 28033G43KT M07/M07 A2984 RMK AO2 P0001 PWINO',\n",
       " 'METAR K0CO 010315Z AUTO 28037G47KT M07/M07 A2983 RMK AO2 PWINO',\n",
       " 'METAR K0CO 010335Z AUTO 28027G38KT M07/M07 A2984 RMK AO2 PWINO',\n",
       " 'METAR K0CO 010355Z AUTO 27029G43KT M07/M08 A2984 RMK AO2 PWINO',\n",
       " 'METAR K0CO 010415Z AUTO 27041G45KT M07/M08 A2981 RMK AO2 PWINO',\n",
       " 'METAR K0CO 010435Z AUTO 28021G35KT M07/M08 A2984 RMK AO2 PWINO',\n",
       " 'METAR K0CO 010455Z AUTO 29028G44KT M07/M08 A2982 RMK AO2 PWINO',\n",
       " 'METAR K0CO 010515Z AUTO 28020G44KT M07/M08 A2984 RMK AO2 PWINO',\n",
       " 'METAR K0CO 010535Z AUTO 28022G43KT M07/M08 A2985 RMK AO2 PWINO',\n",
       " 'METAR K0CO 010555Z AUTO 28022G34KT M07/M08 A2985 RMK AO2 PWINO',\n",
       " 'METAR K0CO 010615Z AUTO 28023G31KT BKN014 BKN020 M07/M08 A2984 RMK AO2 PWINO',\n",
       " 'METAR K0CO 010635Z AUTO 25022G34KT 221V281 BKN017 BKN024 M07/M08 A2984 RMK AO2 PWINO',\n",
       " 'METAR K0CO 010655Z AUTO 25027G45KT M07/M08 A2983 RMK AO2 PWINO',\n",
       " 'METAR K0CO 010715Z AUTO 26033G46KT M07/M08 A2981 RMK AO2 PWINO',\n",
       " 'METAR K0CO 010735Z AUTO 26025G40KT M07/M08 A2983 RMK AO2 PWINO',\n",
       " 'METAR K0CO 010755Z AUTO 24020G35KT M07/M08 A2984 RMK AO2 PWINO',\n",
       " 'METAR K0CO 010815Z AUTO 25019G27KT M07/M08 A2984 RMK AO2 PWINO',\n",
       " 'METAR K0CO 010835Z AUTO 24019G26KT M07/M08 A2984 RMK AO2 PWINO',\n",
       " 'METAR K0CO 010855Z AUTO 25022G28KT M07/M08 A2984 RMK AO2 PWINO',\n",
       " 'METAR K0CO 010915Z AUTO 25017G31KT M07/M08 A2984 RMK AO2 PWINO',\n",
       " 'METAR K0CO 010935Z AUTO 24021G31KT M07/M08 A2984 RMK AO2 PWINO',\n",
       " 'METAR K0CO 010955Z AUTO 25028G35KT M07/M08 A2982 RMK AO2 PWINO',\n",
       " 'METAR K0CO 011015Z AUTO 25020G34KT M07/M08 A2984 RMK AO2 PWINO',\n",
       " 'METAR K0CO 011035Z AUTO 25028G44KT M07/M08 A2983 RMK AO2 PWINO',\n",
       " 'METAR K0CO 011055Z AUTO 24026G33KT M07/M08 A2982 RMK AO2 PWINO',\n",
       " 'METAR K0CO 011115Z AUTO 26024G37KT M07/M08 A2983 RMK AO2 PWINO',\n",
       " 'METAR K0CO 011135Z AUTO 27022G29KT M07/M08 A2984 RMK AO2 PWINO',\n",
       " 'METAR K0CO 011155Z AUTO 25020G33KT M07/M08 A2984 RMK AO2 PWINO',\n",
       " 'METAR K0CO 011215Z AUTO 25021G31KT M07/M08 A2984 RMK AO2 PWINO',\n",
       " 'METAR K0CO 011235Z AUTO 26028G35KT M07/M08 A2983 RMK AO2 PWINO',\n",
       " 'METAR K0CO 011255Z AUTO 26026G40KT M07/M08 A2984 RMK AO2 PWINO',\n",
       " 'METAR K0CO 011315Z AUTO 26025G37KT BKN008 BKN013 OVC021 M07/M08 A2985 RMK AO2 PWINO',\n",
       " 'METAR K0CO 011335Z AUTO 26023G35KT M07/M08 A2986 RMK AO2 PWINO',\n",
       " 'METAR K0CO 011355Z AUTO 26027G40KT M07/M08 A2986 RMK AO2 PWINO',\n",
       " 'METAR K0CO 011415Z AUTO 26028G38KT M07/M08 A2986 RMK AO2 PWINO',\n",
       " 'METAR K0CO 011435Z AUTO 26029G52KT BKN003 OVC009 M07/M08 A2986 RMK AO2 PWINO',\n",
       " 'METAR K0CO 011455Z AUTO 26030G44KT M07/M08 A2986 RMK AO2 PWINO',\n",
       " 'METAR K0CO 011515Z AUTO 26037G48KT M07/M08 A2984 RMK AO2 PWINO',\n",
       " 'METAR K0CO 011535Z AUTO 26035G47KT M07/M09 A2986 RMK AO2 PWINO',\n",
       " 'METAR K0CO 011555Z AUTO 27038G48KT M07/M09 A2985 RMK AO2 PWINO',\n",
       " 'METAR K0CO 011615Z AUTO 27027G44KT M07/M09 A2988 RMK AO2 PWINO',\n",
       " 'METAR K0CO 011635Z AUTO 25024G40KT M08/M09 A2989 RMK AO2 PWINO',\n",
       " 'METAR K0CO 011655Z AUTO 26023G35KT M08/M09 A2990 RMK AO2 PWINO',\n",
       " 'METAR K0CO 011715Z AUTO 25027G46KT M08/M09 A2989 RMK AO2 PWINO',\n",
       " 'METAR K0CO 011735Z AUTO 25022G38KT M08/M09 A2990 RMK AO2 PWINO',\n",
       " 'METAR K0CO 011755Z AUTO 25024G33KT M08/M09 A2989 RMK AO2 PWINO',\n",
       " 'METAR K0CO 011815Z AUTO 25021G28KT M07/M09 A2989 RMK AO2 PWINO',\n",
       " 'METAR K0CO 011835Z AUTO 25025G32KT M07/M08 A2988 RMK AO2 PWINO',\n",
       " 'METAR K0CO 011855Z AUTO 25020G30KT M07/M08 A2987 RMK AO2 PWINO',\n",
       " 'METAR K0CO 011915Z AUTO 25020G31KT M08/M09 A2987 RMK AO2 PWINO',\n",
       " 'METAR K0CO 011935Z AUTO 25022G34KT BKN029 OVC036 M07/M08 A2986 RMK AO2 PWINO',\n",
       " 'METAR K0CO 011955Z AUTO 25018G27KT M07/M08 A2985 RMK AO2 PWINO',\n",
       " 'METAR K0CO 012015Z AUTO 25012G25KT M07/M09 A2986 RMK AO2 PWINO',\n",
       " 'METAR K0CO 012035Z AUTO 25020G26KT M07/M09 A2984 RMK AO2 PWINO',\n",
       " 'METAR K0CO 012055Z AUTO 25019G34KT SCT030 SCT039 BKN095 M07/M10 A2984 RMK AO2 PWINO',\n",
       " 'METAR K0CO 012115Z AUTO 25013G30KT SCT037 BKN095 BKN120 M07/M10 A2984 RMK AO2 PWINO',\n",
       " 'METAR K0CO 012135Z AUTO 24006G23KT SCT095 SCT120 M07/M10 A2982 RMK AO2 PWINO',\n",
       " 'METAR K0CO 012155Z AUTO 23006KT CLR M07/M10 A2983 RMK AO2 PWINO',\n",
       " 'METAR K0CO 012215Z AUTO 24009G18KT CLR M06/M10 A2983 RMK AO2 PWINO',\n",
       " 'METAR K0CO 012235Z AUTO 22006G19KT BKN110 M06/M10 A2984 RMK AO2 PWINO',\n",
       " 'METAR K0CO 012255Z AUTO 22008G15KT BKN090 BKN120 M06/M10 A2984 RMK AO2 PWINO',\n",
       " 'METAR K0CO 012315Z AUTO 22008G17KT SCT090 M07/M10 A2984 RMK AO2 PWINO',\n",
       " 'METAR K0CO 012335Z AUTO 17014G21KT SCT120 M07/M10 A2984 RMK AO2 PWINO',\n",
       " 'METAR K0CO 012355Z AUTO 17017G20KT BKN110 M07/M10 A2984 RMK AO2 PWINO',\n",
       " 'METAR K0E0 010015Z AUTO 31006KT 10SM SCT037 07/00 A2999 RMK AO2 T00660000',\n",
       " 'METAR K0E0 010035Z AUTO 30009KT 10SM SCT037 07/00 A2999 RMK AO2 T00650000',\n",
       " 'METAR K0E0 010055Z AUTO 32008KT 10SM CLR 06/00 A2999 RMK AO2 T00621002',\n",
       " 'METAR K0E0 010115Z AUTO 28008KT 10SM CLR 05/00 A2998 RMK AO2 T00521004',\n",
       " 'METAR K0E0 010135Z AUTO 30007KT 10SM CLR 04/00 A2998 RMK AO2 T00391005',\n",
       " 'METAR K0E0 010155Z AUTO 32007KT 10SM CLR 03/M01 A2998 RMK AO2 T00261009',\n",
       " 'METAR K0E0 010215Z AUTO 32005KT 10SM CLR 04/00 A2999 RMK AO2 T00411002',\n",
       " 'METAR K0E0 010235Z AUTO 35006KT 10SM CLR 04/00 A3000 RMK AO2 T00410000',\n",
       " 'METAR K0E0 010255Z AUTO 35006KT 10SM CLR 04/00 A3000 RMK AO2 T00391001',\n",
       " 'METAR K0E0 010315Z AUTO 33004KT 10SM CLR 04/00 A3000 RMK AO2 T00381002',\n",
       " 'METAR K0E0 010335Z AUTO 30004KT 10SM CLR 03/00 A3000 RMK AO2 T00321003',\n",
       " 'METAR K0E0 010355Z AUTO 33005KT 10SM CLR 03/00 A3000 RMK AO2 T00341004',\n",
       " 'METAR K0E0 010415Z AUTO 02005KT 10SM CLR 01/M01 A3001 RMK AO2 T00141008',\n",
       " 'METAR K0E0 010435Z AUTO 04008KT 10SM CLR 03/00 A3001 RMK AO2 T00261001',\n",
       " 'METAR K0E0 010455Z AUTO 02007KT 10SM CLR 03/00 A3000 RMK AO2 T00311001',\n",
       " 'METAR K0E0 010515Z AUTO 36005KT 10SM CLR 03/00 A3001 RMK AO2 T00261004',\n",
       " 'METAR K0E0 010535Z AUTO 35006KT 10SM CLR 02/M01 A3000 RMK AO2 T00231007',\n",
       " 'METAR K0E0 010555Z AUTO 09003KT 10SM CLR 02/M01 A3001 RMK AO2 T00181010 10073 20014 401161005',\n",
       " 'METAR K0E0 010615Z AUTO 00000KT 10SM CLR 02/M01 A3001 RMK AO2 T00231008',\n",
       " 'METAR K0E0 010635Z AUTO 27007KT 10SM CLR 03/M01 A3001 RMK AO2 T00301007',\n",
       " 'METAR K0E0 010655Z AUTO 26008KT 10SM CLR 05/M01 A3000 RMK AO2 T00461011',\n",
       " 'METAR K0E0 010715Z AUTO 28008KT 10SM CLR 05/M01 A3000 RMK AO2 T00511013',\n",
       " 'METAR K0E0 010735Z AUTO 28008KT 10SM CLR 05/M01 A2998 RMK AO2 T00531015',\n",
       " 'METAR K0E0 010755Z AUTO 29008KT 10SM CLR 04/M01 A2998 RMK AO2 T00441014',\n",
       " 'METAR K0E0 010815Z AUTO 30007KT 10SM CLR 03/M01 A2998 RMK AO2 T00271015',\n",
       " 'METAR K0E0 010835Z AUTO 29007KT 10SM CLR 02/M01 A2998 RMK AO2 T00221013',\n",
       " 'METAR K0E0 010855Z AUTO 26005KT 10SM CLR 04/M01 A2999 RMK AO2 T00351011',\n",
       " 'METAR K0E0 010915Z AUTO 29006KT 10SM CLR 03/M01 A2999 RMK AO2 T00251015',\n",
       " 'METAR K0E0 010935Z AUTO 00000KT 10SM CLR 02/M02 A2999 RMK AO2 T00241018',\n",
       " 'METAR K0E0 010955Z AUTO 02006KT 10SM CLR 01/M02 A2998 RMK AO2 T00051020',\n",
       " 'METAR K0E0 011015Z AUTO 35005KT 10SM CLR 00/M02 A2998 RMK AO2 T00001019',\n",
       " 'METAR K0E0 011035Z AUTO 36006KT 10SM CLR 00/M02 A2998 RMK AO2 T10021018',\n",
       " 'METAR K0E0 011055Z AUTO 13004KT 10SM CLR 00/M01 A2996 RMK AO2 T10021015',\n",
       " 'METAR K0E0 011115Z AUTO 05004KT 10SM CLR 00/M01 A2996 RMK AO2 T10051012',\n",
       " 'METAR K0E0 011135Z AUTO 00000KT 10SM CLR M01/M01 A2996 RMK AO2 T10071011',\n",
       " 'METAR K0E0 011155Z AUTO 00000KT 10SM CLR M01/M01 A2995 RMK AO2 T10111014 10055 21011',\n",
       " 'METAR K0E0 011215Z AUTO 00000KT 10SM CLR M01/M01 A2994 RMK AO2 T10131014',\n",
       " 'METAR K0E0 011235Z AUTO 35004KT 10SM CLR M01/M01 A2994 RMK AO2 T10131013',\n",
       " 'METAR K0E0 011255Z AUTO 01003KT 10SM CLR M01/M01 A2994 RMK AO2 T10111011',\n",
       " 'METAR K0E0 011315Z AUTO 00000KT 10SM CLR M01/M01 A2994 RMK AO2 T10121012',\n",
       " 'METAR K0E0 011335Z AUTO 25004KT 10SM CLR M02/M02 A2996 RMK AO2 T10171017',\n",
       " 'METAR K0E0 011355Z AUTO 23003KT 10SM CLR M02/M02 A2995 RMK AO2 T10201020',\n",
       " 'METAR K0E0 011415Z AUTO 22003KT 10SM CLR M02/M02 A2996 RMK AO2 T10161016',\n",
       " 'METAR K0E0 011435Z AUTO 23006KT 10SM CLR M01/M01 A2998 RMK AO2 T10151015',\n",
       " 'METAR K0E0 011455Z AUTO 18005KT 10SM CLR M01/M01 A2998 RMK AO2 T10101010',\n",
       " 'METAR K0E0 011515Z AUTO 00000KT 10SM SCT120 00/00 A2998 RMK AO2 T10041004',\n",
       " 'METAR K0E0 011535Z AUTO 00000KT 10SM BKN120 00/00 A2998 RMK AO2 T00000000',\n",
       " 'METAR K0E0 011555Z AUTO 00000KT 10SM OVC110 01/00 A2998 RMK AO2 T00050004',\n",
       " 'METAR K0E0 011615Z AUTO 36003KT 10SM OVC110 01/01 A2999 RMK AO2 T00060005',\n",
       " 'METAR K0E0 011635Z AUTO 00000KT 10SM BKN110 01/01 A2999 RMK AO2 T00120010',\n",
       " 'METAR K0E0 011655Z AUTO 05003KT 10SM SCT100 SCT120 02/01 A2999 RMK AO2 T00190009',\n",
       " 'METAR K0E0 011715Z AUTO 08005KT 10SM SCT120 03/01 A2998 RMK AO2 T00260010',\n",
       " 'METAR K0E0 011735Z AUTO 07006KT 10SM CLR 03/01 A2996 RMK AO2 T00340006',\n",
       " 'METAR K0E0 011755Z AUTO 08005KT 10SM CLR 04/01 A2996 RMK AO2 T00430009 10043 21021',\n",
       " 'METAR K0E0 011815Z AUTO 09005KT 10SM CLR 05/01 A2994 RMK AO2 T00520009',\n",
       " 'METAR K0E0 011835Z AUTO 07007KT 10SM CLR 06/00 A2992 RMK AO2 T00620002',\n",
       " 'METAR K0E0 011855Z AUTO 07005KT 10SM CLR 07/01 A2991 RMK AO2 T00700005',\n",
       " 'METAR K0E0 011915Z AUTO 00000KT 10SM CLR 08/01 A2990 RMK AO2 T00800005',\n",
       " 'METAR K0E0 011935Z AUTO 20009KT 10SM CLR 10/00 A2988 RMK AO2 T01000000',\n",
       " 'METAR K0E0 011955Z AUTO 19011G17KT 10SM CLR 11/00 A2987 RMK AO2 T01051004',\n",
       " 'METAR K0E0 012015Z AUTO 17009KT 10SM CLR 10/00 A2986 RMK AO2 T01010000',\n",
       " 'METAR K0E0 012035Z AUTO 19009G15KT 10SM CLR 11/00 A2985 RMK AO2 T01060000',\n",
       " 'METAR K0E0 012055Z AUTO 18012KT 10SM CLR 10/00 A2984 RMK AO2 T01040000',\n",
       " 'METAR K0E0 012115Z AUTO 17009KT 10SM CLR 10/00 A2983 RMK AO2 T01020000',\n",
       " 'METAR K0E0 012135Z AUTO 19012KT 10SM CLR 10/00 A2983 RMK AO2 T01020001',\n",
       " 'METAR K0E0 012155Z AUTO 20011G14KT 10SM CLR 10/00 A2982 RMK AO2 T01020000',\n",
       " 'METAR K0E0 012215Z AUTO 18010KT 10SM CLR 10/00 A2982 RMK AO2 T00990000',\n",
       " 'METAR K0E0 012235Z AUTO 18012G15KT 10SM CLR 10/00 A2982 RMK AO2 T00970000',\n",
       " 'METAR K0E0 012255Z AUTO 18010KT 10SM CLR 10/00 A2982 RMK AO2 T00950000',\n",
       " 'METAR K0E0 012315Z AUTO 19011KT 10SM CLR 09/00 A2982 RMK AO2 T00920000',\n",
       " 'METAR K0E0 012335Z AUTO 19008KT 10SM BKN050 09/00 A2982 RMK AO2 T00900001',\n",
       " 'METAR K0E0 012355Z AUTO 18007KT 10SM BKN050 08/00 A2982 RMK AO2 T00830002 10107 20045',\n",
       " 'METAR K0F2 010015Z AUTO 16004KT 10SM CLR 16/07 A2976 RMK AO2 T01550065',\n",
       " 'METAR K0F2 010035Z AUTO 14003KT 10SM CLR 16/07 A2976 RMK AO2 T01550066',\n",
       " 'METAR K0F2 010055Z AUTO 15005KT 10SM CLR 15/07 A2976 RMK AO2 T01500066',\n",
       " 'METAR K0F2 010115Z AUTO 00000KT 10SM CLR 14/07 A2976 RMK AO2 T01430065',\n",
       " 'METAR K0F2 010135Z AUTO 13003KT 10SM CLR 14/07 A2977 RMK AO2 T01380065',\n",
       " 'METAR K0F2 010155Z AUTO 15003KT 10SM CLR 13/06 A2978 RMK AO2 T01340063',\n",
       " 'METAR K0F2 010215Z AUTO 15003KT 10SM CLR 13/06 A2978 RMK AO2 T01300062',\n",
       " 'METAR K0F2 010235Z AUTO 15003KT 10SM CLR 13/06 A2978 RMK AO2 T01280061',\n",
       " 'METAR K0F2 010255Z AUTO 15003KT 10SM CLR 12/06 A2979 RMK AO2 T01230060',\n",
       " 'METAR K0F2 010315Z AUTO 15003KT 10SM CLR 12/06 A2979 RMK AO2 T01150059',\n",
       " 'METAR K0F2 010335Z AUTO 00000KT 10SM CLR 11/06 A2979 RMK AO2 T01070059',\n",
       " 'METAR K0F2 010355Z AUTO 00000KT 10SM CLR 11/06 A2980 RMK AO2 T01060060',\n",
       " 'METAR K0F2 010415Z AUTO 16003KT 10SM CLR 11/06 A2980 RMK AO2 T01110058',\n",
       " 'METAR K0F2 010435Z AUTO 00000KT 10SM CLR 11/06 A2980 RMK AO2 T01140056',\n",
       " 'METAR K0F2 010455Z AUTO 17003KT 10SM CLR 11/05 A2980 RMK AO2 T01100054',\n",
       " 'METAR K0F2 010515Z AUTO 18005KT 10SM CLR 11/05 A2980 RMK AO2 T01120054',\n",
       " 'METAR K0F2 010535Z AUTO 19006KT 10SM CLR 12/06 A2980 RMK AO2 T01180055',\n",
       " 'METAR K0F2 010555Z AUTO 18005KT 10SM CLR 12/06 A2979 RMK AO2 T01160055 10161 20105 402070044',\n",
       " 'METAR K0F2 010615Z AUTO 18005KT 10SM CLR 12/06 A2979 RMK AO2 T01190055',\n",
       " 'METAR K0F2 010635Z AUTO 18006KT 10SM CLR 12/06 A2979 RMK AO2 T01200055',\n",
       " 'METAR K0F2 010655Z AUTO 19005KT 10SM CLR 12/05 A2979 RMK AO2 T01170053',\n",
       " 'METAR K0F2 010715Z AUTO 19003KT 10SM CLR 11/05 A2979 RMK AO2 T01120052',\n",
       " 'METAR K0F2 010735Z AUTO 00000KT 10SM CLR 11/05 A2978 RMK AO2 T01060050',\n",
       " 'METAR K0F2 010755Z AUTO 00000KT 10SM CLR 10/05 A2978 RMK AO2 T01040051',\n",
       " 'METAR K0F2 010815Z AUTO 00000KT 10SM CLR 10/05 A2978 RMK AO2 T01010050',\n",
       " 'METAR K0F2 010835Z AUTO 00000KT 10SM CLR 11/05 A2979 RMK AO2 T01080050',\n",
       " 'METAR K0F2 010855Z AUTO 00000KT 10SM CLR 10/05 A2979 RMK AO2 T00970050',\n",
       " 'METAR K0F2 010915Z AUTO 19004KT 10SM CLR 10/05 A2979 RMK AO2 T01010048',\n",
       " 'METAR K0F2 010935Z AUTO 19005KT 10SM CLR 11/05 A2978 RMK AO2 T01060048',\n",
       " 'METAR K0F2 010955Z AUTO 18003KT 10SM CLR 11/05 A2978 RMK AO2 T01090047',\n",
       " 'METAR K0F2 011015Z AUTO 18003KT 10SM CLR 11/05 A2979 RMK AO2 T01050047',\n",
       " 'METAR K0F2 011035Z AUTO 16004KT 10SM CLR 10/05 A2979 RMK AO2 T01020048',\n",
       " 'METAR K0F2 011055Z AUTO 16007KT 10SM CLR 11/05 A2978 RMK AO2 T01100051',\n",
       " 'METAR K0F2 011115Z AUTO 17005KT 10SM CLR 12/05 A2979 RMK AO2 T01160052',\n",
       " 'METAR K0F2 011135Z AUTO 18004KT 10SM CLR 12/05 A2979 RMK AO2 T01170051',\n",
       " 'METAR K0F2 011155Z AUTO 17004KT 10SM CLR 11/05 A2979 RMK AO2 T01120051 10120 20094',\n",
       " 'METAR K0F2 011215Z AUTO 17006KT 10SM CLR 11/05 A2979 RMK AO2 T01120050',\n",
       " 'METAR K0F2 011235Z AUTO 17006KT 10SM CLR 12/05 A2979 RMK AO2 T01150050',\n",
       " 'METAR K0F2 011255Z AUTO 18007KT 10SM CLR 11/05 A2979 RMK AO2 T01110050',\n",
       " 'METAR K0F2 011315Z AUTO 20005KT 10SM CLR 11/05 A2980 RMK AO2 T01050049',\n",
       " 'METAR K0F2 011335Z AUTO 18004KT 10SM CLR 10/05 A2980 RMK AO2 T01020047',\n",
       " 'METAR K0F2 011355Z AUTO 17005KT 10SM CLR 10/05 A2982 RMK AO2 T01020048',\n",
       " 'METAR K0F2 011415Z AUTO 17006KT 10SM CLR 11/05 A2982 RMK AO2 T01130051',\n",
       " 'METAR K0F2 011435Z AUTO 18006KT 10SM CLR 12/05 A2983 RMK AO2 T01200052',\n",
       " 'METAR K0F2 011455Z AUTO 18007KT 10SM CLR 12/05 A2984 RMK AO2 T01200053',\n",
       " 'METAR K0F2 011515Z AUTO 18007KT 10SM CLR 13/05 A2985 RMK AO2 T01280054',\n",
       " 'METAR K0F2 011535Z AUTO 19008KT 10SM CLR 14/06 A2985 RMK AO2 T01440057',\n",
       " 'METAR K0F2 011555Z AUTO 19008KT 10SM CLR 16/06 A2986 RMK AO2 T01590058',\n",
       " 'METAR K0F2 011615Z AUTO 22006KT 10SM CLR 17/06 A2987 RMK AO2 T01660058',\n",
       " 'METAR K0F2 011635Z AUTO 19010KT 10SM CLR 19/06 A2986 RMK AO2 T01850059',\n",
       " 'METAR K0F2 011655Z AUTO 17008KT 10SM CLR 19/06 A2986 RMK AO2 T01930062',\n",
       " 'METAR K0F2 011715Z AUTO 20008KT 10SM CLR 20/06 A2986 RMK AO2 T01990059',\n",
       " 'METAR K0F2 011735Z AUTO 21006KT 10SM CLR 21/06 A2985 RMK AO2 T02070057',\n",
       " 'METAR K0F2 011755Z AUTO 21008KT 10SM CLR 22/06 A2985 RMK AO2 T02180059 10218 20102',\n",
       " 'METAR K0F2 011815Z AUTO 19008G41KT 10SM CLR 22/06 A2983 RMK AO2 T02210058',\n",
       " 'METAR K0F2 011835Z AUTO 19011G16KT 10SM CLR 23/06 A2982 RMK AO2 T02270060',\n",
       " 'METAR K0F2 011855Z AUTO 20012G16KT 10SM CLR 23/06 A2982 RMK AO2 T02340061',\n",
       " 'METAR K0F2 011915Z AUTO 19009KT 10SM CLR 24/06 A2981 RMK AO2 T02350062',\n",
       " 'METAR K0F2 011935Z AUTO 19011KT 10SM CLR 24/06 A2981 RMK AO2 T02420063',\n",
       " 'METAR K0F2 011955Z AUTO 19009KT 10SM CLR 24/06 A2980 RMK AO2 T02430062',\n",
       " 'METAR K0F2 012015Z AUTO 17008KT 10SM CLR 25/06 A2979 RMK AO2 T02450064',\n",
       " 'METAR K0F2 012035Z AUTO 18009KT 10SM CLR 25/06 A2979 RMK AO2 T02450062',\n",
       " 'METAR K0F2 012055Z AUTO 17008KT 10SM CLR 24/07 A2979 RMK AO2 T02420067',\n",
       " 'METAR K0F2 012115Z AUTO 18009KT 10SM CLR 25/07 A2979 RMK AO2 T02480065',\n",
       " 'METAR K0F2 012135Z AUTO 19009KT 10SM CLR 25/07 A2979 RMK AO2 T02500067',\n",
       " 'METAR K0F2 012155Z AUTO 17007KT 10SM CLR 25/07 A2980 RMK AO2 T02500069',\n",
       " 'METAR K0F2 012215Z AUTO 18006KT 10SM CLR 24/07 A2980 RMK AO2 T02380069',\n",
       " 'METAR K0F2 012235Z AUTO 17006KT 10SM CLR 24/07 A2979 RMK AO2 T02400073',\n",
       " 'METAR K0F2 012255Z AUTO 18007KT 10SM CLR 23/07 A2980 RMK AO2 T02330071',\n",
       " 'METAR K0F2 012315Z AUTO 15003KT 10SM CLR 23/08 A2980 RMK AO2 T02280075',\n",
       " 'METAR K0F2 012335Z AUTO 14003KT 10SM CLR 22/08 A2980 RMK AO2 T02160076',\n",
       " 'METAR K0F2 012355Z AUTO 14004KT 10SM CLR 21/08 A2980 RMK AO2 T02050075 10250 20205',\n",
       " 'METAR K0J4 010058Z AUTO 00000KT 8SM CLR 17/14 A3006 RMK AO2 SLP176 T01670139 $',\n",
       " 'METAR K0J4 010131Z AUTO 19003KT 1 3/4SM BR CLR 16/14 A3007 RMK AO2 T01560139 $',\n",
       " 'METAR K0J4 010143Z AUTO 18004KT 4SM BR CLR 17/14 A3006 RMK AO2 T01670144 $',\n",
       " 'METAR K0J4 010158Z AUTO 20004KT 7SM CLR 17/15 A3007 RMK AO2 SLP180 T01670150 $',\n",
       " 'METAR K0J4 010252Z AUTO 00000KT 2SM BR CLR 17/14 A3007 RMK AO2 T01670144 $',\n",
       " 'METAR K0J4 010255Z AUTO 20003KT 1 1/4SM BR FEW007 17/15 A3007 RMK AO2 VIS 1/2V3 $',\n",
       " 'METAR K0J4 010257Z AUTO 19004KT 3/4SM BR FEW007 FEW027 16/15 A3007 RMK AO2 VIS 1/2V2 SLP181 T01610150 53010 $',\n",
       " 'METAR K0J4 010305Z AUTO 21004KT 1SM BR BKN027 17/15 A3007 RMK AO2 T01670150 $',\n",
       " 'METAR K0J4 010310Z AUTO 21004KT 2 1/2SM BR FEW007 BKN027 17/15 A3007 RMK AO2 T01670150 $',\n",
       " 'METAR K0J4 010314Z AUTO 20004KT 4SM BR FEW007 BKN027 16/14 A3007 RMK AO2 T01610144 $',\n",
       " 'METAR K0J4 010338Z AUTO 19004KT 4SM BR BKN003 BKN024 17/15 A3007 RMK AO2 T01670150 $',\n",
       " 'METAR K0J4 010356Z AUTO 20004KT 1 3/4SM BR OVC002 17/16 A3007 RMK AO2 $',\n",
       " 'METAR K0J4 010358Z AUTO 20003KT 1 1/4SM BR OVC002 17/16 A3008 RMK AO2 SLP182 T01720156 $',\n",
       " 'METAR K0J4 010404Z AUTO 21004KT 1/2SM FG VV002 17/16 A3008 RMK AO2 T01720156 $',\n",
       " 'METAR K0J4 010458Z AUTO 00000KT 1/4SM FG VV002 17/16 A3007 RMK AO2 SLP178 T01720156 402330144 $',\n",
       " 'METAR K0J4 010558Z AUTO 19003KT 1/4SM FG VV002 17/16 A3005 RMK AO2 SLP173 T01720156 10189 20156 58008 $',\n",
       " 'METAR K0J4 010658Z AUTO 20004KT 1/4SM FG VV002 17/16 A3004 RMK AO2 SLP169 T01720156 $',\n",
       " 'METAR K0J4 010926Z AUTO 23006KT 7SM OVC005 18/17 A3006 RMK AO2 RAE20 CIG 004V008 P0000 T01830167 $',\n",
       " 'METAR K0J4 010958Z AUTO VRB05KT 6SM BR OVC005 18/16 A3008 RMK AO2 RAE20 SLP182 P0000 T01780161 $',\n",
       " 'METAR K0J4 011058Z AUTO 25003KT 6SM BR BKN007 17/15 A3009 RMK AO2 CIG 005V011 SLP186 T01670150 $',\n",
       " 'METAR K0J4 011104Z AUTO 22003KT 6SM BR SCT007 17/15 A3009 RMK AO2 T01670150 $',\n",
       " 'METAR K0J4 011129Z AUTO 00000KT 3/4SM BR VV007 15/13 A3010 RMK AO2 T01500133 $',\n",
       " 'METAR K0J4 011158Z AUTO 00000KT 1/4SM FG VV005 14/13 A3011 RMK AO2 SLP192 60000 T01390128 10183 20139 52015 $',\n",
       " 'METAR K0J4 011258Z AUTO 00000KT 1/4SM FG VV003 16/14 A3013 RMK AO2 RAB20E42 SLP202 P0000 T01560139 $',\n",
       " 'METAR K0J4 011342Z AUTO VRB03KT 1SM BR OVC002 17/15 A3015 RMK AO2 T01670150 $',\n",
       " 'METAR K0J4 011358Z AUTO VRB03KT 2 1/2SM BR OVC002 17/15 A3016 RMK AO2 SLP209 T01670150 $',\n",
       " 'METAR K0J4 011403Z AUTO 30003KT 3/4SM BR OVC002 17/15 A3016 RMK AO2 T01670150 $',\n",
       " 'METAR K0J4 011433Z AUTO 00000KT 2SM BR OVC002 16/14 A3017 RMK AO2 T01610144 $',\n",
       " 'METAR K0J4 011437Z AUTO 32004KT 5SM BR OVC002 17/15 A3017 RMK AO2 T01670150 $',\n",
       " 'METAR K0J4 011458Z AUTO 00000KT 8SM BKN003 17/14 A3017 RMK AO2 SLP215 60000 T01670144 51022 $',\n",
       " 'METAR K0J4 011505Z AUTO 00000KT 9SM SCT003 17/14 A3017 RMK AO2 T01670144 $',\n",
       " 'METAR K0J4 011758Z AUTO VRB04KT 10SM CLR 24/11 A3013 RMK AO2 SLP200 60000 T02440106 10244 20150 58014 $',\n",
       " 'METAR K0J4 011858Z AUTO 31003KT 10SM CLR 26/09 A3011 RMK AO2 SLP193 T02560094 $',\n",
       " 'METAR K0J4 011958Z AUTO VRB03KT 10SM CLR 26/08 A3011 RMK AO2 SLP191 T02560083 $',\n",
       " 'METAR K0J4 012058Z AUTO 20003KT 10SM CLR 26/08 A3010 RMK AO2 SLP190 T02610078 56010 $',\n",
       " 'METAR K0J4 012158Z AUTO 19004KT 10SM CLR 25/08 A3011 RMK AO2 SLP192 T02500083 $',\n",
       " 'METAR K0J4 012258Z AUTO 00000KT 10SM CLR 20/12 A3011 RMK AO2 SLP195 T02000117 $',\n",
       " 'METAR K0J4 012358Z AUTO 00000KT 10SM CLR 16/12 A3012 RMK AO2 SLP198 T01610117 10272 20161 53007 $',\n",
       " 'METAR K0R0 010015Z AUTO 00000KT M1/4SM FG VV000 14/14 A3001 RMK AO2',\n",
       " 'METAR K0R0 010035Z AUTO 00000KT M1/4SM FG BKN028 14/13 A3002 RMK AO2',\n",
       " 'METAR K0R0 010055Z AUTO 00000KT 1/4SM FG BKN028 13/13 A3002 RMK AO2',\n",
       " 'METAR K0R0 010115Z AUTO 00000KT 1/4SM FG OVC027 13/13 A3003 RMK AO2',\n",
       " 'METAR K0R0 010135Z AUTO 00000KT 1/4SM FG BKN026 13/12 A3003 RMK AO2',\n",
       " 'METAR K0R0 010155Z AUTO 00000KT M1/4SM FG VV000 12/12 A3003 RMK AO2',\n",
       " 'METAR K0R0 010215Z AUTO 00000KT M1/4SM FG VV000 12/12 A3004 RMK AO2',\n",
       " 'METAR K0R0 010235Z AUTO 00000KT M1/4SM FG VV000 12/12 A3003 RMK AO2',\n",
       " 'METAR K0R0 010255Z AUTO 00000KT 1/4SM FG VV002 11/11 A3003 RMK AO2',\n",
       " 'METAR K0R0 010315Z AUTO 00000KT 1/4SM FG VV002 11/11 A3003 RMK AO2',\n",
       " 'METAR K0R0 010335Z AUTO 17004KT 1/2SM FG BKN006 12/12 A3004 RMK AO2',\n",
       " 'METAR K0R0 010355Z AUTO 17005KT 1 1/2SM BR OVC003 15/15 A3004 RMK AO2',\n",
       " 'METAR K0R0 010415Z AUTO 16005KT M1/4SM FG OVC002 15/15 A3004 RMK AO2',\n",
       " 'METAR K0R0 010435Z AUTO 17005KT M1/4SM FG OVC002 15/15 A3004 RMK AO2',\n",
       " 'METAR K0R0 010455Z AUTO 17007KT 1/4SM FG OVC002 15/15 A3004 RMK AO2',\n",
       " 'METAR K0R0 010515Z AUTO 17005KT 1/4SM FG OVC002 15/15 A3003 RMK AO2',\n",
       " 'METAR K0R0 010535Z AUTO 17005KT 1/2SM BR OVC002 15/15 A3003 RMK AO2',\n",
       " 'METAR K0R0 010555Z AUTO 18005KT 1/2SM FG OVC002 15/15 A3004 RMK AO2',\n",
       " 'METAR K0R0 010615Z AUTO 19004KT 1/2SM FG OVC002 15/14 A3005 RMK AO2',\n",
       " 'METAR K0R0 010635Z AUTO 19004KT 1/4SM FG OVC002 14/14 A3006 RMK AO2',\n",
       " 'METAR K0R0 010655Z AUTO 18006KT 1/2SM FG OVC002 14/14 A3006 RMK AO2',\n",
       " 'METAR K0R0 010715Z AUTO 20006KT 3SM BR OVC002 14/14 A3006 RMK AO2',\n",
       " 'METAR K0R0 010735Z AUTO 20005KT 3SM BR OVC003 14/14 A3007 RMK AO2',\n",
       " 'METAR K0R0 010755Z AUTO 19004KT 4SM BR OVC003 14/14 A3007 RMK AO2',\n",
       " 'METAR K0R0 010815Z AUTO 18004KT 3SM BR OVC003 14/14 A3007 RMK AO2',\n",
       " 'METAR K0R0 010835Z AUTO 19005KT 3SM BR OVC003 14/14 A3008 RMK AO2',\n",
       " 'METAR K0R0 010855Z AUTO 00000KT 3SM BR OVC003 14/14 A3007 RMK AO2',\n",
       " 'METAR K0R0 010915Z AUTO 00000KT 2SM BR OVC002 14/13 A3008 RMK AO2',\n",
       " 'METAR K0R0 010935Z AUTO 19004KT 3/4SM BR OVC002 13/13 A3008 RMK AO2',\n",
       " 'METAR K0R0 010955Z AUTO 18005KT 1/2SM FG OVC002 13/13 A3008 RMK AO2',\n",
       " 'METAR K0R0 011015Z AUTO 16003KT 1/4SM FG OVC002 13/13 A3007 RMK AO2',\n",
       " 'METAR K0R0 011035Z AUTO 16004KT M1/4SM FG OVC002 13/13 A3007 RMK AO2',\n",
       " 'METAR K0R0 011055Z AUTO 16004KT M1/4SM FG OVC002 13/13 A3007 RMK AO2',\n",
       " 'METAR K0R0 011115Z AUTO 17004KT M1/4SM FG OVC002 13/13 A3008 RMK AO2',\n",
       " 'METAR K0R0 011135Z AUTO 00000KT M1/4SM FG OVC002 13/12 A3008 RMK AO2',\n",
       " 'METAR K0R0 011155Z AUTO 00000KT M1/4SM FG OVC002 13/12 A3009 RMK AO2',\n",
       " 'METAR K0R0 011215Z AUTO 00000KT M1/4SM FG OVC002 12/12 A3009 RMK AO2',\n",
       " 'METAR K0R0 011235Z AUTO 00000KT M1/4SM FG OVC002 12/12 A3010 RMK AO2',\n",
       " 'METAR K0R0 011255Z AUTO 00000KT M1/4SM FG OVC002 12/12 A3010 RMK AO2',\n",
       " 'METAR K0R0 011315Z AUTO 00000KT M1/4SM FG OVC002 12/12 A3011 RMK AO2',\n",
       " 'METAR K0R0 011335Z AUTO 00000KT M1/4SM FG OVC002 12/12 A3012 RMK AO2',\n",
       " 'METAR K0R0 011355Z AUTO 00000KT M1/4SM FG OVC002 12/12 A3012 RMK AO2',\n",
       " 'METAR K0R0 011415Z AUTO 00000KT 1/4SM FG OVC002 12/12 A3013 RMK AO2',\n",
       " 'METAR K0R0 011435Z AUTO 00000KT 1/4SM FG OVC002 12/12 A3013 RMK AO2',\n",
       " 'METAR K0R0 011455Z AUTO 00000KT 1/4SM FG OVC002 12/12 A3014 RMK AO2',\n",
       " 'METAR K0R0 011515Z AUTO 00000KT M1/4SM FG OVC002 13/13 A3014 RMK AO2',\n",
       " 'METAR K0R0 011535Z AUTO 00000KT M1/4SM FG OVC002 14/13 A3014 RMK AO2',\n",
       " 'METAR K0R0 011555Z AUTO 00000KT 7SM BKN002 15/15 A3014 RMK AO2',\n",
       " 'METAR K0R0 011615Z AUTO 00000KT 10SM FEW003 17/15 A3014 RMK AO2',\n",
       " 'METAR K0R0 011635Z AUTO 00000KT 10SM CLR 18/15 A3014 RMK AO2',\n",
       " 'METAR K0R0 011655Z AUTO 21005KT 10SM CLR 19/16 A3014 RMK AO2',\n",
       " 'METAR K0R0 011715Z AUTO 20007KT 10SM CLR 20/16 A3013 RMK AO2',\n",
       " 'METAR K0R0 011735Z AUTO 18006KT 10SM CLR 20/16 A3012 RMK AO2',\n",
       " 'METAR K0R0 011755Z AUTO VRB05KT 10SM CLR 22/17 A3012 RMK AO2',\n",
       " 'METAR K0R0 011815Z AUTO VRB06KT 10SM CLR 23/17 A3010 RMK AO2',\n",
       " 'METAR K0R0 011835Z AUTO 18007KT 10SM CLR 24/17 A3009 RMK AO2',\n",
       " 'METAR K0R0 011855Z AUTO 18009KT 10SM CLR 24/18 A3009 RMK AO2',\n",
       " 'METAR K0R0 011915Z AUTO 18007KT 10SM CLR 25/18 A3008 RMK AO2',\n",
       " 'METAR K0R0 011935Z AUTO 20008KT 10SM FEW021 25/18 A3008 RMK AO2',\n",
       " 'METAR K0R0 011955Z AUTO 21008KT 10SM BKN019 BKN026 24/18 A3008 RMK AO2',\n",
       " 'METAR K0R0 012015Z AUTO 20007KT 10SM OVC017 23/19 A3007 RMK AO2',\n",
       " 'METAR K0R0 012035Z AUTO 18008KT 10SM OVC014 23/19 A3007 RMK AO2',\n",
       " 'METAR K0R0 012055Z AUTO 20006KT 10SM OVC013 22/19 A3007 RMK AO2',\n",
       " 'METAR K0R0 012115Z AUTO 17004KT 10SM OVC013 22/19 A3007 RMK AO2',\n",
       " 'METAR K0R0 012135Z AUTO 19005KT 10SM OVC012 22/19 A3008 RMK AO2',\n",
       " 'METAR K0R0 012155Z AUTO 21004KT 10SM OVC012 22/19 A3008 RMK AO2',\n",
       " 'METAR K0R0 012215Z AUTO 17004KT 10SM OVC013 22/19 A3007 RMK AO2',\n",
       " 'METAR K0R0 012235Z AUTO 00000KT 10SM OVC013 21/19 A3007 RMK AO2',\n",
       " 'METAR K0R0 012255Z AUTO 00000KT 10SM OVC012 21/19 A3007 RMK AO2',\n",
       " 'METAR K0R0 012315Z AUTO 00000KT 10SM OVC011 21/19 A3007 RMK AO2',\n",
       " 'METAR K0R0 012335Z AUTO 00000KT 10SM BKN012 BKN017 21/19 A3007 RMK AO2',\n",
       " 'METAR K0R0 012355Z AUTO 15003KT 10SM BKN013 BKN018 21/19 A3007 RMK AO2',\n",
       " 'METAR K0R4 010015Z AUTO 15005KT 10SM 16/14 A2996 RMK AO2 T01610137',\n",
       " 'METAR K0R4 010035Z AUTO 00000KT 10SM 15/14 A2996 RMK AO2 T01540137',\n",
       " 'METAR K0R4 010055Z AUTO 15006KT 10SM 16/13 A2996 RMK AO2 T01560133',\n",
       " 'METAR K0R4 010115Z AUTO 14006KT 10SM 15/13 A2996 RMK AO2 T01500131',\n",
       " 'METAR K0R4 010135Z AUTO 15007KT 10SM 15/13 A2996 RMK AO2 T01500131',\n",
       " 'METAR K0R4 010155Z AUTO 14006KT 10SM 15/13 A2996 RMK AO2 T01510130',\n",
       " 'METAR K0R4 010215Z AUTO 14006KT 10SM 14/13 A2996 RMK AO2 T01410126',\n",
       " 'METAR K0R4 010235Z AUTO 14005KT 10SM 14/13 A2997 RMK AO2 T01400126',\n",
       " 'METAR K0R4 010255Z AUTO 13005KT 10SM 14/12 A2996 RMK AO2 T01410124',\n",
       " 'METAR K0R4 010315Z AUTO 13004KT 10SM 14/12 A2996 RMK AO2 T01410123',\n",
       " 'METAR K0R4 010335Z AUTO 14003KT 10SM 14/12 A2997 RMK AO2 T01390121',\n",
       " 'METAR K0R4 010355Z AUTO 00000KT 10SM 14/12 A2998 RMK AO2 T01350118',\n",
       " 'METAR K0R4 010415Z AUTO 15003KT 10SM 14/12 A2998 RMK AO2 T01360122',\n",
       " 'METAR K0R4 010435Z AUTO 16003KT 10SM 13/12 A2998 RMK AO2 T01300120',\n",
       " 'METAR K0R4 010455Z AUTO 16005KT 10SM 13/12 A2999 RMK AO2 T01290119',\n",
       " 'METAR K0R4 010515Z AUTO 17004KT 10SM 13/12 A2999 RMK AO2 T01340119',\n",
       " 'METAR K0R4 010535Z AUTO 00000KT 10SM 13/12 A3000 RMK AO2 T01280116',\n",
       " 'METAR K0R4 010555Z AUTO 00000KT 10SM 13/12 A3000 RMK AO2 T01300119 10165 20127 402050127',\n",
       " 'METAR K0R4 010615Z AUTO 15003KT 10SM 12/11 A3001 RMK AO2 T01210114',\n",
       " 'METAR K0R4 010635Z AUTO 15003KT 10SM 12/12 A3001 RMK AO2 T01210115',\n",
       " 'METAR K0R4 010655Z AUTO 14004KT 10SM 12/12 A3001 RMK AO2 T01210115',\n",
       " 'METAR K0R4 010715Z AUTO 14004KT 7SM 12/12 A3001 RMK AO2 T01200115',\n",
       " 'METAR K0R4 010735Z AUTO 12003KT 7SM 12/12 A3001 RMK AO2 T01190115',\n",
       " 'METAR K0R4 010755Z AUTO 14004KT 7SM 12/12 A3001 RMK AO2 T01210119',\n",
       " 'METAR K0R4 010815Z AUTO 14005KT 7SM 12/12 A3001 RMK AO2 T01200116',\n",
       " 'METAR K0R4 010835Z AUTO 14005KT 7SM 12/12 A3001 RMK AO2 T01190116',\n",
       " 'METAR K0R4 010855Z AUTO 15003KT 7SM 12/12 A3001 RMK AO2 T01200118',\n",
       " 'METAR K0R4 010915Z AUTO 00000KT 5SM BR 12/12 A3001 RMK AO2 T01180116',\n",
       " 'METAR K0R4 010935Z AUTO 15003KT 2 1/2SM BR 11/11 A3001 RMK AO2 T01140112',\n",
       " 'METAR K0R4 010955Z AUTO 00000KT 3SM BR 11/11 A3001 RMK AO2 T01110110',\n",
       " 'METAR K0R4 011015Z AUTO 16003KT 5SM BR 11/11 A3001 RMK AO2 T01110111',\n",
       " 'METAR K0R4 011035Z AUTO 00000KT 5SM BR 11/11 A3001 RMK AO2 T01080108',\n",
       " 'METAR K0R4 011055Z AUTO 14003KT 5SM BR 11/11 A3001 RMK AO2 T01070107',\n",
       " 'METAR K0R4 011115Z AUTO 14003KT 5SM BR 10/10 A3002 RMK AO2 T01010101',\n",
       " 'METAR K0R4 011135Z AUTO 15005KT 7SM 10/10 A3002 RMK AO2 T01040104',\n",
       " 'METAR K0R4 011155Z AUTO 15005KT 10SM 11/11 A3002 RMK AO2 T01050105 10131 20097',\n",
       " 'METAR K0R4 011215Z AUTO 15003KT 7SM 10/10 A3003 RMK AO2 T01030100',\n",
       " 'METAR K0R4 011235Z AUTO 00000KT 7SM 10/10 A3003 RMK AO2 T01030101',\n",
       " 'METAR K0R4 011255Z AUTO 20004KT 4SM BR 10/10 A3004 RMK AO2 T01000098',\n",
       " 'METAR K0R4 011315Z AUTO 20007KT 1 3/4SM BR 10/10 A3005 RMK AO2 T00990099',\n",
       " 'METAR K0R4 011335Z AUTO 18005KT 3SM BR 11/11 A3006 RMK AO2 T01140114',\n",
       " 'METAR K0R4 011355Z AUTO 00000KT 1/4SM FG 12/12 A3006 RMK AO2 T01200120',\n",
       " 'METAR K0R4 011415Z AUTO 19004KT 1/4SM FG 13/13 A3007 RMK AO2 T01250125',\n",
       " 'METAR K0R4 011435Z AUTO 17004KT 1/2SM FG 13/13 A3007 RMK AO2 T01290129',\n",
       " 'METAR K0R4 011455Z AUTO 13003KT 1/4SM FG 13/13 A3008 RMK AO2 T01310131',\n",
       " 'METAR K0R4 011515Z AUTO 14003KT 1/4SM FG 14/14 A3008 RMK AO2 T01350135',\n",
       " 'METAR K0R4 011535Z AUTO 14005KT 1 1/4SM BR 14/14 A3008 RMK AO2 T01400140',\n",
       " 'METAR K0R4 011555Z AUTO 14006KT 1 3/4SM BR 15/15 A3007 RMK AO2 T01530153',\n",
       " 'METAR K0R4 011615Z AUTO 16006KT 3/4SM BR 16/16 A3007 RMK AO2 T01620162',\n",
       " 'METAR K0R4 011635Z AUTO 15005KT 4SM BR 17/17 A3007 RMK AO2 T01690169',\n",
       " 'METAR K0R4 011655Z AUTO 16006KT 7SM 17/17 A3007 RMK AO2 T01730173',\n",
       " 'METAR K0R4 011715Z AUTO 19006KT 10SM 18/17 A3007 RMK AO2 T01770173',\n",
       " 'METAR K0R4 011735Z AUTO 19006KT 7SM 18/18 A3006 RMK AO2 T01820175',\n",
       " 'METAR K0R4 011755Z AUTO 17006KT 10SM 19/18 A3005 RMK AO2 T01920176 10192 20095',\n",
       " 'METAR K0R4 011815Z AUTO 17005KT 10SM 20/18 A3004 RMK AO2 T02020180',\n",
       " 'METAR K0R4 011835Z AUTO 16006KT 10SM 21/18 A3003 RMK AO2 T02100181',\n",
       " 'METAR K0R4 011855Z AUTO 17004KT 10SM 22/18 A3002 RMK AO2 T02180184',\n",
       " 'METAR K0R4 011915Z AUTO 17006KT 10SM 22/19 A3001 RMK AO2 T02230186',\n",
       " 'METAR K0R4 011935Z AUTO 16008KT 10SM 23/19 A3000 RMK AO2 T02270190',\n",
       " 'METAR K0R4 011955Z AUTO 17008KT 10SM 23/19 A3000 RMK AO2 T02250189',\n",
       " 'METAR K0R4 012015Z AUTO 17008KT 10SM 23/19 A2999 RMK AO2 T02330191',\n",
       " 'METAR K0R4 012035Z AUTO 17006KT 10SM 23/19 A2999 RMK AO2 T02320193',\n",
       " 'METAR K0R4 012055Z AUTO 16008KT 10SM 24/19 A2999 RMK AO2 T02380194',\n",
       " 'METAR K0R4 012115Z AUTO 17009KT 10SM 24/19 A2999 RMK AO2 T02370190',\n",
       " 'METAR K0R4 012135Z AUTO 16007KT 10SM 23/19 A2999 RMK AO2 T02320187',\n",
       " 'METAR K0R4 012155Z AUTO 15009KT 10SM 23/19 A2999 RMK AO2 T02310186',\n",
       " 'METAR K0R4 012215Z AUTO 14009KT 10SM 23/18 A2998 RMK AO2 T02270183',\n",
       " 'METAR K0R4 012235Z AUTO 13007KT 10SM 22/19 A2998 RMK AO2 T02200187',\n",
       " 'METAR K0R4 012255Z AUTO 16007KT 10SM 21/19 A2999 RMK AO2 T02140186',\n",
       " 'METAR K0R4 012315Z AUTO 16009KT 10SM 21/19 A2999 RMK AO2 T02080186',\n",
       " 'METAR K0R4 012335Z AUTO 17008KT 10SM 21/19 A3000 RMK AO2 T02050187',\n",
       " 'METAR K0R4 012355Z AUTO 16008KT 10SM 20/19 A3001 RMK AO2 T02030187 10238 20194',\n",
       " 'METAR K0S9 010015Z AUTO 00000KT 8SM BKN021 OVC028 08/07 A2990 RMK AO2',\n",
       " 'METAR K0S9 010035Z AUTO 00000KT 10SM BKN023 OVC027 08/07 A2991 RMK AO2',\n",
       " 'METAR K0S9 010055Z AUTO 00000KT 10SM BKN018 OVC024 08/07 A2992 RMK AO2',\n",
       " 'METAR K0S9 010115Z AUTO 00000KT 10SM OVC018 08/07 A2992 RMK AO2',\n",
       " 'METAR K0S9 010135Z AUTO 30005KT 10SM OVC018 08/06 A2993 RMK AO2',\n",
       " 'METAR K0S9 010155Z AUTO 27005KT 10SM OVC019 08/06 A2993 RMK AO2',\n",
       " 'METAR K0S9 010215Z AUTO 28004KT 10SM BKN022 BKN028 OVC070 08/06 A2993 RMK AO2',\n",
       " 'METAR K0S9 010235Z AUTO 29005KT 10SM BKN026 OVC070 08/06 A2994 RMK AO2',\n",
       " 'METAR K0S9 010255Z AUTO 29005KT 10SM FEW027 SCT055 OVC070 08/06 A2994 RMK AO2',\n",
       " 'METAR K0S9 010315Z AUTO 30005KT 10SM FEW055 OVC070 08/06 A2995 RMK AO2',\n",
       " 'METAR K0S9 010335Z AUTO 29004KT 10SM BKN055 OVC065 08/05 A2996 RMK AO2',\n",
       " 'METAR K0S9 010355Z AUTO 28005KT 10SM OVC055 08/05 A2996 RMK AO2',\n",
       " 'METAR K0S9 010415Z AUTO 29006KT 10SM BKN055 08/05 A2997 RMK AO2',\n",
       " 'METAR K0S9 010435Z AUTO 28006KT 10SM BKN050 BKN055 07/05 A2998 RMK AO2',\n",
       " 'METAR K0S9 010455Z AUTO 28008KT 10SM OVC049 07/04 A2999 RMK AO2',\n",
       " 'METAR K0S9 010515Z AUTO 29006KT 10SM SCT050 07/04 A2999 RMK AO2',\n",
       " 'METAR K0S9 010535Z AUTO 30004KT 10SM CLR 07/04 A3000 RMK AO2',\n",
       " 'METAR K0S9 010555Z AUTO 28004KT 10SM CLR 06/04 A3000 RMK AO2',\n",
       " 'METAR K0S9 010615Z AUTO 00000KT 10SM CLR 05/04 A3001 RMK AO2',\n",
       " 'METAR K0S9 010635Z AUTO 00000KT 10SM SCT065 04/03 A3001 RMK AO2',\n",
       " 'METAR K0S9 010655Z AUTO 34003KT 10SM BKN065 04/04 A3002 RMK AO2',\n",
       " 'METAR K0S9 010715Z AUTO 28003KT 7SM CLR 03/03 A3003 RMK AO2',\n",
       " 'METAR K0S9 010735Z AUTO 00000KT 3/4SM BR BKN025 OVC033 02/02 A3004 RMK AO2 VIS 1/2V5',\n",
       " 'METAR K0S9 010755Z AUTO 00000KT 1/4SM FG SCT001 SCT018 OVC025 02/02 A3005 RMK AO2',\n",
       " 'METAR K0S9 010815Z AUTO 00000KT 1/4SM FG SCT001 BKN026 OVC043 01/01 A3005 RMK AO2',\n",
       " 'METAR K0S9 010835Z AUTO 00000KT 1/4SM FG SCT017 BKN026 OVC044 01/01 A3005 RMK AO2',\n",
       " 'METAR K0S9 010855Z AUTO 00000KT 1SM BR FEW017 SCT026 OVC060 02/02 A3005 RMK AO2',\n",
       " 'METAR K0S9 010915Z AUTO 00000KT 9SM OVC055 02/02 A3006 RMK AO2',\n",
       " 'METAR K0S9 010935Z AUTO 00000KT 10SM OVC055 02/02 A3006 RMK AO2',\n",
       " 'METAR K0S9 010955Z AUTO 00000KT 10SM SCT024 SCT037 OVC050 03/03 A3007 RMK AO2',\n",
       " 'METAR K0S9 011015Z AUTO 00000KT 10SM FEW023 SCT037 OVC050 03/03 A3008 RMK AO2',\n",
       " 'METAR K0S9 011035Z AUTO 00000KT 10SM SCT021 OVC050 03/03 A3009 RMK AO2',\n",
       " 'METAR K0S9 011055Z AUTO 00000KT 10SM SCT022 BKN035 OVC050 04/04 A3010 RMK AO2',\n",
       " 'METAR K0S9 011115Z AUTO 00000KT 10SM SCT021 OVC034 04/04 A3010 RMK AO2',\n",
       " 'METAR K0S9 011135Z AUTO 00000KT 10SM SCT017 SCT025 OVC032 04/04 A3010 RMK AO2',\n",
       " 'METAR K0S9 011155Z AUTO 00000KT 10SM BKN016 OVC031 04/04 A3010 RMK AO2',\n",
       " 'METAR K0S9 011215Z AUTO 00000KT 10SM SCT016 OVC030 04/04 A3010 RMK AO2',\n",
       " 'METAR K0S9 011235Z AUTO 00000KT 10SM BKN016 OVC030 04/04 A3010 RMK AO2',\n",
       " 'METAR K0S9 011255Z AUTO 00000KT 10SM OVC016 04/04 A3011 RMK AO2',\n",
       " 'METAR K0S9 011315Z AUTO 00000KT 10SM OVC016 04/04 A3012 RMK AO2',\n",
       " 'METAR K0S9 011335Z AUTO 00000KT 10SM OVC017 04/04 A3012 RMK AO2',\n",
       " 'METAR K0S9 011355Z AUTO 00000KT 10SM OVC017 04/05 A3012 RMK AO2',\n",
       " 'METAR K0S9 011415Z AUTO 00000KT 10SM OVC017 05/05 A3013 RMK AO2',\n",
       " 'METAR K0S9 011435Z AUTO 00000KT 10SM OVC016 05/05 A3013 RMK AO2',\n",
       " 'METAR K0S9 011455Z AUTO 00000KT 10SM OVC015 05/05 A3013 RMK AO2',\n",
       " 'METAR K0S9 011515Z AUTO 00000KT 7SM OVC014 05/05 A3013 RMK AO2',\n",
       " 'METAR K0S9 011535Z AUTO 10003KT 10SM OVC014 05/05 A3013 RMK AO2',\n",
       " 'METAR K0S9 011555Z AUTO 00000KT 10SM OVC014 05/05 A3014 RMK AO2',\n",
       " 'METAR K0S9 011615Z AUTO 00000KT 10SM OVC013 05/05 A3015 RMK AO2',\n",
       " 'METAR K0S9 011635Z AUTO 00000KT 10SM OVC013 05/05 A3015 RMK AO2',\n",
       " 'METAR K0S9 011655Z AUTO 00000KT 10SM OVC014 05/05 A3016 RMK AO2',\n",
       " 'METAR K0S9 011715Z AUTO 29005KT 10SM OVC010 05/05 A3017 RMK AO2',\n",
       " 'METAR K0S9 011735Z AUTO 00000KT 10SM OVC010 06/05 A3017 RMK AO2',\n",
       " 'METAR K0S9 011755Z AUTO 00000KT 10SM OVC012 06/05 A3018 RMK AO2',\n",
       " 'METAR K0S9 011815Z AUTO 00000KT 10SM OVC013 06/05 A3017 RMK AO2',\n",
       " 'METAR K0S9 011835Z AUTO 12004KT 10SM BKN016 OVC026 06/05 A3016 RMK AO2',\n",
       " 'METAR K0S9 011855Z AUTO 12004KT 10SM BKN017 OVC026 06/05 A3015 RMK AO2',\n",
       " 'METAR K0S9 011915Z AUTO 13005KT 10SM OVC019 06/05 A3014 RMK AO2',\n",
       " 'METAR K0S9 011935Z AUTO 11004KT 10SM BKN017 OVC022 07/05 A3014 RMK AO2',\n",
       " 'METAR K0S9 011955Z AUTO 12007KT 10SM FEW010 OVC018 07/05 A3012 RMK AO2',\n",
       " 'METAR K0S9 012015Z AUTO 11004KT 10SM BKN010 OVC017 07/05 A3013 RMK AO2',\n",
       " 'METAR K0S9 012035Z AUTO 00000KT 10SM OVC010 07/05 A3013 RMK AO2',\n",
       " 'METAR K0S9 012055Z AUTO 00000KT 10SM BKN011 OVC032 07/06 A3013 RMK AO2',\n",
       " 'METAR K0S9 012115Z AUTO 00000KT 10SM BKN013 OVC032 07/06 A3012 RMK AO2',\n",
       " 'METAR K0S9 012135Z AUTO 11004KT 10SM BKN013 BKN017 OVC033 07/06 A3011 RMK AO2',\n",
       " 'METAR K0S9 012155Z AUTO 12003KT 10SM OVC033 07/05 A3011 RMK AO2',\n",
       " 'METAR K0S9 012215Z AUTO 00000KT 10SM OVC032 08/06 A3010 RMK AO2',\n",
       " 'METAR K0S9 012235Z AUTO 00000KT 10SM OVC032 08/05 A3010 RMK AO2',\n",
       " 'METAR K0S9 012255Z AUTO 00000KT 10SM BKN032 08/05 A3009 RMK AO2',\n",
       " 'METAR K0S9 012315Z AUTO 12006KT 10SM CLR 07/05 A3008 RMK AO2',\n",
       " 'METAR K0S9 012335Z AUTO 11003KT 10SM CLR 07/05 A3008 RMK AO2',\n",
       " 'METAR K0S9 012355Z AUTO 06003KT 10SM CLR 05/04 A3008 RMK AO2',\n",
       " 'METAR K0V4 010015Z AUTO 16009KT 7SM SCT070 OVC095 A2992 RMK AO1',\n",
       " 'METAR K0V4 010035Z AUTO 12003KT 3SM SCT070 BKN095 A2989 RMK AO1',\n",
       " 'METAR K0V4 010055Z AUTO 17008KT 2SM OVC095 A2991 RMK AO1',\n",
       " 'METAR K0V4 010115Z AUTO 17006KT 10SM OVC095 A2991 RMK AO1',\n",
       " 'METAR K0V4 010135Z AUTO 18008KT 1 3/4SM SCT095 A2991 RMK AO1',\n",
       " 'METAR K0V4 010155Z AUTO 19009KT 1 1/4SM BKN003 A2992 RMK AO1',\n",
       " 'METAR K0V4 010215Z AUTO 19008KT 1/2SM OVC003 A2992 RMK AO1',\n",
       " 'METAR K0V4 010235Z AUTO 19005KT 1/4SM OVC003 A2994 RMK AO1',\n",
       " 'METAR K0V4 010255Z AUTO 18007KT 3/4SM OVC003 A2993 RMK AO1',\n",
       " 'METAR K0V4 010315Z AUTO 19005KT 7SM OVC003 A2993 RMK AO1',\n",
       " 'METAR K0V4 010335Z AUTO 18006KT 7SM OVC003 A2992 RMK AO1',\n",
       " 'METAR K0V4 010355Z AUTO 20006KT 1 3/4SM OVC003 A2993 RMK AO1',\n",
       " 'METAR K0V4 010415Z AUTO 21004KT 2 1/2SM OVC003 A2994 RMK AO1',\n",
       " 'METAR K0V4 010435Z AUTO 19005KT 1 3/4SM OVC003 A2994 RMK AO1',\n",
       " 'METAR K0V4 010455Z AUTO 17005KT 3SM OVC003 A2995 RMK AO1',\n",
       " 'METAR K0V4 010515Z AUTO 19006KT 4SM OVC003 A2996 RMK AO1',\n",
       " 'METAR K0V4 010535Z AUTO 17007KT 3SM OVC003 A2994 RMK AO1',\n",
       " 'METAR K0V4 010555Z AUTO 19009KT 4SM OVC003 A2995 RMK AO1',\n",
       " 'METAR K0V4 010615Z AUTO 18007KT 1/2SM OVC003 A2994 RMK AO1',\n",
       " 'METAR K0V4 010635Z AUTO 18007KT 1/4SM OVC003 A2995 RMK AO1',\n",
       " 'METAR K0V4 010655Z AUTO 20003KT 1/4SM OVC003 A2995 RMK AO1',\n",
       " 'METAR K0V4 010715Z AUTO 18006KT 1/4SM OVC003 A2996 RMK AO1',\n",
       " 'METAR K0V4 010735Z AUTO 18006KT 1/4SM OVC003 A2996 RMK AO1',\n",
       " 'METAR K0V4 010755Z AUTO 17009KT 1/4SM OVC003 A2996 RMK AO1',\n",
       " 'METAR K0V4 010815Z AUTO 18006KT 1/4SM OVC003 A2998 RMK AO1',\n",
       " 'METAR K0V4 010835Z AUTO 16008KT 1/4SM OVC003 A2998 RMK AO1',\n",
       " ...]"
      ]
     },
     "execution_count": 41,
     "metadata": {},
     "output_type": "execute_result"
    }
   ],
   "source": [
    "metarlist = metardf['metar'].tolist()\n",
    "metarlist = ['METAR ' + m for m in metarlist]\n",
    "metarlist"
   ]
  },
  {
   "cell_type": "code",
   "execution_count": 43,
   "metadata": {},
   "outputs": [],
   "source": [
    "from IPython.display import clear_output"
   ]
  },
  {
   "cell_type": "code",
   "execution_count": 58,
   "metadata": {},
   "outputs": [
    {
     "name": "stdout",
     "output_type": "stream",
     "text": [
      "9900/415945\n",
      "     station_id  latitude  longitude  elevation           date_time  \\\n",
      "0          K04V     38.10    -106.17     2385.0 2023-11-01 00:13:00   \n",
      "1          K04V     38.10    -106.17     2385.0 2023-11-01 00:33:00   \n",
      "2          K04V     38.10    -106.17     2385.0 2023-11-01 00:53:00   \n",
      "3          K04V     38.10    -106.17     2385.0 2023-11-01 01:13:00   \n",
      "4          K04V     38.10    -106.17     2385.0 2023-11-01 01:33:00   \n",
      "...         ...       ...        ...        ...                 ...   \n",
      "9995       K8B0     44.97     -70.70      554.0 2023-11-01 16:15:00   \n",
      "9996       K8B0     44.97     -70.70      554.0 2023-11-01 16:35:00   \n",
      "9997       K8B0     44.97     -70.70      554.0 2023-11-01 16:55:00   \n",
      "9998       K8B0     44.97     -70.70      554.0 2023-11-01 17:15:00   \n",
      "9999       K8B0     44.97     -70.70      554.0 2023-11-01 17:35:00   \n",
      "\n",
      "      wind_direction  wind_speed  wind_gust  visibility current_wx1  ...  \\\n",
      "0              310.0         9.0        NaN   16093.440         NaN  ...   \n",
      "1              310.0         8.0        NaN   16093.440         NaN  ...   \n",
      "2              290.0         7.0        NaN   16093.440         NaN  ...   \n",
      "3              300.0        11.0       14.0   16093.440         NaN  ...   \n",
      "4              310.0         6.0        NaN   16093.440         NaN  ...   \n",
      "...              ...         ...        ...         ...         ...  ...   \n",
      "9995           280.0        11.0       19.0   16093.440         NaN  ...   \n",
      "9996           290.0         7.0       20.0    2011.680         -UP  ...   \n",
      "9997           290.0         6.0        NaN    9656.064          BR  ...   \n",
      "9998           310.0         9.0        NaN    9656.064          BR  ...   \n",
      "9999           300.0        10.0        NaN    9656.064          BR  ...   \n",
      "\n",
      "     air_temperature  dew_point_temperature altimeter  current_wx1_symbol  \\\n",
      "0                0.0                   -3.0     29.89                   0   \n",
      "1                0.0                   -3.0     29.89                   0   \n",
      "2                0.0                   -3.0     29.90                   0   \n",
      "3               -1.0                   -3.0     29.90                   0   \n",
      "4               -1.0                   -3.0     29.91                   0   \n",
      "...              ...                    ...       ...                 ...   \n",
      "9995             3.0                    2.0     29.68                   0   \n",
      "9996             3.0                    3.0     29.68                 141   \n",
      "9997             3.0                    3.0     29.68                  10   \n",
      "9998             3.0                    3.0     29.68                  10   \n",
      "9999             3.0                    2.0     29.69                  10   \n",
      "\n",
      "     current_wx2_symbol  current_wx3_symbol remarks  \\\n",
      "0                     0                   0     AO2   \n",
      "1                     0                   0     AO2   \n",
      "2                     0                   0     AO2   \n",
      "3                     0                   0     AO2   \n",
      "4                     0                   0     AO2   \n",
      "...                 ...                 ...     ...   \n",
      "9995                  0                   0     AO2   \n",
      "9996                  0                   0     AO2   \n",
      "9997                  0                   0     AO2   \n",
      "9998                  0                   0     AO2   \n",
      "9999                  0                   0     AO2   \n",
      "\n",
      "      air_pressure_at_sea_level eastward_wind  northward_wind  \n",
      "0                       1020.14      6.894400       -5.785088  \n",
      "1                       1020.14      6.128356       -5.142301  \n",
      "2                       1020.50      6.577848       -2.394141  \n",
      "3                       1021.62      9.526279       -5.500000  \n",
      "4                       1021.98      4.596267       -3.856726  \n",
      "...                         ...           ...             ...  \n",
      "9995                    1007.72     10.832885       -1.910130  \n",
      "9996                    1007.72      6.577848       -2.394141  \n",
      "9997                    1007.72      5.638156       -2.052121  \n",
      "9998                    1007.72      6.894400       -5.785088  \n",
      "9999                    1008.06      8.660254       -5.000000  \n",
      "\n",
      "[10000 rows x 31 columns]\n"
     ]
    }
   ],
   "source": [
    "# ExaIPythone METAR data\n",
    "#metar_data = 'METAR KATL 112351Z 09004KT 10SM FEW250 13/M02 A3013 RMK AO2 SLP204 T01281017 10139 20128 51006'\n",
    "\n",
    "df=pd.DataFrame()\n",
    "# Parse METAR data to a pandas DataFrame\n",
    "for i in range(len(data[:10000])):\n",
    "    if i % 100 == 0:\n",
    "        clear_output(wait=True)\n",
    "        print(f'{i}/{len(data)}')\n",
    "    newrow = parse_metar_to_dataframe(metarlist[i])\n",
    "    df = pd.concat([df, newrow], ignore_index=True)\n",
    "\n",
    "# Display the DataFrame\n",
    "print(df)"
   ]
  },
  {
   "cell_type": "code",
   "execution_count": 32,
   "metadata": {},
   "outputs": [],
   "source": [
    "# data['station_id'] = data['station']"
   ]
  },
  {
   "cell_type": "code",
   "execution_count": 78,
   "metadata": {},
   "outputs": [
    {
     "data": {
      "text/html": [
       "<div>\n",
       "<style scoped>\n",
       "    .dataframe tbody tr th:only-of-type {\n",
       "        vertical-align: middle;\n",
       "    }\n",
       "\n",
       "    .dataframe tbody tr th {\n",
       "        vertical-align: top;\n",
       "    }\n",
       "\n",
       "    .dataframe thead th {\n",
       "        text-align: right;\n",
       "    }\n",
       "</style>\n",
       "<table border=\"1\" class=\"dataframe\">\n",
       "  <thead>\n",
       "    <tr style=\"text-align: right;\">\n",
       "      <th></th>\n",
       "      <th>low_cloud_level</th>\n",
       "      <th>medium_cloud_level</th>\n",
       "      <th>high_cloud_level</th>\n",
       "      <th>highest_cloud_level</th>\n",
       "      <th>station_id</th>\n",
       "    </tr>\n",
       "  </thead>\n",
       "  <tbody>\n",
       "    <tr>\n",
       "      <th>1439</th>\n",
       "      <td>1800.0</td>\n",
       "      <td>2800.0</td>\n",
       "      <td>3500.0</td>\n",
       "      <td>7000.0</td>\n",
       "      <td>K15M</td>\n",
       "    </tr>\n",
       "    <tr>\n",
       "      <th>1440</th>\n",
       "      <td>1500.0</td>\n",
       "      <td>2800.0</td>\n",
       "      <td>3500.0</td>\n",
       "      <td>6500.0</td>\n",
       "      <td>K15M</td>\n",
       "    </tr>\n",
       "    <tr>\n",
       "      <th>3872</th>\n",
       "      <td>500.0</td>\n",
       "      <td>1800.0</td>\n",
       "      <td>6000.0</td>\n",
       "      <td>12000.0</td>\n",
       "      <td>K2DP</td>\n",
       "    </tr>\n",
       "    <tr>\n",
       "      <th>3873</th>\n",
       "      <td>1800.0</td>\n",
       "      <td>6000.0</td>\n",
       "      <td>12000.0</td>\n",
       "      <td>16000.0</td>\n",
       "      <td>K2DP</td>\n",
       "    </tr>\n",
       "    <tr>\n",
       "      <th>3879</th>\n",
       "      <td>800.0</td>\n",
       "      <td>1700.0</td>\n",
       "      <td>2300.0</td>\n",
       "      <td>3500.0</td>\n",
       "      <td>K2DP</td>\n",
       "    </tr>\n",
       "  </tbody>\n",
       "</table>\n",
       "</div>"
      ],
      "text/plain": [
       "      low_cloud_level  medium_cloud_level  high_cloud_level  \\\n",
       "1439           1800.0              2800.0            3500.0   \n",
       "1440           1500.0              2800.0            3500.0   \n",
       "3872            500.0              1800.0            6000.0   \n",
       "3873           1800.0              6000.0           12000.0   \n",
       "3879            800.0              1700.0            2300.0   \n",
       "\n",
       "      highest_cloud_level station_id  \n",
       "1439               7000.0       K15M  \n",
       "1440               6500.0       K15M  \n",
       "3872              12000.0       K2DP  \n",
       "3873              16000.0       K2DP  \n",
       "3879               3500.0       K2DP  "
      ]
     },
     "execution_count": 78,
     "metadata": {},
     "output_type": "execute_result"
    }
   ],
   "source": [
    "newdf=pd.concat([metardf, df], axis=1)\n",
    "np.unique(newdf['highest_cloud_level'].astype(str))\n",
    "newdf[['']].dropna()"
   ]
  },
  {
   "cell_type": "code",
   "execution_count": 94,
   "metadata": {},
   "outputs": [
    {
     "data": {
      "text/html": [
       "<div>\n",
       "<style scoped>\n",
       "    .dataframe tbody tr th:only-of-type {\n",
       "        vertical-align: middle;\n",
       "    }\n",
       "\n",
       "    .dataframe tbody tr th {\n",
       "        vertical-align: top;\n",
       "    }\n",
       "\n",
       "    .dataframe thead th {\n",
       "        text-align: right;\n",
       "    }\n",
       "</style>\n",
       "<table border=\"1\" class=\"dataframe\">\n",
       "  <thead>\n",
       "    <tr style=\"text-align: right;\">\n",
       "      <th></th>\n",
       "      <th>current_wx1</th>\n",
       "      <th>current_wx1_symbol</th>\n",
       "    </tr>\n",
       "  </thead>\n",
       "  <tbody>\n",
       "    <tr>\n",
       "      <th>124</th>\n",
       "      <td>BR</td>\n",
       "      <td>10.0</td>\n",
       "    </tr>\n",
       "    <tr>\n",
       "      <th>187</th>\n",
       "      <td>FZFG</td>\n",
       "      <td>49.0</td>\n",
       "    </tr>\n",
       "    <tr>\n",
       "      <th>318</th>\n",
       "      <td>-SN</td>\n",
       "      <td>71.0</td>\n",
       "    </tr>\n",
       "    <tr>\n",
       "      <th>444</th>\n",
       "      <td>FG</td>\n",
       "      <td>45.0</td>\n",
       "    </tr>\n",
       "    <tr>\n",
       "      <th>1170</th>\n",
       "      <td>-RA</td>\n",
       "      <td>61.0</td>\n",
       "    </tr>\n",
       "    <tr>\n",
       "      <th>1304</th>\n",
       "      <td>-DZ</td>\n",
       "      <td>51.0</td>\n",
       "    </tr>\n",
       "    <tr>\n",
       "      <th>1340</th>\n",
       "      <td>HZ</td>\n",
       "      <td>5.0</td>\n",
       "    </tr>\n",
       "    <tr>\n",
       "      <th>1871</th>\n",
       "      <td>-PL</td>\n",
       "      <td>79.0</td>\n",
       "    </tr>\n",
       "    <tr>\n",
       "      <th>2500</th>\n",
       "      <td>RA</td>\n",
       "      <td>63.0</td>\n",
       "    </tr>\n",
       "    <tr>\n",
       "      <th>2524</th>\n",
       "      <td>UP</td>\n",
       "      <td>141.0</td>\n",
       "    </tr>\n",
       "    <tr>\n",
       "      <th>3291</th>\n",
       "      <td>+RA</td>\n",
       "      <td>65.0</td>\n",
       "    </tr>\n",
       "    <tr>\n",
       "      <th>4140</th>\n",
       "      <td>TS</td>\n",
       "      <td>17.0</td>\n",
       "    </tr>\n",
       "    <tr>\n",
       "      <th>4156</th>\n",
       "      <td>TSFG</td>\n",
       "      <td>17.0</td>\n",
       "    </tr>\n",
       "    <tr>\n",
       "      <th>4506</th>\n",
       "      <td>DZ</td>\n",
       "      <td>53.0</td>\n",
       "    </tr>\n",
       "    <tr>\n",
       "      <th>5270</th>\n",
       "      <td>SN</td>\n",
       "      <td>73.0</td>\n",
       "    </tr>\n",
       "    <tr>\n",
       "      <th>7945</th>\n",
       "      <td>+SN</td>\n",
       "      <td>75.0</td>\n",
       "    </tr>\n",
       "    <tr>\n",
       "      <th>9957</th>\n",
       "      <td>-UP</td>\n",
       "      <td>141.0</td>\n",
       "    </tr>\n",
       "  </tbody>\n",
       "</table>\n",
       "</div>"
      ],
      "text/plain": [
       "     current_wx1  current_wx1_symbol\n",
       "124           BR                10.0\n",
       "187         FZFG                49.0\n",
       "318          -SN                71.0\n",
       "444           FG                45.0\n",
       "1170         -RA                61.0\n",
       "1304         -DZ                51.0\n",
       "1340          HZ                 5.0\n",
       "1871         -PL                79.0\n",
       "2500          RA                63.0\n",
       "2524          UP               141.0\n",
       "3291         +RA                65.0\n",
       "4140          TS                17.0\n",
       "4156        TSFG                17.0\n",
       "4506          DZ                53.0\n",
       "5270          SN                73.0\n",
       "7945         +SN                75.0\n",
       "9957         -UP               141.0"
      ]
     },
     "execution_count": 94,
     "metadata": {},
     "output_type": "execute_result"
    }
   ],
   "source": [
    "newdf[['current_wx1','current_wx1_symbol']].dropna().drop_duplicates()"
   ]
  },
  {
   "cell_type": "code",
   "execution_count": 84,
   "metadata": {},
   "outputs": [
    {
     "name": "stdout",
     "output_type": "stream",
     "text": [
      "<class 'pandas.core.frame.DataFrame'>\n",
      "RangeIndex: 415945 entries, 0 to 415944\n",
      "Data columns (total 32 columns):\n",
      " #   Column                     Non-Null Count   Dtype         \n",
      "---  ------                     --------------   -----         \n",
      " 0   metar                      415945 non-null  object        \n",
      " 1   station_id                 10000 non-null   object        \n",
      " 2   latitude                   9219 non-null    float64       \n",
      " 3   longitude                  9219 non-null    float64       \n",
      " 4   elevation                  9219 non-null    float64       \n",
      " 5   date_time                  10000 non-null   datetime64[ns]\n",
      " 6   wind_direction             9641 non-null    float64       \n",
      " 7   wind_speed                 9786 non-null    float64       \n",
      " 8   wind_gust                  536 non-null     float64       \n",
      " 9   visibility                 9805 non-null    float64       \n",
      " 10  current_wx1                3368 non-null    object        \n",
      " 11  current_wx2                27 non-null      object        \n",
      " 12  current_wx3                0 non-null       float64       \n",
      " 13  low_cloud_type             8954 non-null    object        \n",
      " 14  low_cloud_level            6112 non-null    float64       \n",
      " 15  medium_cloud_type          1632 non-null    object        \n",
      " 16  medium_cloud_level         1632 non-null    float64       \n",
      " 17  high_cloud_type            622 non-null     object        \n",
      " 18  high_cloud_level           622 non-null     float64       \n",
      " 19  highest_cloud_type         5 non-null       object        \n",
      " 20  highest_cloud_level        5 non-null       float64       \n",
      " 21  cloud_coverage             10000 non-null   float64       \n",
      " 22  air_temperature            9887 non-null    float64       \n",
      " 23  dew_point_temperature      9724 non-null    float64       \n",
      " 24  altimeter                  9878 non-null    float64       \n",
      " 25  current_wx1_symbol         10000 non-null   float64       \n",
      " 26  current_wx2_symbol         10000 non-null   float64       \n",
      " 27  current_wx3_symbol         10000 non-null   float64       \n",
      " 28  remarks                    10000 non-null   object        \n",
      " 29  air_pressure_at_sea_level  9058 non-null    float64       \n",
      " 30  eastward_wind              9641 non-null    float64       \n",
      " 31  northward_wind             9641 non-null    float64       \n",
      "dtypes: datetime64[ns](1), float64(22), object(9)\n",
      "memory usage: 101.5+ MB\n"
     ]
    }
   ],
   "source": []
  },
  {
   "cell_type": "code",
   "execution_count": null,
   "metadata": {},
   "outputs": [],
   "source": [
    "OKTAS"
   ]
  }
 ],
 "metadata": {
  "kernelspec": {
   "display_name": "FlightStats",
   "language": "python",
   "name": "flightstats"
  },
  "language_info": {
   "codemirror_mode": {
    "name": "ipython",
    "version": 3
   },
   "file_extension": ".py",
   "mimetype": "text/x-python",
   "name": "python",
   "nbconvert_exporter": "python",
   "pygments_lexer": "ipython3",
   "version": "3.11.5"
  }
 },
 "nbformat": 4,
 "nbformat_minor": 5
}
