,timestamp,lon,lat,tmpf,relh,drct,sknt,p01i,skyc4,skyl1,skyl2,skyl3,skyl4,wxcodes,ice_accretion_1hr,smps,sknt_E,sknt_N,smps_E,smps_N,tmpc,elevation,sigma,station,valid,skyc1,skyc2,skyc3,metar
0,1672444800,-176.646,51.878,35.6,93.08,350.0,9.0,0.0,,1600.0,2300.0,2900.0,,,,4.629996,-1.5628335990023734,8.863269777109872,-0.8039903680051771,4.5596559572155115,2.000000000000001,4.0,585663.3263837765,PADK,2022-12-31 00:00,SCT,BKN,BKN,PADK 310000Z AUTO 35009KT SCT016 BKN023 BKN029 02/01 A2875 RMK T00200010 MADISHF
1,1672445100,-176.646,51.878,35.6,93.08,350.0,8.0,0.0,,1300.0,1800.0,2500.0,,,,4.115552,-1.389185421335443,7.878462024097664,-0.7146581048934907,4.053027517524899,2.000000000000001,4.0,585663.3263837765,PADK,2022-12-31 00:05,SCT,SCT,BKN,PADK 310005Z AUTO 35008KT SCT013 SCT018 BKN025 02/01 A2875 RMK T00200010 MADISHF
2,1672445400,-176.646,51.878,35.6,93.08,360.0,9.0,0.0,,1500.0,2000.0,3400.0,,,,4.629996,-2.204364238465236e-15,9.0,-1.1340219562930098e-15,4.629996,2.000000000000001,4.0,585663.3263837765,PADK,2022-12-31 00:10,BKN,BKN,BKN,PADK 310010Z AUTO 36009KT BKN015 BKN020 BKN034 02/01 A2875 RMK T00200010 MADISHF
3,1672445700,-176.646,51.878,35.6,93.08,360.0,9.0,0.0,,1500.0,3400.0,3400.0,,,,4.629996,-2.204364238465236e-15,9.0,-1.1340219562930098e-15,4.629996,2.000000000000001,4.0,585663.3263837765,PADK,2022-12-31 00:15,BKN,BKN,,PADK 310015Z AUTO 36009KT BKN015 BKN034 02/01 A2875 RMK T00200010 MADISHF
4,1672446000,-176.646,51.878,35.6,93.08,350.0,9.0,0.0,,1200.0,1700.0,3400.0,,,,4.629996,-1.5628335990023734,8.863269777109872,-0.8039903680051771,4.5596559572155115,2.000000000000001,4.0,585663.3263837765,PADK,2022-12-31 00:20,FEW,SCT,BKN,PADK 310020Z AUTO 35009KT FEW012 SCT017 BKN034 02/01 A2874 RMK T00200010 MADISHF
5,1672446180,-176.646,51.878,35.6,93.08,350.0,9.0,0.0,,1400.0,1760.0,3130.0,,,,4.629996,-1.5628335990023734,8.863269777109872,-0.8039903680051771,4.5596559572155115,2.000000000000001,4.0,585663.3263837765,PADK,2022-12-31 00:23,SCT,,,PADK 310023Z AUTO 35009KT SCT014 02/01 A2874 RMK AO2 PWINO FZRANO $
6,1672446300,-176.646,51.878,35.84,93.088,350.0,8.0,0.0,,1400.0,1800.0,2950.0,,,,4.115552,-1.389185421335443,7.878462024097664,-0.7146581048934907,4.053027517524899,2.133333333333334,4.0,585663.3263837765,PADK,2022-12-31 00:25,SCT,,,PADK 310025Z AUTO 35008KT SCT014 02/01 A2874 RMK T00200010 MADISHF
7,1672446600,-176.646,51.878,36.44,93.108,340.0,8.0,0.0,,1400.0,1900.0,2500.0,,,,4.115552,-2.736161146605355,7.517540966287265,-1.4076016849042452,3.867353844860686,2.466666666666667,4.0,585663.3263837765,PADK,2022-12-31 00:30,FEW,SCT,SCT,PADK 310030Z AUTO 34008KT FEW014 SCT019 SCT025 02/01 A2874 RMK T00200010 MADISHF
8,1672446900,-176.646,51.878,37.04,93.128,340.0,7.0,0.0,,1700.0,2500.0,3500.0,,,,3.601108,-2.3941410032796857,6.577848345501357,-1.2316514742912146,3.3839346142531,2.7999999999999994,4.0,585663.3263837765,PADK,2022-12-31 00:35,SCT,BKN,,PADK 310035Z AUTO 34007KT SCT017 BKN025 02/01 A2874 RMK T00200010 MADISHF
9,1672447080,-176.646,51.878,37.4,93.14,330.0,7.0,0.0,,1700.0,2500.0,4100.0,,,,3.601108,-3.500000000000003,6.062177826491069,-1.8005540000000015,3.118651009771371,2.999999999999999,4.0,585663.3263837765,PADK,2022-12-31 00:38,SCT,BKN,,PADK 310038Z AUTO 33007KT SCT017 BKN025 03/02 A2874 RMK AO2 PWINO $
10,1672447200,-176.646,51.878,37.355555555555554,93.09777777777778,340.0,8.0,0.0,,1700.0,2300.0,4500.0,,,,4.115552,-2.736161146605355,7.517540966287265,-1.4076016849042452,3.867353844860686,2.9753086419753076,4.0,585663.3263837765,PADK,2022-12-31 00:40,BKN,BKN,,PADK 310040Z AUTO 34008KT BKN017 BKN023 03/02 A2874 RMK T00300020 MADISHF
11,1672447500,-176.646,51.878,37.24444444444444,92.99222222222222,340.0,7.0,0.0,,1700.0,2300.0,5500.0,,,,3.601108,-2.3941410032796857,6.577848345501357,-1.2316514742912146,3.3839346142531,2.91358024691358,4.0,585663.3263837765,PADK,2022-12-31 00:45,SCT,BKN,BKN,PADK 310045Z AUTO 34007KT SCT017 BKN023 BKN055 03/02 A2874 RMK T00300020 MADISHF
12,1672447800,-176.646,51.878,37.13333333333333,92.88666666666667,330.0,5.0,0.0,,1700.0,2300.0,5500.0,,,,2.57222,-2.500000000000002,4.330127018922192,-1.2861100000000012,2.227607864122408,2.8518518518518516,4.0,585663.3263837765,PADK,2022-12-31 00:50,BKN,BKN,BKN,PADK 310050Z AUTO 33005KT BKN017 BKN023 BKN055 02/02 A2874 RMK T00200020 MADISHF
13,1672448100,-176.646,51.878,37.022222222222226,92.78111111111112,330.0,8.0,0.0,,1700.0,2300.0,5500.0,,,,4.115552,-4.0000000000000036,6.928203230275507,-2.057776000000002,3.564172582595853,2.7901234567901234,4.0,585663.3263837765,PADK,2022-12-31 00:55,BKN,BKN,OVC,PADK 310055Z AUTO 33008KT BKN017 BKN023 OVC055 03/02 A2874 RMK T00300020 MADISHF
14,1672448160,-176.646,51.878,37.0,92.76,330.0,8.0,0.0,,1700.0,2300.0,5500.0,,,,4.115552,-4.0000000000000036,6.928203230275507,-2.057776000000002,3.564172582595853,2.7777777777777777,4.0,585663.3263837765,PADK,2022-12-31 00:56,BKN,BKN,OVC,PADK 310056Z AUTO 33008KT BKN017 BKN023 OVC055 03/02 A2874 RMK AO2 SLP732 T00280017 PWINO $
15,1672448400,-176.646,51.878,36.86666666666667,92.7904761904762,340.0,5.0,0.0,,1700.0,2200.0,5500.0,,,,2.57222,-1.7101007166283468,4.698463103929541,-0.8797510530651533,2.4170961530379285,2.7037037037037037,4.0,585663.3263837765,PADK,2022-12-31 01:00,BKN,OVC,,PADK 310100Z AUTO 34005KT BKN017 OVC022 02/01 A2874 RMK T00200010 MADISHF
16,1672448700,-176.646,51.878,36.7,92.82857142857144,340.0,5.0,0.0,,1700.0,2200.0,5500.0,,,,2.57222,-1.7101007166283468,4.698463103929541,-0.8797510530651533,2.4170961530379285,2.611111111111111,4.0,585663.3263837765,PADK,2022-12-31 01:05,BKN,BKN,BKN,PADK 310105Z AUTO 34005KT BKN017 BKN022 BKN055 02/01 A2874 RMK T00200010 MADISHF
17,1672449000,-176.646,51.878,36.53333333333333,92.86666666666667,340.0,10.0,0.0,,1400.0,2000.0,5500.0,,,,5.14444,-3.4202014332566937,9.396926207859082,-1.7595021061303067,4.834192306075857,2.5185185185185186,4.0,585663.3263837765,PADK,2022-12-31 01:10,SCT,BKN,BKN,PADK 310110Z AUTO 34010KT SCT014 BKN020 BKN055 02/01 A2874 RMK T00200010 MADISHF
18,1672449300,-176.646,51.878,36.36666666666667,92.90476190476191,320.0,8.0,0.0,,1400.0,2300.0,5250.0,,,,4.115552,-5.142300877492317,6.128355544951823,-2.6454258326206572,3.152695739967196,2.4259259259259265,4.0,585663.3263837765,PADK,2022-12-31 01:15,BKN,BKN,,PADK 310115Z AUTO 32008KT BKN014 BKN023 02/01 A2874 RMK T00200010 MADISHF
19,1672449600,-176.646,51.878,36.2,92.94285714285715,330.0,7.0,0.0,,1600.0,2300.0,5000.0,,,,3.601108,-3.500000000000003,6.062177826491069,-1.8005540000000015,3.118651009771371,2.333333333333334,4.0,585663.3263837765,PADK,2022-12-31 01:20,SCT,BKN,OVC,PADK 310120Z AUTO 33007KT SCT016 BKN023 OVC050 02/01 A2874 RMK T00200010 MADISHF
20,1672449900,-176.646,51.878,36.03333333333333,92.98095238095239,340.0,5.0,0.0,,1300.0,2100.0,3000.0,,,,2.57222,-1.7101007166283468,4.698463103929541,-0.8797510530651533,2.4170961530379285,2.2407407407407414,4.0,585663.3263837765,PADK,2022-12-31 01:25,SCT,SCT,BKN,PADK 310125Z AUTO 34005KT SCT013 SCT021 BKN030 02/01 A2874 RMK T00200010 MADISHF
21,1672450200,-176.646,51.878,35.86666666666667,93.01904761904761,330.0,5.0,0.0,,1300.0,2500.0,7500.0,,,,2.57222,-2.500000000000002,4.330127018922192,-1.2861100000000012,2.227607864122408,2.148148148148149,4.0,585663.3263837765,PADK,2022-12-31 01:30,FEW,BKN,OVC,PADK 310130Z AUTO 33005KT FEW013 BKN025 OVC075 02/01 A2874 RMK T00200010 MADISHF
22,1672450500,-176.646,51.878,35.7,93.05714285714285,330.0,5.0,0.0,,1300.0,3000.0,7500.0,,,,2.57222,-2.500000000000002,4.330127018922192,-1.2861100000000012,2.227607864122408,2.0555555555555562,4.0,585663.3263837765,PADK,2022-12-31 01:35,FEW,BKN,OVC,PADK 310135Z AUTO 33005KT FEW013 BKN030 OVC075 02/01 A2874 RMK T00200010 MADISHF
23,1672450680,-176.646,51.878,35.6,93.08,330.0,5.0,0.0,,1300.0,3000.0,8000.0,,,,2.57222,-2.500000000000002,4.330127018922192,-1.2861100000000012,2.227607864122408,2.000000000000001,4.0,585663.3263837765,PADK,2022-12-31 01:38,FEW,BKN,OVC,PADK 310138Z AUTO 33005KT FEW013 BKN030 OVC080 02/01 A2874 RMK AO2 PWINO FZRANO $
24,1672450800,-176.646,51.878,35.644444444444446,92.99888888888889,330.0,5.0,0.0,,2100.0,3000.0,8000.0,,,,2.57222,-2.500000000000002,4.330127018922192,-1.2861100000000012,2.227607864122408,2.0246913580246924,4.0,585663.3263837765,PADK,2022-12-31 01:40,SCT,BKN,OVC,PADK 310140Z AUTO 33005KT SCT021 BKN030 OVC080 02/01 A2874 RMK T00200010 MADISHF
25,1672451100,-176.646,51.878,35.75555555555556,92.7961111111111,330.0,5.0,0.0,,1800.0,5000.0,8000.0,,,,2.57222,-2.500000000000002,4.330127018922192,-1.2861100000000012,2.227607864122408,2.08641975308642,4.0,585663.3263837765,PADK,2022-12-31 01:45,FEW,BKN,OVC,PADK 310145Z AUTO 33005KT FEW018 BKN050 OVC080 02/01 A2874 RMK T00200010 MADISHF
26,1672451400,-176.646,51.878,35.86666666666667,92.59333333333333,350.0,5.0,0.0,,1900.0,2800.0,8000.0,,,,2.57222,-0.868240888334652,4.92403876506104,-0.4466613155584317,2.5331421984530618,2.1481481481481484,4.0,585663.3263837765,PADK,2022-12-31 01:50,BKN,BKN,OVC,PADK 310150Z AUTO 35005KT BKN019 BKN028 OVC080 02/01 A2874 RMK T00200010 MADISHF
27,1672451700,-176.646,51.878,35.977777777777774,92.39055555555555,340.0,5.0,0.0,,1600.0,2100.0,8000.0,,,,2.57222,-1.7101007166283468,4.698463103929541,-0.8797510530651533,2.4170961530379285,2.2098765432098766,4.0,585663.3263837765,PADK,2022-12-31 01:55,SCT,BKN,OVC,PADK 310155Z AUTO 34005KT SCT016 BKN021 OVC080 02/01 A2874 RMK T00200010 MADISHF
28,1672451760,-176.646,51.878,36.0,92.35,350.0,7.0,0.0,,1600.0,2100.0,8000.0,,,,3.601108,-1.2155372436685128,6.893654271085456,-0.6253258417818044,3.546399077834286,2.2222222222222223,4.0,585663.3263837765,PADK,2022-12-31 01:56,BKN,BKN,OVC,PADK 310156Z AUTO 35007KT BKN016 BKN021 OVC080 02/01 A2874 RMK AO2 SLP731 T00220011 PWINO FZRANO $
29,1672452000,-176.646,51.878,35.964444444444446,92.41488888888888,340.0,5.0,0.0010256410256410256,,1100.0,1600.0,8000.0,,,,2.57222,-1.7101007166283468,4.698463103929541,-0.8797510530651533,2.4170961530379285,2.2024691358024695,4.0,585663.3263837765,PADK,2022-12-31 02:00,FEW,BKN,OVC,PADK 310200Z AUTO 34005KT FEW011 BKN016 OVC080 02/01 A2874 RMK T00200010 MADISHF
30,1672452300,-176.646,51.878,35.92,92.496,340.0,2.0,0.002307692307692308,,1100.0,1600.0,8000.0,,,,1.028888,-0.6840402866513388,1.8793852415718162,-0.3519004212260613,0.9668384612151715,2.177777777777778,4.0,585663.3263837765,PADK,2022-12-31 02:05,FEW,BKN,OVC,PADK 310205Z AUTO 34002KT FEW011 BKN016 OVC080 02/01 A2874 RMK T00200010 MADISHF
31,1672452600,-176.646,51.878,35.87555555555556,92.57711111111111,330.0,5.0,0.0035897435897435897,,1400.0,1900.0,2400.0,,,,2.57222,-2.500000000000002,4.330127018922192,-1.2861100000000012,2.227607864122408,2.1530864197530866,4.0,585663.3263837765,PADK,2022-12-31 02:10,SCT,BKN,OVC,PADK 310210Z AUTO 33005KT SCT014 BKN019 OVC024 02/01 A2873 RMK T00200010 MADISHF
32,1672452900,-176.646,51.878,35.83111111111111,92.65822222222222,340.0,5.0,0.004871794871794872,,1300.0,1800.0,2800.0,,,,2.57222,-1.7101007166283468,4.698463103929541,-0.8797510530651533,2.4170961530379285,2.1283950617283955,4.0,585663.3263837765,PADK,2022-12-31 02:15,SCT,OVC,,PADK 310215Z AUTO 34005KT SCT013 OVC018 02/01 A2873 RMK T00200010 MADISHF
33,1672453200,-176.646,51.878,35.78666666666667,92.73933333333333,330.0,5.0,0.006153846153846154,,1400.0,2200.0,3200.0,,,,2.57222,-2.500000000000002,4.330127018922192,-1.2861100000000012,2.227607864122408,2.103703703703704,4.0,585663.3263837765,PADK,2022-12-31 02:20,BKN,BKN,OVC,PADK 310220Z AUTO 33005KT BKN014 BKN022 OVC032 02/01 A2873 RMK T00200010 CIG 7V19  MADISHF
34,1672453500,-176.646,51.878,35.742222222222225,92.82044444444445,290.0,2.0,0.0074358974358974365,,1100.0,1900.0,4000.0,,,,1.028888,-1.8793852415718166,0.6840402866513381,-0.9668384612151717,0.35190042122606097,2.079012345679013,4.0,585663.3263837765,PADK,2022-12-31 02:25,FEW,BKN,OVC,PADK 310225Z AUTO 29002KT FEW011 BKN019 OVC040 02/01 A2873 RMK T00200010 MADISHF
35,1672453800,-176.646,51.878,35.69777777777778,92.90155555555555,290.0,2.0,0.00871794871794872,,1100.0,1800.0,3100.0,,,,1.028888,-1.8793852415718166,0.6840402866513381,-0.9668384612151717,0.35190042122606097,2.0543209876543216,4.0,585663.3263837765,PADK,2022-12-31 02:30,FEW,SCT,BKN,PADK 310230Z AUTO 29002KT FEW011 SCT018 BKN031 02/01 A2873 RMK T00200010 MADISHF
36,1672454100,-176.646,51.878,35.653333333333336,92.98266666666666,330.0,4.0,0.01,,1300.0,2000.0,3300.0,,,,2.057776,-2.0000000000000018,3.4641016151377535,-1.028888000000001,1.7820862912979265,2.0296296296296306,4.0,585663.3263837765,PADK,2022-12-31 02:35,BKN,BKN,BKN,PADK 310235Z AUTO 33004KT BKN013 BKN020 BKN033 02/01 A2873 RMK P0001 T00200010 MADISHF
37,1672454400,-176.646,51.878,35.60888888888889,93.06377777777777,350.0,5.0,0.01,,1300.0,1800.0,3000.0,,,,2.57222,-0.868240888334652,4.92403876506104,-0.4466613155584317,2.5331421984530618,2.004938271604939,4.0,585663.3263837765,PADK,2022-12-31 02:40,BKN,BKN,OVC,PADK 310240Z AUTO 35005KT BKN013 BKN018 OVC030 02/01 A2873 RMK P0001 T00200010 MADISHF
38,1672454460,-176.646,51.878,35.6,93.08,340.0,5.0,0.01,,1300.0,1800.0,3300.0,,,,2.57222,-1.7101007166283468,4.698463103929541,-0.8797510530651533,2.4170961530379285,2.000000000000001,4.0,585663.3263837765,PADK,2022-12-31 02:41,BKN,BKN,OVC,PADK 310241Z AUTO 34005KT BKN013 BKN018 OVC033 02/01 A2873 RMK AO2 P0001 PWINO FZRANO $
39,1672454700,-176.646,51.878,35.70666666666667,92.88533333333334,350.0,5.0,0.01,,1300.0,1800.0,3000.0,,,,2.57222,-0.868240888334652,4.92403876506104,-0.4466613155584317,2.5331421984530618,2.05925925925926,4.0,585663.3263837765,PADK,2022-12-31 02:45,BKN,BKN,OVC,PADK 310245Z AUTO 35005KT BKN013 BKN018 OVC030 02/01 A2873 RMK P0001 T00200010 MADISHF
40,1672455000,-176.646,51.878,35.84,92.642,340.0,5.0,0.01,,1300.0,2800.0,2750.0,,,,2.57222,-1.7101007166283468,4.698463103929541,-0.8797510530651533,2.4170961530379285,2.1333333333333337,4.0,585663.3263837765,PADK,2022-12-31 02:50,BKN,BKN,,PADK 310250Z AUTO 34005KT BKN013 BKN028 02/01 A2873 RMK P0001 T00200010 MADISHF
41,1672455300,-176.646,51.878,35.973333333333336,92.39866666666666,320.0,5.0,0.01,,800.0,1300.0,2500.0,,,,2.57222,-3.213938048432698,3.8302222155948895,-1.6533911453879109,1.9704348374794975,2.2074074074074077,4.0,585663.3263837765,PADK,2022-12-31 02:55,FEW,BKN,OVC,PADK 310255Z AUTO 32005KT FEW008 BKN013 OVC025 02/01 A2873 RMK P0001 T00200010 MADISHF
42,1672455360,-176.646,51.878,36.0,92.35,330.0,6.0,0.01,,800.0,1300.0,2480.0,,,,3.086664,-3.0000000000000027,5.19615242270663,-1.5433320000000013,2.6731294369468896,2.2222222222222223,4.0,585663.3263837765,PADK,2022-12-31 02:56,FEW,OVC,,PADK 310256Z AUTO 33006KT FEW008 OVC013 02/01 A2873 RMK AO2 SLP730 P0001 60001 T00220011 56004 PWINO FZRANO $
43,1672455600,-176.646,51.878,35.86666666666667,92.59333333333333,320.0,4.0,0.006666666666666667,,800.0,1300.0,2400.0,,,,2.057776,-2.5711504387461583,3.0641777724759116,-1.3227129163103286,1.576347869983598,2.1481481481481484,4.0,585663.3263837765,PADK,2022-12-31 03:00,FEW,BKN,OVC,PADK 310300Z AUTO 32004KT FEW008 BKN013 OVC024 02/01 A2874 RMK T00200010 MADISHF
44,1672455900,-176.646,51.878,35.7,92.8975,290.0,4.0,0.0025000000000000005,,1000.0,1500.0,2600.0,,,,2.057776,-3.7587704831436333,1.3680805733026762,-1.9336769224303434,0.7038008424521219,2.0555555555555562,4.0,585663.3263837765,PADK,2022-12-31 03:05,SCT,BKN,OVC,PADK 310305Z AUTO 29004KT SCT010 BKN015 OVC026 02/01 A2874 RMK T00200010 MADISHF
45,1672456080,-176.646,51.878,35.6,93.08,290.0,4.0,0.0,,1000.0,1500.0,2600.0,,,,2.057776,-3.7587704831436333,1.3680805733026762,-1.9336769224303434,0.7038008424521219,2.000000000000001,4.0,585663.3263837765,PADK,2022-12-31 03:08,SCT,BKN,OVC,PADK 310308Z AUTO 29004KT SCT010 BKN015 OVC026 02/01 A2874 RMK AO2 PWINO FZRANO $
46,1672456200,-176.646,51.878,35.6,93.08,290.0,4.0,0.0,,1000.0,2100.0,2600.0,,,,2.057776,-3.7587704831436333,1.3680805733026762,-1.9336769224303434,0.7038008424521219,2.000000000000001,4.0,585663.3263837765,PADK,2022-12-31 03:10,BKN,BKN,OVC,PADK 310310Z AUTO 29004KT BKN010 BKN021 OVC026 02/01 A2874 RMK T00200010 MADISHF
47,1672456500,-176.646,51.878,35.6,93.08,290.0,4.0,0.0,,1000.0,1300.0,2400.0,,,,2.057776,-3.7587704831436333,1.3680805733026762,-1.9336769224303434,0.7038008424521219,2.000000000000001,4.0,585663.3263837765,PADK,2022-12-31 03:15,SCT,BKN,OVC,PADK 310315Z AUTO 29004KT SCT010 BKN013 OVC024 02/01 A2874 RMK T00200010 MADISHF
48,1672456560,-176.646,51.878,35.6,93.08,290.0,4.0,0.0,,1000.0,1300.0,2600.0,,,,2.057776,-3.7587704831436333,1.3680805733026762,-1.9336769224303434,0.7038008424521219,2.000000000000001,4.0,585663.3263837765,PADK,2022-12-31 03:16,SCT,BKN,OVC,PADK 310316Z AUTO 29004KT SCT010 BKN013 OVC026 02/01 A2874 RMK AO2 PWINO FZRANO $
49,1672456800,-176.646,51.878,35.44,93.001,270.0,2.0,0.0,,1000.0,2600.0,3100.0,,,,1.028888,-2.0,-3.6739403974420594e-16,-1.028888,-1.8900365938216828e-16,1.9111111111111119,4.0,585663.3263837765,PADK,2022-12-31 03:20,BKN,BKN,OVC,PADK 310320Z AUTO 27002KT BKN010 BKN026 OVC031 02/01 A2874 RMK T00200010 CIG 7V15  MADISHF
50,1672457100,-176.646,51.878,35.24,92.90225,260.0,4.0,0.0,,1200.0,2600.0,3300.0,,,,2.057776,-3.939231012048832,-0.6945927106677213,-2.0265137587624493,-0.35732905244674523,1.8000000000000007,4.0,585663.3263837765,PADK,2022-12-31 03:25,BKN,BKN,OVC,PADK 310325Z AUTO 26004KT BKN012 BKN026 OVC033 01/01 A2874 RMK T00100010 MADISHF
51,1672457400,-176.646,51.878,35.04,92.8035,270.0,2.0,0.0,,1200.0,2600.0,3457.1428571428573,,,,1.028888,-2.0,-3.6739403974420594e-16,-1.028888,-1.8900365938216828e-16,1.6888888888888896,4.0,585663.3263837765,PADK,2022-12-31 03:30,BKN,OVC,,PADK 310330Z AUTO 27002KT BKN012 OVC026 01/00 A2874 RMK T00100000 MADISHF
52,1672457700,-176.646,51.878,34.84,92.70475,260.0,5.0,0.0,,1200.0,2300.0,3614.285714285714,,,,2.57222,-4.92403876506104,-0.8682408883346516,-2.5331421984530618,-0.4466613155584316,1.5777777777777784,4.0,585663.3263837765,PADK,2022-12-31 03:35,BKN,OVC,,PADK 310335Z AUTO 26005KT BKN012 OVC023 01/00 A2874 RMK T00100000 MADISHF
53,1672458000,-176.646,51.878,34.64,92.60600000000001,300.0,2.0,0.0,,1200.0,2100.0,3771.4285714285716,,,,1.028888,-1.7320508075688772,1.0,-0.8910431456489635,0.514444,1.466666666666667,4.0,585663.3263837765,PADK,2022-12-31 03:40,OVC,,,PADK 310340Z AUTO 30002KT OVC012 01/00 A2874 RMK T00100000 MADISHF
54,1672458300,-176.646,51.878,34.44,92.50725,290.0,2.0,0.0,,1400.0,1900.0,3928.5714285714284,,,,1.028888,-1.8793852415718166,0.6840402866513381,-0.9668384612151717,0.35190042122606097,1.3555555555555558,4.0,585663.3263837765,PADK,2022-12-31 03:45,BKN,OVC,,PADK 310345Z AUTO 29002KT BKN014 OVC019 01/00 A2874 RMK T00100000 MADISHF
55,1672458600,-176.646,51.878,34.24,92.4085,0.0,0.0,0.0,,1400.0,2100.0,4085.714285714286,,,,0.0,0.0,0.0,0.0,0.0,1.2444444444444447,4.0,585663.3263837765,PADK,2022-12-31 03:50,BKN,OVC,,PADK 310350Z AUTO 00000KT BKN014 OVC021 01/00 A2874 RMK T00100000 MADISHF
56,1672458900,-176.646,51.878,34.04,92.30975000000001,240.0,2.0,0.0,,1400.0,2300.0,4242.857142857143,,,,1.028888,-1.7320508075688767,-1.0000000000000009,-0.8910431456489633,-0.5144440000000005,1.1333333333333333,4.0,585663.3263837765,PADK,2022-12-31 03:55,BKN,OVC,,PADK 310355Z AUTO 24002KT BKN014 OVC023 01/00 A2874 RMK T00100000 MADISHF
57,1672458960,-176.646,51.878,34.0,92.29,250.0,3.0,0.0,,1400.0,2300.0,4274.285714285714,,,,1.543332,-2.819077862357725,-1.026060429977008,-1.4502576918227572,-0.5278506318390919,1.1111111111111112,4.0,585663.3263837765,PADK,2022-12-31 03:56,BKN,OVC,,PADK 310356Z AUTO 25003KT BKN014 OVC023 01/00 A2874 RMK AO2 SLP733 T00110000 PWINO FZRANO $
58,1672459200,-176.646,51.878,33.975,92.38250000000001,240.0,2.0,0.0,,1400.0,2100.0,4400.0,,,,1.028888,-1.7320508075688767,-1.0000000000000009,-0.8910431456489633,-0.5144440000000005,1.097222222222222,4.0,585663.3263837765,PADK,2022-12-31 04:00,BKN,BKN,OVC,PADK 310400Z AUTO 24002KT BKN014 BKN021 OVC044 01/00 A2874 RMK T00100000 MADISHF
59,1672459500,-176.646,51.878,33.94375,92.498125,260.0,2.0,0.0,,1400.0,2100.0,4354.0,,,,1.028888,-1.969615506024416,-0.34729635533386066,-1.0132568793812247,-0.17866452622337262,1.0798611111111107,4.0,585663.3263837765,PADK,2022-12-31 04:05,BKN,OVC,,PADK 310405Z AUTO 26002KT BKN014 OVC021 01/00 A2874 RMK T00100000 MADISHF
60,1672459800,-176.646,51.878,33.9125,92.61375000000001,0.0,0.0,0.0,,1400.0,2100.0,4308.0,,,,0.0,0.0,0.0,0.0,0.0,1.0624999999999993,4.0,585663.3263837765,PADK,2022-12-31 04:10,BKN,OVC,,PADK 310410Z AUTO 00000KT BKN014 OVC021 01/00 A2874 RMK T00100000 MADISHF
61,1672460100,-176.646,51.878,33.88125,92.729375,0.0,0.0,0.0,,1200.0,2100.0,4262.0,,,,0.0,0.0,0.0,0.0,0.0,1.045138888888888,4.0,585663.3263837765,PADK,2022-12-31 04:15,BKN,OVC,,PADK 310415Z AUTO 00000KT BKN012 OVC021 01/00 A2874 RMK T00100000 MADISHF
62,1672460400,-176.646,51.878,33.849999999999994,92.845,0.0,0.0,0.0,,1400.0,1750.0,4216.0,,,,0.0,0.0,0.0,0.0,0.0,1.0277777777777766,4.0,585663.3263837765,PADK,2022-12-31 04:20,OVC,,,PADK 310420Z AUTO 00000KT OVC014 01/00 A2874 RMK T00100000 MADISHF
63,1672460700,-176.646,51.878,33.818749999999994,92.96062500000001,0.0,0.0,0.0,,900.0,1400.0,4170.0,,,,0.0,0.0,0.0,0.0,0.0,1.0104166666666652,4.0,585663.3263837765,PADK,2022-12-31 04:25,FEW,OVC,,PADK 310425Z AUTO 00000KT FEW009 OVC014 01/00 A2874 RMK T00100000 MADISHF
64,1672460880,-176.646,51.878,33.8,93.03,0.0,0.0,0.0,,900.0,1400.0,4142.4,,,,0.0,0.0,0.0,0.0,0.0,0.9999999999999984,4.0,585663.3263837765,PADK,2022-12-31 04:28,FEW,OVC,,PADK 310428Z AUTO 00000KT FEW009 OVC014 01/00 A2875 RMK AO2 PWINO FZRANO $
65,1672461000,-176.646,51.878,33.81428571428571,92.97714285714287,0.0,0.0,0.0016666666666666666,,1400.0,1409.090909090909,4124.0,,,,0.0,0.0,0.0,0.0,0.0,1.0079365079365066,4.0,585663.3263837765,PADK,2022-12-31 04:30,OVC,,,PADK 310430Z AUTO 00000KT OVC014 01/00 A2875 RMK T00100000 MADISHF
66,1672461600,-176.646,51.878,33.885714285714286,92.71285714285715,220.0,2.0,0.01,,1200.0,1454.5454545454545,4032.0,,,,1.028888,-1.2855752193730785,-1.532088886237956,-0.661356458155164,-0.7881739349917991,1.0476190476190468,4.0,585663.3263837765,PADK,2022-12-31 04:40,OVC,,,PADK 310440Z AUTO 22002KT OVC012 01/00 A2875 RMK P0001 T00100000 VRB03KT  MADISHF
67,1672461900,-176.646,51.878,33.92142857142857,92.5807142857143,340.0,2.0,0.01,,1200.0,1477.2727272727273,3986.0,,,,1.028888,-0.6840402866513388,1.8793852415718162,-0.3519004212260613,0.9668384612151715,1.0674603174603168,4.0,585663.3263837765,PADK,2022-12-31 04:45,OVC,,,PADK 310445Z AUTO 34002KT OVC012 01/00 A2875 RMK P0001 T00100000 MADISHF
68,1672462200,-176.646,51.878,33.957142857142856,92.44857142857143,280.0,2.0,0.01,,1000.0,1500.0,3940.0,,,,1.028888,-1.9696155060244163,0.34729635533385994,-1.0132568793812249,0.17866452622337226,1.087301587301587,4.0,585663.3263837765,PADK,2022-12-31 04:50,BKN,OVC,,PADK 310450Z AUTO 28002KT BKN010 OVC015 01/00 A2875 RMK P0001 T00100000 CIG 8V13  MADISHF
69,1672462500,-176.646,51.878,33.99285714285714,92.31642857142857,270.0,2.0,0.01,,1000.0,1500.0,3894.0,,,,1.028888,-2.0,-3.6739403974420594e-16,-1.028888,-1.8900365938216828e-16,1.1071428571428572,4.0,585663.3263837765,PADK,2022-12-31 04:55,BKN,OVC,,PADK 310455Z AUTO 27002KT BKN010 OVC015 01/00 A2875 RMK P0001 T00100000 CIG 8V13  MADISHF
70,1672462560,-176.646,51.878,34.0,92.29,260.0,3.0,0.01,,1000.0,1500.0,3884.8,,,,1.543332,-2.954423259036624,-0.520944533000791,-1.5198853190718369,-0.2679967893350589,1.1111111111111112,4.0,585663.3263837765,PADK,2022-12-31 04:56,BKN,OVC,,PADK 310456Z AUTO 26003KT BKN010 OVC015 01/00 A2875 RMK AO2 SLP735 P0001 T00110000 PWINO FZRANO $
71,1672462800,-176.646,51.878,33.93333333333333,92.53666666666668,250.0,2.0,0.006666666666666667,,1200.0,1700.0,3848.0,,,,1.028888,-1.8793852415718164,-0.6840402866513386,-0.9668384612151716,-0.35190042122606124,1.0740740740740735,4.0,585663.3263837765,PADK,2022-12-31 05:00,BKN,OVC,,PADK 310500Z AUTO 25002KT BKN012 OVC017 01/00 A2875 RMK T00100000 MADISHF
72,1672463100,-176.646,51.878,33.849999999999994,92.845,240.0,2.0,0.0025000000000000005,,1000.0,1700.0,3802.0,,,,1.028888,-1.7320508075688767,-1.0000000000000009,-0.8910431456489633,-0.5144440000000005,1.0277777777777766,4.0,585663.3263837765,PADK,2022-12-31 05:05,SCT,OVC,,PADK 310505Z AUTO 24002KT SCT010 OVC017 01/00 A2875 RMK T00100000 MADISHF
73,1672463280,-176.646,51.878,33.8,93.03,230.0,3.0,0.0,,1000.0,1700.0,3774.4,,,,1.543332,-2.2981333293569337,-1.9283628290596186,-1.1822609024876984,-0.9920346872327465,0.9999999999999984,4.0,585663.3263837765,PADK,2022-12-31 05:08,SCT,OVC,,PADK 310508Z AUTO 23003KT SCT010 OVC017 01/00 A2875 RMK AO2 PWINO FZRANO $
74,1672463400,-176.646,51.878,33.8,93.03,230.0,2.0,0.0,,1000.0,1700.0,3756.0,,,,1.028888,-1.5320888862379558,-1.2855752193730792,-0.788173934991799,-0.6613564581551643,0.9999999999999984,4.0,585663.3263837765,PADK,2022-12-31 05:10,SCT,OVC,,PADK 310510Z AUTO 23002KT SCT010 OVC017 01/00 A2875 RMK T00100000 MADISHF
75,1672463700,-176.646,51.878,33.8,93.03,210.0,2.0,0.0,,1200.0,1700.0,3710.0,,,,1.028888,-1.0000000000000002,-1.7320508075688772,-0.5144440000000001,-0.8910431456489635,0.9999999999999984,4.0,585663.3263837765,PADK,2022-12-31 05:15,BKN,OVC,,PADK 310515Z AUTO 21002KT BKN012 OVC017 01/00 A2875 RMK T00100000 MADISHF
76,1672464000,-176.646,51.878,33.8,93.03,0.0,0.0,0.0,,1200.0,1700.0,3664.0,,,,0.0,0.0,0.0,0.0,0.0,0.9999999999999984,4.0,585663.3263837765,PADK,2022-12-31 05:20,BKN,OVC,,PADK 310520Z AUTO 00000KT BKN012 OVC017 01/00 A2875 RMK T00100000 MADISHF
77,1672464060,-176.646,51.878,33.8,93.03,0.0,0.0,0.0,,1200.0,1700.0,3654.8,,,,0.0,0.0,0.0,0.0,0.0,0.9999999999999984,4.0,585663.3263837765,PADK,2022-12-31 05:21,BKN,OVC,,PADK 310521Z AUTO 00000KT BKN012 OVC017 01/00 A2875 RMK AO2 PWINO FZRANO $
78,1672464300,-176.646,51.878,33.82285714285714,92.94542857142858,0.0,0.0,0.001379310344827586,,1000.0,1700.0,3618.0,,,,0.0,0.0,0.0,0.0,0.0,1.0126984126984113,4.0,585663.3263837765,PADK,2022-12-31 05:25,BKN,OVC,,PADK 310525Z AUTO 00000KT BKN010 OVC017 01/00 A2875 RMK T00100000 CIG 9V13  MADISHF
79,1672464600,-176.646,51.878,33.85142857142857,92.8397142857143,0.0,0.0,0.003103448275862069,,1000.0,1500.0,3572.0,,,,0.0,0.0,0.0,0.0,0.0,1.0285714285714274,4.0,585663.3263837765,PADK,2022-12-31 05:30,BKN,OVC,,PADK 310530Z AUTO 00000KT BKN010 OVC015 01/00 A2875 RMK T00100000 CIG 9V14  MADISHF
80,1672464900,-176.646,51.878,33.879999999999995,92.73400000000001,0.0,0.0,0.004827586206896552,,1000.0,1472.7272727272727,3526.0,,,,0.0,0.0,0.0,0.0,0.0,1.0444444444444436,4.0,585663.3263837765,PADK,2022-12-31 05:35,OVC,,,PADK 310535Z AUTO 00000KT OVC010 01/00 A2875 RMK T00100000 CIG 9V13  MADISHF
81,1672465200,-176.646,51.878,33.90857142857143,92.62828571428572,220.0,2.0,0.006551724137931035,,1000.0,1445.4545454545455,3480.0,,,,1.028888,-1.2855752193730785,-1.532088886237956,-0.661356458155164,-0.7881739349917991,1.0603174603174597,4.0,585663.3263837765,PADK,2022-12-31 05:40,OVC,,,PADK 310540Z AUTO 22002KT OVC010 01/00 A2875 RMK T00100000 MADISHF
82,1672465500,-176.646,51.878,33.93714285714286,92.52257142857144,220.0,2.0,0.008275862068965517,,1000.0,1418.1818181818182,3434.0,,,,1.028888,-1.2855752193730785,-1.532088886237956,-0.661356458155164,-0.7881739349917991,1.0761904761904757,4.0,585663.3263837765,PADK,2022-12-31 05:45,OVC,,,PADK 310545Z AUTO 22002KT OVC010 01/00 A2875 RMK T00100000 MADISHF
83,1672465800,-176.646,51.878,33.965714285714284,92.41685714285715,0.0,0.0,0.01,,1000.0,1390.909090909091,3388.0,,,,0.0,0.0,0.0,0.0,0.0,1.0920634920634917,4.0,585663.3263837765,PADK,2022-12-31 05:50,OVC,,,PADK 310550Z AUTO 00000KT OVC010 01/00 A2875 RMK P0001 T00100000 CIG 7V14  MADISHF
84,1672466100,-176.646,51.878,33.994285714285716,92.31114285714287,0.0,0.0,0.01,,800.0,1363.6363636363635,3342.0,,,,0.0,0.0,0.0,0.0,0.0,1.107936507936508,4.0,585663.3263837765,PADK,2022-12-31 05:55,OVC,,,PADK 310555Z AUTO 00000KT OVC008 01/00 A2875 RMK P0001 T00100000 CIG 7V12  MADISHF
85,1672466160,-176.646,51.878,34.0,92.29,0.0,0.0,0.01,,800.0,1358.1818181818182,3332.8,,,,0.0,0.0,0.0,0.0,0.0,1.1111111111111112,4.0,585663.3263837765,PADK,2022-12-31 05:56,OVC,,,PADK 310556Z AUTO 00000KT OVC008 01/00 A2875 RMK AO2 CIG 007V012 SLP737 P0001 60003 T00110000 10028 20006 51006 PWINO FZRANO $
86,1672466400,-176.646,51.878,34.0,92.56800000000001,240.0,2.0,0.01,,800.0,1336.3636363636365,3296.0,,,,1.028888,-1.7320508075688767,-1.0000000000000009,-0.8910431456489633,-0.5144440000000005,1.1111111111111112,4.0,585663.3263837765,PADK,2022-12-31 06:00,OVC,,,PADK 310600Z AUTO 24002KT OVC008 01/00 A2875 RMK T00100000 CIG 6V12  MADISHF
87,1672466700,-176.646,51.878,34.0,92.91550000000001,250.0,2.0,0.01,,800.0,1309.090909090909,3250.0,,,,1.028888,-1.8793852415718164,-0.6840402866513386,-0.9668384612151716,-0.35190042122606124,1.1111111111111112,4.0,585663.3263837765,PADK,2022-12-31 06:05,OVC,,,PADK 310605Z AUTO 25002KT OVC008 01/00 A2875 RMK T00100000 CIG 6V12  MADISHF
88,1672467000,-176.646,51.878,34.0,93.263,260.0,2.0,0.01,,800.0,1281.8181818181818,3204.0,,,,1.028888,-1.969615506024416,-0.34729635533386066,-1.0132568793812247,-0.17866452622337262,1.1111111111111112,4.0,585663.3263837765,PADK,2022-12-31 06:10,OVC,,,PADK 310610Z AUTO 26002KT OVC008 01/00 A2875 RMK T00100000 CIG 6V10  MADISHF
89,1672467300,-176.646,51.878,34.0,93.6105,260.0,2.0,0.01,,600.0,1254.5454545454545,3158.0,,,,1.028888,-1.969615506024416,-0.34729635533386066,-1.0132568793812247,-0.17866452622337262,1.1111111111111112,4.0,585663.3263837765,PADK,2022-12-31 06:15,OVC,,,PADK 310615Z AUTO 26002KT OVC006 01/00 A2875 RMK T00100000 MADISHF
90,1672467600,-176.646,51.878,34.0,93.958,250.0,2.0,0.01,,600.0,1227.2727272727273,3112.0,,,,1.028888,-1.8793852415718164,-0.6840402866513386,-0.9668384612151716,-0.35190042122606124,1.1111111111111112,4.0,585663.3263837765,PADK,2022-12-31 06:20,OVC,,,PADK 310620Z AUTO 25002KT OVC006 01/00 A2875 RMK T00100000 MADISHF
91,1672467900,-176.646,51.878,34.0,94.3055,0.0,0.0,0.01,,600.0,1200.0,3066.0,,,,0.0,0.0,0.0,0.0,0.0,1.1111111111111112,4.0,585663.3263837765,PADK,2022-12-31 06:25,BKN,OVC,,PADK 310625Z AUTO 00000KT BKN006 OVC012 01/00 A2876 RMK P0001 T00100000 MADISHF
92,1672468200,-176.646,51.878,34.0,94.653,230.0,2.0,0.01,,600.0,1200.0,3020.0,,,,1.028888,-1.5320888862379558,-1.2855752193730792,-0.788173934991799,-0.6613564581551643,1.1111111111111112,4.0,585663.3263837765,PADK,2022-12-31 06:30,BKN,OVC,,PADK 310630Z AUTO 23002KT BKN006 OVC012 01/00 A2876 RMK P0001 T00100000 MADISHF
93,1672468500,-176.646,51.878,34.0,95.0005,250.0,2.0,0.01,,600.0,1150.0,2974.0,,,,1.028888,-1.8793852415718164,-0.6840402866513386,-0.9668384612151716,-0.35190042122606124,1.1111111111111112,4.0,585663.3263837765,PADK,2022-12-31 06:35,OVC,,,PADK 310635Z AUTO 25002KT OVC006 01/00 A2876 RMK P0001 T00100000 VRB03KT CIG 5V11  MADISHF
94,1672468800,-176.646,51.878,34.0,95.348,0.0,0.0,0.01,,600.0,1100.0,2928.0,,,,0.0,0.0,0.0,0.0,0.0,1.1111111111111112,4.0,585663.3263837765,PADK,2022-12-31 06:40,BKN,OVC,,PADK 310640Z AUTO 00000KT BKN006 OVC011 01/00 A2876 RMK P0001 T00100000 MADISHF
95,1672469100,-176.646,51.878,34.0,95.6955,0.0,0.0,0.01,,600.0,1100.0,2882.0,,,,0.0,0.0,0.0,0.0,0.0,1.1111111111111112,4.0,585663.3263837765,PADK,2022-12-31 06:45,BKN,OVC,,PADK 310645Z AUTO 00000KT BKN006 OVC011 01/00 A2876 RMK P0001 T00100000 MADISHF
96,1672469400,-176.646,51.878,34.0,96.04299999999999,0.0,0.0,0.01,,600.0,1260.0,2836.0,,,,0.0,0.0,0.0,0.0,0.0,1.1111111111111112,4.0,585663.3263837765,PADK,2022-12-31 06:50,OVC,,,PADK 310650Z AUTO 00000KT OVC006 01/01 A2876 RMK P0001 T00100010 CIG 4V10  MADISHF
97,1672469700,-176.646,51.878,34.0,96.39049999999999,0.0,0.0,0.01,,600.0,1420.0,2790.0,,,,0.0,0.0,0.0,0.0,0.0,1.1111111111111112,4.0,585663.3263837765,PADK,2022-12-31 06:55,OVC,,,PADK 310655Z AUTO 00000KT OVC006 01/01 A2876 RMK P0001 T00100010 CIG 4V10  MADISHF
98,1672469760,-176.646,51.878,34.0,96.46,0.0,0.0,0.01,,600.0,1452.0,2780.8,,,,0.0,0.0,0.0,0.0,0.0,1.1111111111111112,4.0,585663.3263837765,PADK,2022-12-31 06:56,OVC,,,PADK 310656Z AUTO 00000KT OVC006 01/01 A2876 RMK AO2 SLP739 P0001 T00110006 PWINO FZRANO $
99,1672470000,-176.646,51.878,34.0,96.46,0.0,0.0,0.01,,600.0,1580.0,2744.0,,,,0.0,0.0,0.0,0.0,0.0,1.1111111111111112,4.0,585663.3263837765,PADK,2022-12-31 07:00,OVC,,,PADK 310700Z AUTO 00000KT OVC006 01/01 A2876 RMK T00100010 MADISHF
100,1672470300,-176.646,51.878,34.0,96.46,0.0,0.0,0.01,,600.0,1740.0,2698.0,,,,0.0,0.0,0.0,0.0,0.0,1.1111111111111112,4.0,585663.3263837765,PADK,2022-12-31 07:05,OVC,,,PADK 310705Z AUTO 00000KT OVC006 01/00 A2876 RMK T00100000 MADISHF
101,1672470600,-176.646,51.878,34.0,96.46,330.0,2.0,0.01,,600.0,1900.0,2652.0,,,,1.028888,-1.0000000000000009,1.7320508075688767,-0.5144440000000005,0.8910431456489633,1.1111111111111112,4.0,585663.3263837765,PADK,2022-12-31 07:10,BKN,OVC,,PADK 310710Z AUTO 33002KT BKN006 OVC019 01/00 A2876 RMK T00100000 MADISHF
102,1672470900,-176.646,51.878,34.0,96.46,350.0,2.0,0.01,,600.0,1900.0,2606.0,,,,1.028888,-0.3472963553338608,1.969615506024416,-0.17866452622337267,1.0132568793812247,1.1111111111111112,4.0,585663.3263837765,PADK,2022-12-31 07:15,BKN,OVC,,PADK 310715Z AUTO 35002KT BKN006 OVC019 01/00 A2876 RMK T00100000 MADISHF
103,1672471200,-176.646,51.878,34.0,96.46,360.0,4.0,0.01,,600.0,1600.0,2560.0,,,,2.057776,-9.797174393178826e-16,4.0,-5.040097583524488e-16,2.057776,1.1111111111111112,4.0,585663.3263837765,PADK,2022-12-31 07:20,OVC,,,PADK 310720Z AUTO 36004KT OVC006 01/01 A2876 RMK T00100010 MADISHF
104,1672471500,-176.646,51.878,34.0,96.46,10.0,5.0,0.01,,600.0,1300.0,2514.0,,,,2.57222,0.8682408883346516,4.92403876506104,0.4466613155584316,2.5331421984530618,1.1111111111111112,4.0,585663.3263837765,PADK,2022-12-31 07:25,BKN,OVC,,PADK 310725Z AUTO 01005KT BKN006 OVC013 01/01 A2876 RMK P0001 T00100010 MADISHF
105,1672471800,-176.646,51.878,34.0,96.46,10.0,5.0,0.01,,600.0,1700.0,2468.0,,,,2.57222,0.8682408883346516,4.92403876506104,0.4466613155584316,2.5331421984530618,1.1111111111111112,4.0,585663.3263837765,PADK,2022-12-31 07:30,BKN,OVC,,PADK 310730Z AUTO 01005KT BKN006 OVC017 01/01 A2876 RMK P0001 T00100010 MADISHF
106,1672472100,-176.646,51.878,34.0,96.46,350.0,5.0,0.01,,600.0,1700.0,2422.0,,,,2.57222,-0.868240888334652,4.92403876506104,-0.4466613155584317,2.5331421984530618,1.1111111111111112,4.0,585663.3263837765,PADK,2022-12-31 07:35,BKN,OVC,,PADK 310735Z AUTO 35005KT BKN006 OVC017 01/01 A2876 RMK P0001 T00100010 MADISHF
107,1672472400,-176.646,51.878,34.0,96.46,360.0,5.0,0.01,,600.0,1600.0,2376.0,,,,2.57222,-1.2246467991473533e-15,5.0,-6.30012197940561e-16,2.57222,1.1111111111111112,4.0,585663.3263837765,PADK,2022-12-31 07:40,OVC,,,PADK 310740Z AUTO 36005KT OVC006 01/01 A2876 RMK P0001 T00100010 MADISHF
108,1672472700,-176.646,51.878,34.0,96.46,360.0,4.0,0.01,,600.0,1500.0,2330.0,,,,2.057776,-9.797174393178826e-16,4.0,-5.040097583524488e-16,2.057776,1.1111111111111112,4.0,585663.3263837765,PADK,2022-12-31 07:45,OVC,,,PADK 310745Z AUTO 36004KT OVC006 01/01 A2876 RMK P0001 T00100010 CIG 5V11  MADISHF
109,1672473300,-176.646,51.878,34.0,96.46,360.0,5.0,0.01,,800.0,1300.0,2238.0,,,,2.57222,-1.2246467991473533e-15,5.0,-6.30012197940561e-16,2.57222,1.1111111111111112,4.0,585663.3263837765,PADK,2022-12-31 07:55,BKN,OVC,,PADK 310755Z AUTO 36005KT BKN008 OVC013 01/01 A2876 RMK P0001 T00100010 CIG 5V11  MADISHF
110,1672473360,-176.646,51.878,34.0,96.46,350.0,6.0,0.01,,800.0,1300.0,2228.8,,,,3.086664,-1.0418890660015823,5.908846518073248,-0.535993578670118,3.0397706381436738,1.1111111111111112,4.0,585663.3263837765,PADK,2022-12-31 07:56,BKN,OVC,,PADK 310756Z AUTO 35006KT BKN008 OVC013 01/01 A2876 RMK AO2 CIG 005V011 SLP740 P0001 T00110006 400280000 PWINO FZRANO $
111,1672473600,-176.646,51.878,33.96190476190476,97.13428571428571,350.0,5.0,0.008095238095238096,,800.0,1300.0,2192.0,,,,2.57222,-0.868240888334652,4.92403876506104,-0.4466613155584317,2.5331421984530618,1.0899470899470898,4.0,585663.3263837765,PADK,2022-12-31 08:00,BKN,OVC,,PADK 310800Z AUTO 35005KT BKN008 OVC013 01/01 A2876 RMK T00100010 CIG 5V9  MADISHF
112,1672473900,-176.646,51.878,33.91428571428571,97.97714285714285,350.0,5.0,0.005714285714285714,,800.0,1500.0,2146.0,,,,2.57222,-0.868240888334652,4.92403876506104,-0.4466613155584317,2.5331421984530618,1.0634920634920628,4.0,585663.3263837765,PADK,2022-12-31 08:05,SCT,OVC,,PADK 310805Z AUTO 35005KT SCT008 OVC015 01/01 A2876 RMK T00100010 MADISHF
113,1672474200,-176.646,51.878,33.86666666666667,98.82,350.0,5.0,0.003333333333333334,,800.0,1300.0,2100.0,,,,2.57222,-0.868240888334652,4.92403876506104,-0.4466613155584317,2.5331421984530618,1.037037037037036,4.0,585663.3263837765,PADK,2022-12-31 08:10,BKN,BKN,OVC,PADK 310810Z AUTO 35005KT BKN008 BKN013 OVC021 01/01 A2876 RMK T00100010 CIG 6V11  MADISHF
114,1672474500,-176.646,51.878,33.819047619047616,99.66285714285715,350.0,5.0,0.0009523809523809528,,800.0,1300.0,2900.0,,,,2.57222,-0.868240888334652,4.92403876506104,-0.4466613155584317,2.5331421984530618,1.0105820105820091,4.0,585663.3263837765,PADK,2022-12-31 08:15,FEW,BKN,OVC,PADK 310815Z AUTO 35005KT FEW008 BKN013 OVC029 01/01 A2876 RMK T00100010 MADISHF
115,1672474620,-176.646,51.878,33.8,100.0,360.0,5.0,0.0,,800.0,1300.0,2900.0,,,,2.57222,-1.2246467991473533e-15,5.0,-6.30012197940561e-16,2.57222,0.9999999999999984,4.0,585663.3263837765,PADK,2022-12-31 08:17,FEW,BKN,OVC,PADK 310817Z AUTO 36005KT FEW008 BKN013 OVC029 01/01 A2876 RMK AO2 PWINO FZRANO $
116,1672474800,-176.646,51.878,33.8,100.0,360.0,4.0,0.0,,700.0,1400.0,2900.0,,,,2.057776,-9.797174393178826e-16,4.0,-5.040097583524488e-16,2.057776,0.9999999999999984,4.0,585663.3263837765,PADK,2022-12-31 08:20,FEW,BKN,OVC,PADK 310820Z AUTO 36004KT FEW007 BKN014 OVC029 01/01 A2876 RMK T00100010 MADISHF
117,1672475100,-176.646,51.878,33.8,100.0,10.0,5.0,0.0,,1100.0,1700.0,7000.0,,,,2.57222,0.8682408883346516,4.92403876506104,0.4466613155584316,2.5331421984530618,0.9999999999999984,4.0,585663.3263837765,PADK,2022-12-31 08:25,SCT,BKN,OVC,PADK 310825Z AUTO 01005KT SCT011 BKN017 OVC070 01/01 A2876 RMK T00100010 MADISHF
118,1672475220,-176.646,51.878,33.8,100.0,360.0,6.0,0.0,,1100.0,1700.0,7000.0,,,,3.086664,-1.4695761589768238e-15,6.0,-7.560146375286731e-16,3.086664,0.9999999999999984,4.0,585663.3263837765,PADK,2022-12-31 08:27,SCT,BKN,OVC,PADK 310827Z AUTO 36006KT SCT011 BKN017 OVC070 01/01 A2876 RMK AO2 PWINO FZRANO $
119,1672475400,-176.646,51.878,33.717241379310344,99.55206896551724,360.0,5.0,0.0,,1100.0,1700.0,7000.0,,,,2.57222,-1.2246467991473533e-15,5.0,-6.30012197940561e-16,2.57222,0.9540229885057457,4.0,585663.3263837765,PADK,2022-12-31 08:30,SCT,BKN,OVC,PADK 310830Z AUTO 36005KT SCT011 BKN017 OVC070 01/01 A2876 RMK T00100010 MADISHF
120,1672475700,-176.646,51.878,33.57931034482758,98.8055172413793,360.0,5.0,0.0,,1100.0,1700.0,2900.0,,,,2.57222,-1.2246467991473533e-15,5.0,-6.30012197940561e-16,2.57222,0.8773946360153245,4.0,585663.3263837765,PADK,2022-12-31 08:35,FEW,BKN,OVC,PADK 310835Z AUTO 36005KT FEW011 BKN017 OVC029 01/01 A2876 RMK T00100010 MADISHF
121,1672476000,-176.646,51.878,33.44137931034483,98.05896551724138,360.0,4.0,0.0,,1200.0,1700.0,2900.0,,,,2.057776,-9.797174393178826e-16,4.0,-5.040097583524488e-16,2.057776,0.8007662835249034,4.0,585663.3263837765,PADK,2022-12-31 08:40,FEW,BKN,OVC,PADK 310840Z AUTO 36004KT FEW012 BKN017 OVC029 01/01 A2876 RMK T00100010 MADISHF
122,1672476300,-176.646,51.878,33.30344827586207,97.31241379310345,340.0,5.0,0.0,,1700.0,2300.0,7000.0,,,,2.57222,-1.7101007166283468,4.698463103929541,-0.8797510530651533,2.4170961530379285,0.7241379310344822,4.0,585663.3263837765,PADK,2022-12-31 08:45,BKN,BKN,OVC,PADK 310845Z AUTO 34005KT BKN017 BKN023 OVC070 01/01 A2876 RMK T00100010 MADISHF
123,1672476600,-176.646,51.878,33.16551724137931,96.56586206896552,350.0,5.0,0.0,,1700.0,2300.0,12000.0,,,,2.57222,-0.868240888334652,4.92403876506104,-0.4466613155584317,2.5331421984530618,0.647509578544061,4.0,585663.3263837765,PADK,2022-12-31 08:50,BKN,BKN,OVC,PADK 310850Z AUTO 35005KT BKN017 BKN023 OVC120 01/00 A2877 RMK T00100000 MADISHF
124,1672476900,-176.646,51.878,33.02758620689655,95.81931034482758,360.0,5.0,0.0,,1500.0,2300.0,12000.0,,,,2.57222,-1.2246467991473533e-15,5.0,-6.30012197940561e-16,2.57222,0.5708812260536398,4.0,585663.3263837765,PADK,2022-12-31 08:55,BKN,BKN,OVC,PADK 310855Z AUTO 36005KT BKN015 BKN023 OVC120 01/00 A2877 RMK T00100000 MADISHF
125,1672476960,-176.646,51.878,33.0,95.67,10.0,5.0,0.0,,1500.0,2000.0,12000.0,,,,2.57222,0.8682408883346516,4.92403876506104,0.4466613155584316,2.5331421984530618,0.5555555555555556,4.0,585663.3263837765,PADK,2022-12-31 08:56,BKN,BKN,OVC,PADK 310856Z AUTO 01005KT BKN015 BKN020 OVC120 01/00 A2877 RMK AO2 SLP741 60002 T00060000 51005 PWINO FZRANO $
126,1672477200,-176.646,51.878,33.13333333333333,95.67266666666667,20.0,5.0,0.0009090909090909092,,1500.0,12000.0,11625.0,,,,2.57222,1.7101007166283435,4.698463103929543,0.8797510530651517,2.4170961530379294,0.6296296296296297,4.0,585663.3263837765,PADK,2022-12-31 09:00,BKN,OVC,,PADK 310900Z AUTO 02005KT BKN015 OVC120 01/01 A2877 RMK T00100010 MADISHF
127,1672477500,-176.646,51.878,33.3,95.676,360.0,5.0,0.0020454545454545456,,1500.0,12000.0,11156.25,,,,2.57222,-1.2246467991473533e-15,5.0,-6.30012197940561e-16,2.57222,0.7222222222222222,4.0,585663.3263837765,PADK,2022-12-31 09:05,BKN,OVC,,PADK 310905Z AUTO 36005KT BKN015 OVC120 01/01 A2877 RMK T00100010 MADISHF
128,1672477800,-176.646,51.878,33.46666666666667,95.67933333333333,360.0,5.0,0.0031818181818181824,,1500.0,12000.0,10687.5,,,,2.57222,-1.2246467991473533e-15,5.0,-6.30012197940561e-16,2.57222,0.8148148148148149,4.0,585663.3263837765,PADK,2022-12-31 09:10,BKN,OVC,,PADK 310910Z AUTO 36005KT BKN015 OVC120 01/01 A2877 RMK T00100010 MADISHF
129,1672478100,-176.646,51.878,33.63333333333333,95.68266666666666,360.0,4.0,0.004318181818181818,,1500.0,10934.782608695652,10218.75,,,,2.057776,-9.797174393178826e-16,4.0,-5.040097583524488e-16,2.057776,0.9074074074074074,4.0,585663.3263837765,PADK,2022-12-31 09:15,OVC,,,PADK 310915Z AUTO 36004KT OVC015 01/01 A2877 RMK T00100010 MADISHF
130,1672478400,-176.646,51.878,33.8,95.68599999999999,10.0,5.0,0.005454545454545455,,1500.0,9869.565217391304,9750.0,,,,2.57222,0.8682408883346516,4.92403876506104,0.4466613155584316,2.5331421984530618,1.0,4.0,585663.3263837765,PADK,2022-12-31 09:20,OVC,,,PADK 310920Z AUTO 01005KT OVC015 01/01 A2877 RMK T00100010 MADISHF
131,1672478700,-176.646,51.878,33.96666666666667,95.68933333333334,360.0,5.0,0.006590909090909092,,1500.0,8804.347826086956,9281.25,,,,2.57222,-1.2246467991473533e-15,5.0,-6.30012197940561e-16,2.57222,1.0925925925925926,4.0,585663.3263837765,PADK,2022-12-31 09:25,OVC,,,PADK 310925Z AUTO 36005KT OVC015 01/01 A2877 RMK T00100010 MADISHF
132,1672479000,-176.646,51.878,34.13333333333333,95.69266666666667,360.0,5.0,0.0077272727272727285,,1500.0,7739.130434782609,8812.5,,,,2.57222,-1.2246467991473533e-15,5.0,-6.30012197940561e-16,2.57222,1.1851851851851851,4.0,585663.3263837765,PADK,2022-12-31 09:30,OVC,,,PADK 310930Z AUTO 36005KT OVC015 01/01 A2877 RMK T00100010 MADISHF
133,1672479300,-176.646,51.878,34.3,95.696,10.0,5.0,0.008863636363636365,,1500.0,6673.913043478261,8343.75,,,,2.57222,0.8682408883346516,4.92403876506104,0.4466613155584316,2.5331421984530618,1.2777777777777777,4.0,585663.3263837765,PADK,2022-12-31 09:35,OVC,,,PADK 310935Z AUTO 01005KT OVC015 01/01 A2877 RMK T00100010 MADISHF
134,1672479600,-176.646,51.878,34.46666666666667,95.69933333333333,20.0,4.0,0.01,,1500.0,5608.695652173913,7875.0,,,,2.057776,1.3680805733026749,3.7587704831436337,0.7038008424521213,1.9336769224303436,1.3703703703703705,4.0,585663.3263837765,PADK,2022-12-31 09:40,OVC,,,PADK 310940Z AUTO 02004KT OVC015 02/01 A2877 RMK P0001 T00200010 MADISHF
135,1672479900,-176.646,51.878,34.63333333333333,95.70266666666666,20.0,5.0,0.01,,1500.0,4543.478260869565,7406.25,,,,2.57222,1.7101007166283435,4.698463103929543,0.8797510530651517,2.4170961530379294,1.462962962962963,4.0,585663.3263837765,PADK,2022-12-31 09:45,OVC,,,PADK 310945Z AUTO 02005KT OVC015 02/01 A2877 RMK P0001 T00200010 MADISHF
136,1672480200,-176.646,51.878,34.8,95.70599999999999,20.0,5.0,0.01,,1500.0,3478.260869565218,6937.5,,,,2.57222,1.7101007166283435,4.698463103929543,0.8797510530651517,2.4170961530379294,1.5555555555555556,4.0,585663.3263837765,PADK,2022-12-31 09:50,OVC,,,PADK 310950Z AUTO 02005KT OVC015 02/01 A2877 RMK P0001 T00200010 MADISHF
137,1672480500,-176.646,51.878,34.96666666666667,95.70933333333333,360.0,5.0,0.01,,1500.0,2413.04347826087,6468.75,,,,2.57222,-1.2246467991473533e-15,5.0,-6.30012197940561e-16,2.57222,1.6481481481481481,4.0,585663.3263837765,PADK,2022-12-31 09:55,OVC,,,PADK 310955Z AUTO 36005KT OVC015 02/01 A2877 RMK P0001 T00200010 MADISHF
138,1672480560,-176.646,51.878,35.0,95.71,360.0,6.0,0.01,,1500.0,2200.0,6375.0,,,,3.086664,-1.4695761589768238e-15,6.0,-7.560146375286731e-16,3.086664,1.6666666666666667,4.0,585663.3263837765,PADK,2022-12-31 09:56,BKN,OVC,,PADK 310956Z AUTO 36006KT BKN015 OVC022 02/01 A2877 RMK AO2 SLP742 P0001 T00170011 PWINO FZRANO $
139,1672480800,-176.646,51.878,35.0,95.71,360.0,7.0,0.01,,1500.0,3600.0,6000.0,,,,3.601108,-1.7145055188062944e-15,7.0,-8.820170771167854e-16,3.601108,1.6666666666666667,4.0,585663.3263837765,PADK,2022-12-31 10:00,BKN,BKN,OVC,PADK 311000Z AUTO 36007KT BKN015 BKN036 OVC060 02/01 A2877 RMK T00200010 MADISHF
140,1672481100,-176.646,51.878,35.0,95.71,360.0,5.0,0.01,,1700.0,2300.0,6000.0,,,,2.57222,-1.2246467991473533e-15,5.0,-6.30012197940561e-16,2.57222,1.6666666666666667,4.0,585663.3263837765,PADK,2022-12-31 10:05,BKN,BKN,OVC,PADK 311005Z AUTO 36005KT BKN017 BKN023 OVC060 02/01 A2877 RMK T00200010 MADISHF
141,1672481400,-176.646,51.878,35.0,95.71,360.0,5.0,0.01,,1700.0,2300.0,4700.0,,,,2.57222,-1.2246467991473533e-15,5.0,-6.30012197940561e-16,2.57222,1.6666666666666667,4.0,585663.3263837765,PADK,2022-12-31 10:10,SCT,BKN,OVC,PADK 311010Z AUTO 36005KT SCT017 BKN023 OVC047 02/01 A2877 RMK T00200010 MADISHF
142,1672481700,-176.646,51.878,35.0,95.71,360.0,5.0,0.01,,1500.0,2300.0,3400.0,,,,2.57222,-1.2246467991473533e-15,5.0,-6.30012197940561e-16,2.57222,1.6666666666666667,4.0,585663.3263837765,PADK,2022-12-31 10:15,FEW,BKN,OVC,PADK 311015Z AUTO 36005KT FEW015 BKN023 OVC034 02/01 A2877 RMK T00200010 MADISHF
143,1672482000,-176.646,51.878,35.0,95.71,360.0,5.0,0.01,,1500.0,2300.0,3400.0,,,,2.57222,-1.2246467991473533e-15,5.0,-6.30012197940561e-16,2.57222,1.6666666666666667,4.0,585663.3263837765,PADK,2022-12-31 10:20,FEW,BKN,OVC,PADK 311020Z AUTO 36005KT FEW015 BKN023 OVC034 02/01 A2877 RMK T00200010 MADISHF
144,1672482300,-176.646,51.878,35.0,95.71,360.0,8.0,0.01,,2100.0,3400.0,3175.0,,,,4.115552,-1.959434878635765e-15,8.0,-1.0080195167048977e-15,4.115552,1.6666666666666667,4.0,585663.3263837765,PADK,2022-12-31 10:25,BKN,OVC,,PADK 311025Z AUTO 36008KT BKN021 OVC034 02/01 A2877 RMK T00200010 MADISHF
145,1672482600,-176.646,51.878,35.0,95.71,10.0,9.0,0.01,,2200.0,2650.0,2950.0,,,,4.629996,1.562833599002373,8.863269777109872,0.8039903680051768,4.5596559572155115,1.6666666666666667,4.0,585663.3263837765,PADK,2022-12-31 10:30,OVC,,,PADK 311030Z AUTO 01009KT OVC022 02/01 A2877 RMK T00200010 MADISHF
146,1672482900,-176.646,51.878,35.0,95.71,10.0,13.0,0.01,,1100.0,1900.0,2725.0,,,,6.687772,2.257426309670094,12.802500789158705,1.161319420451922,6.58616971597796,1.6666666666666667,4.0,585663.3263837765,PADK,2022-12-31 10:35,FEW,OVC,,PADK 311035Z AUTO 01013KT FEW011 OVC019 02/02 A2878 RMK T00200020 MADISHF
147,1672483200,-176.646,51.878,35.0,95.71,10.0,11.0,0.01,,1100.0,1900.0,2500.0,,,,5.6588840000000005,1.9101299543362336,10.832885283134289,0.9826548942285495,5.572912836596736,1.6666666666666667,4.0,585663.3263837765,PADK,2022-12-31 10:40,SCT,BKN,OVC,PADK 311040Z AUTO 01011KT SCT011 BKN019 OVC025 02/02 A2878 RMK P0001 T00200020 MADISHF
148,1672483500,-176.646,51.878,35.0,95.71,20.0,9.0,0.02,,1100.0,1900.0,2600.0,,,,4.629996,3.0781812899310186,8.457233587073176,1.583551895517273,4.350773075468273,1.6666666666666667,4.0,585663.3263837765,PADK,2022-12-31 10:45,SCT,OVC,,PADK 311045Z AUTO 02009KT SCT011 OVC019 02/01 A2878 RMK P0002 T00200010 MADISHF
149,1672483800,-176.646,51.878,35.0,95.71,40.0,8.0,0.02,,1100.0,1900.0,2700.0,,,,4.115552,5.142300877492314,6.128355544951824,2.645425832620656,3.1526957399671964,1.6666666666666667,4.0,585663.3263837765,PADK,2022-12-31 10:50,SCT,OVC,,PADK 311050Z AUTO 04008KT SCT011 OVC019 02/01 A2878 RMK P0002 T00200010 MADISHF
150,1672484100,-176.646,51.878,35.0,95.71,10.0,5.0,0.02,,1100.0,1700.0,2800.0,,,,2.57222,0.8682408883346516,4.92403876506104,0.4466613155584316,2.5331421984530618,1.6666666666666667,4.0,585663.3263837765,PADK,2022-12-31 10:55,FEW,BKN,OVC,PADK 311055Z AUTO 01005KT FEW011 BKN017 OVC028 02/01 A2878 RMK P0002 T00200010 MADISHF
151,1672484160,-176.646,51.878,35.0,95.71,360.0,6.0,0.02,,1100.0,1700.0,3300.0,,,,3.086664,-1.4695761589768238e-15,6.0,-7.560146375286731e-16,3.086664,1.6666666666666667,4.0,585663.3263837765,PADK,2022-12-31 10:56,FEW,BKN,OVC,PADK 311056Z AUTO 36006KT FEW011 BKN017 OVC033 02/01 A2878 RMK AO2 SLP746 P0002 T00170011 PWINO FZRANO $
152,1672484400,-176.646,51.878,34.56363636363636,97.27,360.0,5.0,0.012727272727272726,,1100.0,2500.0,3500.0,,,,2.57222,-1.2246467991473533e-15,5.0,-6.30012197940561e-16,2.57222,1.4242424242424236,4.0,585663.3263837765,PADK,2022-12-31 11:00,FEW,BKN,OVC,PADK 311100Z AUTO 36005KT FEW011 BKN025 OVC035 02/01 A2878 RMK T00200010 MADISHF
153,1672484700,-176.646,51.878,34.018181818181816,99.22,340.0,4.0,0.0036363636363636355,,900.0,2500.0,3700.0,,,,2.057776,-1.3680805733026775,3.7587704831436324,-0.7038008424521226,1.933676922430343,1.12121212121212,4.0,585663.3263837765,PADK,2022-12-31 11:05,FEW,BKN,OVC,PADK 311105Z AUTO 34004KT FEW009 BKN025 OVC037 01/01 A2878 RMK T00100010 MADISHF
154,1672484820,-176.646,51.878,33.8,100.0,340.0,4.0,0.0,,900.0,1700.0,3700.0,,,,2.057776,-1.3680805733026775,3.7587704831436324,-0.7038008424521226,1.933676922430343,0.9999999999999984,4.0,585663.3263837765,PADK,2022-12-31 11:07,FEW,SCT,OVC,PADK 311107Z AUTO 34004KT FEW009 SCT017 OVC037 01/01 A2878 RMK AO2 PWINO FZRANO $
155,1672485000,-176.646,51.878,33.98,99.30799999999999,350.0,4.0,0.0,,1700.0,3700.0,5000.0,,,,2.057776,-0.6945927106677215,3.939231012048832,-0.35732905244674534,2.0265137587624493,1.0999999999999988,4.0,585663.3263837765,PADK,2022-12-31 11:10,FEW,BKN,OVC,PADK 311110Z AUTO 35004KT FEW017 BKN037 OVC050 01/01 A2878 RMK T00100010 MADISHF
156,1672485300,-176.646,51.878,34.28,98.15466666666667,10.0,5.0,0.0,,1900.0,3900.0,6000.0,,,,2.57222,0.8682408883346516,4.92403876506104,0.4466613155584316,2.5331421984530618,1.2666666666666657,4.0,585663.3263837765,PADK,2022-12-31 11:15,FEW,BKN,OVC,PADK 311115Z AUTO 01005KT FEW019 BKN039 OVC060 01/01 A2878 RMK T00100010 MADISHF
157,1672485600,-176.646,51.878,34.58,97.00133333333333,10.0,7.0,0.0,,2300.0,5000.0,6000.0,,,,3.601108,1.2155372436685123,6.893654271085456,0.6253258417818042,3.546399077834286,1.433333333333333,4.0,585663.3263837765,PADK,2022-12-31 11:20,FEW,BKN,OVC,PADK 311120Z AUTO 01007KT FEW023 BKN050 OVC060 01/01 A2878 RMK T00100010 MADISHF
158,1672486200,-176.646,51.878,35.18,94.69466666666666,360.0,8.0,0.0,,1700.0,4000.0,6000.0,,,,4.115552,-1.959434878635765e-15,8.0,-1.0080195167048977e-15,4.115552,1.766666666666667,4.0,585663.3263837765,PADK,2022-12-31 11:30,SCT,BKN,OVC,PADK 311130Z AUTO 36008KT SCT017 BKN040 OVC060 01/01 A2878 RMK T00100010 MADISHF
159,1672486500,-176.646,51.878,35.480000000000004,93.54133333333333,360.0,10.0,0.0,,1700.0,5000.0,6000.0,,,,5.14444,-2.4492935982947065e-15,10.0,-1.260024395881122e-15,5.14444,1.933333333333334,4.0,585663.3263837765,PADK,2022-12-31 11:35,BKN,BKN,OVC,PADK 311135Z AUTO 36010KT BKN017 BKN050 OVC060 02/01 A2878 RMK T00200010 MADISHF
160,1672486620,-176.646,51.878,35.6,93.08,360.0,9.0,0.0,,1700.0,6000.0,5884.0,,,,4.629996,-2.204364238465236e-15,9.0,-1.1340219562930098e-15,4.629996,2.000000000000001,4.0,585663.3263837765,PADK,2022-12-31 11:37,BKN,OVC,,PADK 311137Z AUTO 36009KT BKN017 OVC060 02/01 A2878 RMK AO2 PWINO FZRANO $
161,1672486800,-176.646,51.878,35.50526315789474,93.49526315789474,360.0,7.0,0.0,,1700.0,6000.0,5710.0,,,,3.601108,-1.7145055188062944e-15,7.0,-8.820170771167854e-16,3.601108,1.9473684210526323,4.0,585663.3263837765,PADK,2022-12-31 11:40,BKN,OVC,,PADK 311140Z AUTO 36007KT BKN017 OVC060 02/01 A2878 RMK T00200010 MADISHF
162,1672487100,-176.646,51.878,35.347368421052636,94.18736842105262,360.0,7.0,0.0,,1700.0,6000.0,5420.0,,,,3.601108,-1.7145055188062944e-15,7.0,-8.820170771167854e-16,3.601108,1.859649122807018,4.0,585663.3263837765,PADK,2022-12-31 11:45,BKN,OVC,,PADK 311145Z AUTO 36007KT BKN017 OVC060 02/01 A2878 RMK T00200010 MADISHF
163,1672487400,-176.646,51.878,35.189473684210526,94.87947368421052,10.0,9.0,0.0,,1700.0,3950.0,5130.0,,,,4.629996,1.562833599002373,8.863269777109872,0.8039903680051768,4.5596559572155115,1.771929824561404,4.0,585663.3263837765,PADK,2022-12-31 11:50,OVC,,,PADK 311150Z AUTO 01009KT OVC017 02/01 A2878 RMK T00200010 MADISHF
164,1672487700,-176.646,51.878,35.03157894736842,95.57157894736841,10.0,10.0,0.0,,1400.0,1900.0,4840.0,,,,5.14444,1.7364817766693033,9.84807753012208,0.8933226311168632,5.0662843969061235,1.6842105263157896,4.0,585663.3263837765,PADK,2022-12-31 11:55,BKN,OVC,,PADK 311155Z AUTO 01010KT BKN014 OVC019 02/01 A2878 RMK T00200010 MADISHF
165,1672487760,-176.646,51.878,35.0,95.71,10.0,9.0,0.0,,1400.0,1900.0,4782.0,,,,4.629996,1.562833599002373,8.863269777109872,0.8039903680051768,4.5596559572155115,1.6666666666666667,4.0,585663.3263837765,PADK,2022-12-31 11:56,BKN,OVC,,PADK 311156Z AUTO 01009KT BKN014 OVC019 02/01 A2878 RMK AO2 SLP745 60005 70009 T00170011 10017 20006 50004 PWINO FZRANO $
166,1672488000,-176.646,51.878,35.075,95.38125,20.0,9.0,0.0,,1400.0,1921.0526315789473,4550.0,,,,4.629996,3.0781812899310186,8.457233587073176,1.583551895517273,4.350773075468273,1.7083333333333335,4.0,585663.3263837765,PADK,2022-12-31 12:00,OVC,,,PADK 311200Z AUTO 02009KT OVC014 02/01 A2878 RMK T00200010 MADISHF
167,1672488300,-176.646,51.878,35.16875,94.97031249999999,20.0,8.0,0.0,,1400.0,1947.3684210526317,4260.0,,,,4.115552,2.7361611466053497,7.517540966287267,1.4076016849042425,3.8673538448606872,1.760416666666667,4.0,585663.3263837765,PADK,2022-12-31 12:05,OVC,,,PADK 311205Z AUTO 02008KT OVC014 02/01 A2878 RMK T00200010 MADISHF
168,1672488600,-176.646,51.878,35.2625,94.55937499999999,80.0,7.0,0.0,,1400.0,1973.6842105263158,3970.0,,,,3.601108,6.893654271085456,1.2155372436685128,3.546399077834286,0.6253258417818044,1.8125000000000004,4.0,585663.3263837765,PADK,2022-12-31 12:10,OVC,,,PADK 311210Z AUTO 08007KT OVC014 02/01 A2878 RMK T00200010 MADISHF
169,1672488900,-176.646,51.878,35.35625,94.1484375,60.0,5.0,0.0,,1400.0,2000.0,3680.0,,,,2.57222,4.330127018922193,2.5000000000000004,2.2276078641224086,1.2861100000000003,1.864583333333334,4.0,585663.3263837765,PADK,2022-12-31 12:15,BKN,OVC,,PADK 311215Z AUTO 06005KT BKN014 OVC020 02/01 A2878 RMK T00200010 MADISHF
170,1672489200,-176.646,51.878,35.45,93.7375,40.0,4.0,0.0,,1400.0,2000.0,3390.0,,,,2.057776,2.571150438746157,3.064177772475912,1.322712916310328,1.5763478699835982,1.9166666666666674,4.0,585663.3263837765,PADK,2022-12-31 12:20,BKN,OVC,,PADK 311220Z AUTO 04004KT BKN014 OVC020 02/01 A2878 RMK T00200010 MADISHF
171,1672489500,-176.646,51.878,35.54375,93.3265625,350.0,4.0,0.0,,1400.0,2000.0,3100.0,,,,2.057776,-0.6945927106677215,3.939231012048832,-0.35732905244674534,2.0265137587624493,1.9687500000000009,4.0,585663.3263837765,PADK,2022-12-31 12:25,SCT,BKN,OVC,PADK 311225Z AUTO 35004KT SCT014 BKN020 OVC031 02/01 A2878 RMK T00200010 MADISHF
172,1672489680,-176.646,51.878,35.6,93.08,340.0,6.0,0.0,,1400.0,2000.0,3600.0,,,,3.086664,-2.0521208599540164,5.638155724715449,-1.055701263678184,2.900515383645514,2.000000000000001,4.0,585663.3263837765,PADK,2022-12-31 12:28,SCT,BKN,OVC,PADK 311228Z AUTO 34006KT SCT014 BKN020 OVC036 02/01 A2878 RMK AO2 PWINO FZRANO $
173,1672489800,-176.646,51.878,35.34285714285714,94.06857142857143,340.0,5.0,0.0,,1400.0,2000.0,3600.0,,,,2.57222,-1.7101007166283468,4.698463103929541,-0.8797510530651533,2.4170961530379285,1.8571428571428577,4.0,585663.3263837765,PADK,2022-12-31 12:30,FEW,BKN,OVC,PADK 311230Z AUTO 34005KT FEW014 BKN020 OVC036 02/01 A2878 RMK T00200010 MADISHF
174,1672490100,-176.646,51.878,34.7,96.53999999999999,350.0,5.0,0.0,,1400.0,2700.0,3600.0,,,,2.57222,-0.868240888334652,4.92403876506104,-0.4466613155584317,2.5331421984530618,1.4999999999999996,4.0,585663.3263837765,PADK,2022-12-31 12:35,FEW,BKN,OVC,PADK 311235Z AUTO 35005KT FEW014 BKN027 OVC036 02/01 A2878 RMK T00200010 MADISHF
175,1672490400,-176.646,51.878,34.05714285714286,99.01142857142857,360.0,5.0,0.0,,1800.0,2700.0,3600.0,,,,2.57222,-1.2246467991473533e-15,5.0,-6.30012197940561e-16,2.57222,1.1428571428571415,4.0,585663.3263837765,PADK,2022-12-31 12:40,FEW,SCT,OVC,PADK 311240Z AUTO 36005KT FEW018 SCT027 OVC036 01/01 A2879 RMK T00100010 MADISHF
176,1672490520,-176.646,51.878,33.8,100.0,360.0,5.0,0.0,,2000.0,2700.0,3800.0,,,,2.57222,-1.2246467991473533e-15,5.0,-6.30012197940561e-16,2.57222,0.9999999999999984,4.0,585663.3263837765,PADK,2022-12-31 12:42,FEW,SCT,OVC,PADK 311242Z AUTO 36005KT FEW020 SCT027 OVC038 01/01 A2879 RMK AO2 PWINO FZRANO $
177,1672490700,-176.646,51.878,33.84285714285714,99.24142857142857,360.0,5.0,0.0,,2000.0,3800.0,3950.0,,,,2.57222,-1.2246467991473533e-15,5.0,-6.30012197940561e-16,2.57222,1.0238095238095226,4.0,585663.3263837765,PADK,2022-12-31 12:45,FEW,OVC,,PADK 311245Z AUTO 36005KT FEW020 OVC038 01/01 A2879 RMK T00100010 MADISHF
178,1672491000,-176.646,51.878,33.91428571428571,97.97714285714285,10.0,5.0,0.0,,1800.0,3500.0,4200.0,,,,2.57222,0.8682408883346516,4.92403876506104,0.4466613155584316,2.5331421984530618,1.0634920634920628,4.0,585663.3263837765,PADK,2022-12-31 12:50,FEW,BKN,OVC,PADK 311250Z AUTO 01005KT FEW018 BKN035 OVC042 01/01 A2879 RMK T00100010 MADISHF
179,1672491360,-176.646,51.878,34.0,96.46,10.0,5.0,0.0,,1800.0,3500.0,4200.0,,,,2.57222,0.8682408883346516,4.92403876506104,0.4466613155584316,2.5331421984530618,1.1111111111111112,4.0,585663.3263837765,PADK,2022-12-31 12:56,FEW,BKN,OVC,PADK 311256Z AUTO 01005KT FEW018 BKN035 OVC042 01/01 A2879 RMK AO2 SLP749 T00110006 PWINO FZRANO $
180,1672491600,-176.646,51.878,33.92,97.87599999999999,10.0,5.0,0.0,,1600.0,2900.0,4000.0,,,,2.57222,0.8682408883346516,4.92403876506104,0.4466613155584316,2.5331421984530618,1.066666666666666,4.0,585663.3263837765,PADK,2022-12-31 13:00,SCT,BKN,OVC,PADK 311300Z AUTO 01005KT SCT016 BKN029 OVC040 01/01 A2879 RMK T00100010 MADISHF
181,1672491900,-176.646,51.878,33.82,99.646,10.0,5.0,0.0,,1600.0,2900.0,4200.0,,,,2.57222,0.8682408883346516,4.92403876506104,0.4466613155584316,2.5331421984530618,1.0111111111111097,4.0,585663.3263837765,PADK,2022-12-31 13:05,SCT,BKN,OVC,PADK 311305Z AUTO 01005KT SCT016 BKN029 OVC042 01/01 A2879 RMK T00100010 MADISHF
182,1672491960,-176.646,51.878,33.8,100.0,10.0,6.0,0.0,,1600.0,2900.0,4200.0,,,,3.086664,1.041889066001582,5.908846518073248,0.5359935786701178,3.0397706381436738,0.9999999999999984,4.0,585663.3263837765,PADK,2022-12-31 13:06,SCT,BKN,OVC,PADK 311306Z AUTO 01006KT SCT016 BKN029 OVC042 01/01 A2879 RMK AO2 PWINO FZRANO $
183,1672492200,-176.646,51.878,33.8,100.0,360.0,5.0,0.002105263157894737,,1600.0,2900.0,4600.0,,,,2.57222,-1.2246467991473533e-15,5.0,-6.30012197940561e-16,2.57222,0.9999999999999984,4.0,585663.3263837765,PADK,2022-12-31 13:10,BKN,BKN,OVC,PADK 311310Z AUTO 36005KT BKN016 BKN029 OVC046 01/01 A2879 RMK T00100010 MADISHF
184,1672492500,-176.646,51.878,33.8,100.0,10.0,5.0,0.004736842105263158,,1600.0,2900.0,4600.0,,,,2.57222,0.8682408883346516,4.92403876506104,0.4466613155584316,2.5331421984530618,0.9999999999999984,4.0,585663.3263837765,PADK,2022-12-31 13:15,BKN,BKN,OVC,PADK 311315Z AUTO 01005KT BKN016 BKN029 OVC046 01/01 A2879 RMK T00100010 MADISHF
185,1672492800,-176.646,51.878,33.8,100.0,10.0,7.0,0.007368421052631579,,1600.0,2900.0,4750.0,,,,3.601108,1.2155372436685123,6.893654271085456,0.6253258417818042,3.546399077834286,0.9999999999999984,4.0,585663.3263837765,PADK,2022-12-31 13:20,BKN,OVC,,PADK 311320Z AUTO 01007KT BKN016 OVC029 01/01 A2879 RMK T00100010 MADISHF
186,1672493100,-176.646,51.878,33.8,100.0,30.0,5.0,0.01,,1600.0,2600.0,4900.0,,,,2.57222,2.4999999999999996,4.330127018922194,1.2861099999999999,2.227607864122409,0.9999999999999984,4.0,585663.3263837765,PADK,2022-12-31 13:25,BKN,BKN,OVC,PADK 311325Z AUTO 03005KT BKN016 BKN026 OVC049 01/01 A2879 RMK P0001 T00100010 MADISHF
187,1672493400,-176.646,51.878,33.8,100.0,10.0,5.0,0.01,,1000.0,1600.0,2800.0,,,,2.57222,0.8682408883346516,4.92403876506104,0.4466613155584316,2.5331421984530618,0.9999999999999984,4.0,585663.3263837765,PADK,2022-12-31 13:30,FEW,BKN,OVC,PADK 311330Z AUTO 01005KT FEW010 BKN016 OVC028 01/01 A2879 RMK P0001 T00100010 MADISHF
188,1672493700,-176.646,51.878,33.8,100.0,360.0,5.0,0.01,,1000.0,1600.0,2700.0,,,,2.57222,-1.2246467991473533e-15,5.0,-6.30012197940561e-16,2.57222,0.9999999999999984,4.0,585663.3263837765,PADK,2022-12-31 13:35,FEW,BKN,OVC,PADK 311335Z AUTO 36005KT FEW010 BKN016 OVC027 01/01 A2879 RMK P0001 T00100010 MADISHF
189,1672494000,-176.646,51.878,33.8,100.0,350.0,5.0,0.01,,1600.0,2300.0,2600.0,,,,2.57222,-0.868240888334652,4.92403876506104,-0.4466613155584317,2.5331421984530618,0.9999999999999984,4.0,585663.3263837765,PADK,2022-12-31 13:40,BKN,OVC,,PADK 311340Z AUTO 35005KT BKN016 OVC023 01/01 A2880 RMK P0001 T00100010 MADISHF
190,1672494300,-176.646,51.878,33.8,100.0,350.0,5.0,0.01,,1100.0,1700.0,2500.0,,,,2.57222,-0.868240888334652,4.92403876506104,-0.4466613155584317,2.5331421984530618,0.9999999999999984,4.0,585663.3263837765,PADK,2022-12-31 13:45,SCT,BKN,OVC,PADK 311345Z AUTO 35005KT SCT011 BKN017 OVC025 01/01 A2880 RMK P0001 T00100010 MADISHF
191,1672494600,-176.646,51.878,33.8,100.0,350.0,5.0,0.01,,1100.0,1700.0,2200.0,,,,2.57222,-0.868240888334652,4.92403876506104,-0.4466613155584317,2.5331421984530618,0.9999999999999984,4.0,585663.3263837765,PADK,2022-12-31 13:50,BKN,BKN,OVC,PADK 311350Z AUTO 35005KT BKN011 BKN017 OVC022 01/01 A2880 RMK P0001 T00100010 MADISHF
192,1672494840,-176.646,51.878,33.8,100.0,360.0,5.0,0.01,,1100.0,1800.0,2500.0,,,,2.57222,-1.2246467991473533e-15,5.0,-6.30012197940561e-16,2.57222,0.9999999999999984,4.0,585663.3263837765,PADK,2022-12-31 13:54,BKN,BKN,OVC,PADK 311354Z AUTO 36005KT BKN011 BKN018 OVC025 01/01 A2880 RMK AO2 P0001 PWINO FZRANO $
193,1672494900,-176.646,51.878,33.9,98.22999999999999,360.0,4.0,0.01,,1100.0,1800.0,2500.0,,,,2.057776,-9.797174393178826e-16,4.0,-5.040097583524488e-16,2.057776,1.055555555555555,4.0,585663.3263837765,PADK,2022-12-31 13:55,BKN,BKN,OVC,PADK 311355Z AUTO 36004KT BKN011 BKN018 OVC025 01/01 A2880 RMK P0001 T00100010 MADISHF
194,1672494960,-176.646,51.878,34.0,96.46,10.0,4.0,0.01,,1100.0,1800.0,2500.0,,,,2.057776,0.6945927106677213,3.939231012048832,0.35732905244674523,2.0265137587624493,1.1111111111111112,4.0,585663.3263837765,PADK,2022-12-31 13:56,BKN,BKN,OVC,PADK 311356Z AUTO 01004KT BKN011 BKN018 OVC025 01/01 A2880 RMK AO2 SLP753 P0001 T00110006 PWINO FZRANO $
195,1672495200,-176.646,51.878,33.95,97.345,350.0,5.0,0.01,,1100.0,2000.0,2537.2093023255816,,,,2.57222,-0.868240888334652,4.92403876506104,-0.4466613155584317,2.5331421984530618,1.083333333333333,4.0,585663.3263837765,PADK,2022-12-31 14:00,BKN,OVC,,PADK 311400Z AUTO 35005KT BKN011 OVC020 01/01 A2880 RMK T00100010 MADISHF
196,1672495500,-176.646,51.878,33.887499999999996,98.45125,350.0,8.0,0.01,,1100.0,2458.3333333333335,2583.720930232558,,,,4.115552,-1.389185421335443,7.878462024097664,-0.7146581048934907,4.053027517524899,1.0486111111111103,4.0,585663.3263837765,PADK,2022-12-31 14:05,OVC,,,PADK 311405Z AUTO 35008KT OVC011 01/01 A2880 RMK P0001 T00100010 CIG 8V15  MADISHF
197,1672495800,-176.646,51.878,33.824999999999996,99.5575,350.0,7.0,0.01,,900.0,2916.6666666666665,2630.232558139535,,,,3.601108,-1.2155372436685128,6.893654271085456,-0.6253258417818044,3.546399077834286,1.0138888888888875,4.0,585663.3263837765,PADK,2022-12-31 14:10,OVC,,,PADK 311410Z AUTO 35007KT OVC009 01/01 A2880 RMK P0001 T00100010 CIG 7V13  MADISHF
198,1672495920,-176.646,51.878,33.8,100.0,360.0,8.0,0.01,,900.0,3100.0,2648.8372093023254,,,,4.115552,-1.959434878635765e-15,8.0,-1.0080195167048977e-15,4.115552,0.9999999999999984,4.0,585663.3263837765,PADK,2022-12-31 14:12,BKN,OVC,,PADK 311412Z AUTO 36008KT BKN009 OVC031 01/01 A2880 RMK AO2 CIG 007V013 P0001 PWINO FZRANO $
199,1672496100,-176.646,51.878,34.0,100.0,360.0,9.0,0.01,,900.0,3100.0,2676.7441860465115,,,,4.629996,-2.204364238465236e-15,9.0,-1.1340219562930098e-15,4.629996,1.1111111111111098,4.0,585663.3263837765,PADK,2022-12-31 14:15,BKN,OVC,,PADK 311415Z AUTO 36009KT BKN009 OVC031 01/01 A2880 RMK P0001 T00100010 CIG 7V13  MADISHF
200,1672496400,-176.646,51.878,34.33333333333333,100.0,360.0,7.0,0.01,,900.0,3100.0,2723.2558139534885,,,,3.601108,-1.7145055188062944e-15,7.0,-8.820170771167854e-16,3.601108,1.2962962962962954,4.0,585663.3263837765,PADK,2022-12-31 14:20,BKN,OVC,,PADK 311420Z AUTO 36007KT BKN009 OVC031 01/01 A2880 RMK P0001 T00100010 MADISHF
201,1672496700,-176.646,51.878,34.666666666666664,100.0,10.0,8.0,0.01,,900.0,3100.0,2769.767441860465,,,,4.115552,1.3891854213354426,7.878462024097664,0.7146581048934905,4.053027517524899,1.4814814814814812,4.0,585663.3263837765,PADK,2022-12-31 14:25,BKN,OVC,,PADK 311425Z AUTO 01008KT BKN009 OVC031 02/01 A2880 RMK P0001 T00200010 CIG 7V12  MADISHF
202,1672497000,-176.646,51.878,35.0,100.0,30.0,7.0,0.01,,900.0,3100.0,2816.279069767442,,,,3.601108,3.4999999999999996,6.062177826491071,1.8005539999999998,3.1186510097713724,1.6666666666666667,4.0,585663.3263837765,PADK,2022-12-31 14:30,BKN,OVC,,PADK 311430Z AUTO 03007KT BKN009 OVC031 02/01 A2880 RMK P0001 T00200010 CIG 7V12  MADISHF
203,1672497300,-176.646,51.878,35.333333333333336,100.0,70.0,9.0,0.01,,1100.0,3100.0,2862.7906976744184,,,,4.629996,8.457233587073175,3.0781812899310195,4.350773075468273,1.5835518955172734,1.8518518518518525,4.0,585663.3263837765,PADK,2022-12-31 14:35,BKN,OVC,,PADK 311435Z AUTO 07009KT BKN011 OVC031 02/02 A2880 RMK P0001 T00200020 MADISHF
204,1672497540,-176.646,51.878,35.6,100.0,70.0,8.0,0.01,,1100.0,1700.0,2900.0,,,,4.115552,7.5175409662872665,2.7361611466053506,3.867353844860687,1.407601684904243,2.000000000000001,4.0,585663.3263837765,PADK,2022-12-31 14:39,BKN,BKN,OVC,PADK 311439Z AUTO 07008KT BKN011 BKN017 OVC029 02/02 A2881 RMK AO2 P0001 PWINO FZRANO $
205,1672497600,-176.646,51.878,35.56470588235294,99.74764705882353,60.0,8.0,0.01,,1100.0,1700.0,2500.0,,,,4.115552,6.928203230275509,4.000000000000001,3.564172582595854,2.0577760000000005,1.9803921568627458,4.0,585663.3263837765,PADK,2022-12-31 14:40,BKN,BKN,OVC,PADK 311440Z AUTO 06008KT BKN011 BKN017 OVC025 02/02 A2880 RMK P0001 T00200020 MADISHF
206,1672497900,-176.646,51.878,35.38823529411765,98.48588235294118,70.0,7.0,0.02,,1100.0,1700.0,2500.0,,,,3.601108,6.5778483455013586,2.3941410032796817,3.383934614253101,1.2316514742912126,1.8823529411764712,4.0,585663.3263837765,PADK,2022-12-31 14:45,BKN,BKN,OVC,PADK 311445Z AUTO 07007KT BKN011 BKN017 OVC025 02/02 A2881 RMK P0002 T00200020 CIG 7V12  MADISHF
207,1672498200,-176.646,51.878,35.21176470588235,97.22411764705882,60.0,7.0,0.02,,1300.0,2500.0,2537.5,,,,3.601108,6.06217782649107,3.500000000000001,3.118651009771372,1.8005540000000004,1.7843137254901964,4.0,585663.3263837765,PADK,2022-12-31 14:50,BKN,OVC,,PADK 311450Z AUTO 06007KT BKN013 OVC025 02/02 A2881 RMK P0002 T00200020 MADISHF
208,1672498500,-176.646,51.878,35.03529411764706,95.96235294117646,60.0,7.0,0.02,,1300.0,2500.0,2575.0,,,,3.601108,6.06217782649107,3.500000000000001,3.118651009771372,1.8005540000000004,1.6862745098039218,4.0,585663.3263837765,PADK,2022-12-31 14:55,BKN,OVC,,PADK 311455Z AUTO 06007KT BKN013 OVC025 02/01 A2881 RMK P0002 T00200010 MADISHF
209,1672498560,-176.646,51.878,35.0,95.71,60.0,7.0,0.02,,1300.0,2500.0,2582.5,,,,3.601108,6.06217782649107,3.500000000000001,3.118651009771372,1.8005540000000004,1.6666666666666667,4.0,585663.3263837765,PADK,2022-12-31 14:56,BKN,OVC,,PADK 311456Z AUTO 06007KT BKN013 OVC025 02/01 A2881 RMK AO2 SLP756 P0002 60003 T00170011 51007 PWINO FZRANO $
210,1672498800,-176.646,51.878,34.91428571428571,96.01642857142856,50.0,8.0,0.017142857142857144,,1300.0,2500.0,2612.5,,,,4.115552,6.128355544951824,5.142300877492315,3.1526957399671964,2.6454258326206563,1.619047619047619,4.0,585663.3263837765,PADK,2022-12-31 15:00,BKN,OVC,,PADK 311500Z AUTO 05008KT BKN013 OVC025 02/01 A2881 RMK T00200010 MADISHF
211,1672499100,-176.646,51.878,34.80714285714286,96.39946428571427,40.0,7.0,0.013571428571428571,,1300.0,2500.0,2650.0,,,,3.601108,4.499513267805774,5.362311101832846,2.314747603543074,2.758608772471297,1.5595238095238093,4.0,585663.3263837765,PADK,2022-12-31 15:05,BKN,OVC,,PADK 311505Z AUTO 04007KT BKN013 OVC025 02/01 A2881 RMK T00200010 MADISHF
212,1672499400,-176.646,51.878,34.7,96.7825,50.0,7.0,0.01,,1300.0,2333.3333333333335,2687.5,,,,3.601108,5.362311101832846,4.499513267805775,2.758608772471297,2.3147476035430743,1.4999999999999996,4.0,585663.3263837765,PADK,2022-12-31 15:10,OVC,,,PADK 311510Z AUTO 05007KT OVC013 02/01 A2881 RMK P0001 T00200010 MADISHF
213,1672499700,-176.646,51.878,34.59285714285714,97.16553571428571,40.0,5.0,0.01,,1300.0,2166.6666666666665,2725.0,,,,2.57222,3.2139380484326963,3.83022221559489,1.6533911453879102,1.9704348374794978,1.44047619047619,4.0,585663.3263837765,PADK,2022-12-31 15:15,OVC,,,PADK 311515Z AUTO 04005KT OVC013 02/01 A2881 RMK P0001 T00200010 MADISHF
214,1672500000,-176.646,51.878,34.48571428571429,97.54857142857142,40.0,5.0,0.01,,1300.0,2000.0,2762.5,,,,2.57222,3.2139380484326963,3.83022221559489,1.6533911453879102,1.9704348374794978,1.3809523809523803,4.0,585663.3263837765,PADK,2022-12-31 15:20,BKN,OVC,,PADK 311520Z AUTO 04005KT BKN013 OVC020 02/01 A2881 RMK P0001 T00200010 MADISHF
215,1672500300,-176.646,51.878,34.378571428571426,97.93160714285715,10.0,4.0,0.01,,1300.0,2000.0,2800.0,,,,2.057776,0.6945927106677213,3.939231012048832,0.35732905244674523,2.0265137587624493,1.3214285714285707,4.0,585663.3263837765,PADK,2022-12-31 15:25,BKN,BKN,OVC,PADK 311525Z AUTO 01004KT BKN013 BKN020 OVC028 01/01 A2881 RMK P0001 T00100010 MADISHF
216,1672500600,-176.646,51.878,34.27142857142857,98.31464285714286,10.0,4.0,0.01,,1300.0,2800.0,2766.6666666666665,,,,2.057776,0.6945927106677213,3.939231012048832,0.35732905244674523,2.0265137587624493,1.261904761904761,4.0,585663.3263837765,PADK,2022-12-31 15:30,BKN,OVC,,PADK 311530Z AUTO 01004KT BKN013 OVC028 01/01 A2882 RMK P0001 T00100010 MADISHF
217,1672500900,-176.646,51.878,34.16428571428571,98.69767857142857,10.0,5.0,0.01,,1300.0,2800.0,2733.3333333333335,,,,2.57222,0.8682408883346516,4.92403876506104,0.4466613155584316,2.5331421984530618,1.2023809523809512,4.0,585663.3263837765,PADK,2022-12-31 15:35,BKN,OVC,,PADK 311535Z AUTO 01005KT BKN013 OVC028 01/01 A2882 RMK P0001 T00100010 MADISHF
218,1672501200,-176.646,51.878,34.05714285714286,99.08071428571428,350.0,5.0,0.01,,1300.0,2800.0,2700.0,,,,2.57222,-0.868240888334652,4.92403876506104,-0.4466613155584317,2.5331421984530618,1.1428571428571417,4.0,585663.3263837765,PADK,2022-12-31 15:40,BKN,OVC,,PADK 311540Z AUTO 35005KT BKN013 OVC028 01/01 A2882 RMK P0001 T00100010 MADISHF
219,1672501500,-176.646,51.878,33.949999999999996,99.46375,330.0,4.0,0.01,,1300.0,2800.0,2666.6666666666665,,,,2.057776,-2.0000000000000018,3.4641016151377535,-1.028888000000001,1.7820862912979265,1.0833333333333321,4.0,585663.3263837765,PADK,2022-12-31 15:45,BKN,OVC,,PADK 311545Z AUTO 33004KT BKN013 OVC028 01/01 A2882 RMK P0001 T00100010 MADISHF
220,1672501800,-176.646,51.878,33.84285714285714,99.84678571428572,330.0,4.0,0.01,,1300.0,2600.0,2633.3333333333335,,,,2.057776,-2.0000000000000018,3.4641016151377535,-1.028888000000001,1.7820862912979265,1.0238095238095224,4.0,585663.3263837765,PADK,2022-12-31 15:50,SCT,OVC,,PADK 311550Z AUTO 33004KT SCT013 OVC026 01/01 A2882 RMK P0001 T00100010 MADISHF
221,1672501920,-176.646,51.878,33.8,100.0,330.0,5.0,0.01,,1300.0,2600.0,2620.0,,,,2.57222,-2.500000000000002,4.330127018922192,-1.2861100000000012,2.227607864122408,0.9999999999999984,4.0,585663.3263837765,PADK,2022-12-31 15:52,SCT,OVC,,PADK 311552Z AUTO 33005KT SCT013 OVC026 01/01 A2882 RMK AO2 P0001 PWINO FZRANO $
222,1672502100,-176.646,51.878,33.95,97.345,330.0,4.0,0.01,,1300.0,1900.0,2600.0,,,,2.057776,-2.0000000000000018,3.4641016151377535,-1.028888000000001,1.7820862912979265,1.083333333333333,4.0,585663.3263837765,PADK,2022-12-31 15:55,FEW,SCT,OVC,PADK 311555Z AUTO 33004KT FEW013 SCT019 OVC026 01/01 A2882 RMK P0001 T00100010 MADISHF
223,1672502160,-176.646,51.878,34.0,96.46,330.0,4.0,0.01,,1300.0,1900.0,2600.0,,,,2.057776,-2.0000000000000018,3.4641016151377535,-1.028888000000001,1.7820862912979265,1.1111111111111112,4.0,585663.3263837765,PADK,2022-12-31 15:56,FEW,SCT,OVC,PADK 311556Z AUTO 33004KT FEW013 SCT019 OVC026 01/01 A2882 RMK AO2 SLP759 P0001 T00110006 PWINO FZRANO $
224,1672502400,-176.646,51.878,34.13333333333333,96.18599999999999,330.0,4.0,0.01,,1300.0,1700.0,2500.0,,,,2.057776,-2.0000000000000018,3.4641016151377535,-1.028888000000001,1.7820862912979265,1.1851851851851851,4.0,585663.3263837765,PADK,2022-12-31 16:00,FEW,SCT,OVC,PADK 311600Z AUTO 33004KT FEW013 SCT017 OVC025 01/01 A2882 RMK T00100010 MADISHF
225,1672502700,-176.646,51.878,34.3,95.84349999999999,360.0,5.0,0.01,,1300.0,2300.0,2765.625,,,,2.57222,-1.2246467991473533e-15,5.0,-6.30012197940561e-16,2.57222,1.277777777777778,4.0,585663.3263837765,PADK,2022-12-31 16:05,FEW,OVC,,PADK 311605Z AUTO 36005KT FEW013 OVC023 01/01 A2882 RMK P0001 T00100010 MADISHF
226,1672503000,-176.646,51.878,34.46666666666667,95.50099999999999,10.0,5.0,0.01,,2100.0,2400.0,3031.25,,,,2.57222,0.8682408883346516,4.92403876506104,0.4466613155584316,2.5331421984530618,1.3703703703703705,4.0,585663.3263837765,PADK,2022-12-31 16:10,OVC,,,PADK 311610Z AUTO 01005KT OVC021 01/01 A2882 RMK P0001 T00100010 MADISHF
227,1672503300,-176.646,51.878,34.63333333333333,95.15849999999999,10.0,8.0,0.01,,2100.0,2500.0,3296.875,,,,4.115552,1.3891854213354426,7.878462024097664,0.7146581048934905,4.053027517524899,1.462962962962963,4.0,585663.3263837765,PADK,2022-12-31 16:15,BKN,OVC,,PADK 311615Z AUTO 01008KT BKN021 OVC025 02/01 A2883 RMK P0001 T00200010 MADISHF
228,1672503600,-176.646,51.878,34.8,94.81599999999999,10.0,9.0,0.01,,2100.0,2895.8333333333335,3562.5,,,,4.629996,1.562833599002373,8.863269777109872,0.8039903680051768,4.5596559572155115,1.5555555555555556,4.0,585663.3263837765,PADK,2022-12-31 16:20,OVC,,,PADK 311620Z AUTO 01009KT OVC021 02/01 A2883 RMK P0001 T00200010 MADISHF
229,1672503900,-176.646,51.878,34.96666666666667,94.47349999999999,20.0,9.0,0.01,,2100.0,3291.6666666666665,3828.125,,,,4.629996,3.0781812899310186,8.457233587073176,1.583551895517273,4.350773075468273,1.6481481481481484,4.0,585663.3263837765,PADK,2022-12-31 16:25,OVC,,,PADK 311625Z AUTO 02009KT OVC021 02/01 A2883 RMK P0001 T00200010 MADISHF
230,1672504200,-176.646,51.878,35.13333333333333,94.131,20.0,9.0,0.01,,2100.0,3687.5,4093.75,,,,4.629996,3.0781812899310186,8.457233587073176,1.583551895517273,4.350773075468273,1.740740740740741,4.0,585663.3263837765,PADK,2022-12-31 16:30,OVC,,,PADK 311630Z AUTO 02009KT OVC021 02/01 A2883 RMK P0001 T00200010 MADISHF
231,1672504500,-176.646,51.878,35.3,93.7885,20.0,8.0,0.01,,2100.0,4083.333333333333,4359.375,,,,4.115552,2.7361611466053497,7.517540966287267,1.4076016849042425,3.8673538448606872,1.8333333333333335,4.0,585663.3263837765,PADK,2022-12-31 16:35,OVC,,,PADK 311635Z AUTO 02008KT OVC021 02/02 A2883 RMK P0001 T00200020 MADISHF
232,1672504800,-176.646,51.878,35.46666666666667,93.446,30.0,9.0,0.01,,2300.0,4479.166666666666,4625.0,,,,4.629996,4.499999999999999,7.794228634059948,2.3149979999999997,4.009694155420337,1.925925925925926,4.0,585663.3263837765,PADK,2022-12-31 16:40,OVC,,,PADK 311640Z AUTO 03009KT OVC023 02/01 A2883 RMK P0001 T00200010 MADISHF
233,1672505100,-176.646,51.878,35.63333333333333,93.1035,20.0,10.0,0.01,,2300.0,4875.0,4890.625,,,,5.14444,3.420201433256687,9.396926207859085,1.7595021061303033,4.834192306075859,2.0185185185185186,4.0,585663.3263837765,PADK,2022-12-31 16:45,OVC,,,PADK 311645Z AUTO 02010KT OVC023 02/01 A2883 RMK P0001 T00200010 MADISHF
234,1672505400,-176.646,51.878,35.8,92.761,20.0,11.0,0.01,,2300.0,5270.833333333333,5156.25,,,,5.6588840000000005,3.762221576582356,10.336618828644992,1.9354523167433337,5.317611536683445,2.111111111111111,4.0,585663.3263837765,PADK,2022-12-31 16:50,OVC,,,PADK 311650Z AUTO 02011KT OVC023 02/01 A2883 RMK P0001 T00200010 MADISHF
235,1672505700,-176.646,51.878,35.96666666666667,92.4185,20.0,10.0,0.01,,2500.0,5666.666666666666,5421.875,,,,5.14444,3.420201433256687,9.396926207859085,1.7595021061303033,4.834192306075859,2.2037037037037037,4.0,585663.3263837765,PADK,2022-12-31 16:55,OVC,,,PADK 311655Z AUTO 02010KT OVC025 02/01 A2883 RMK P0001 T00200010 MADISHF
236,1672505760,-176.646,51.878,36.0,92.35,30.0,10.0,0.01,,2500.0,5745.833333333333,5475.0,,,,5.14444,4.999999999999999,8.660254037844387,2.5722199999999997,4.455215728244818,2.2222222222222223,4.0,585663.3263837765,PADK,2022-12-31 16:56,OVC,,,PADK 311656Z AUTO 03010KT OVC025 02/01 A2883 RMK AO2 SLP764 P0001 T00220011 PWINO FZRANO $
237,1672506000,-176.646,51.878,35.946666666666665,91.582,20.0,10.0,0.008666666666666666,,2500.0,6062.5,5687.5,,,,5.14444,3.420201433256687,9.396926207859085,1.7595021061303033,4.834192306075859,2.1925925925925926,4.0,585663.3263837765,PADK,2022-12-31 17:00,OVC,,,PADK 311700Z AUTO 02010KT OVC025 02/01 A2883 RMK T00200010 MADISHF
238,1672506300,-176.646,51.878,35.88,90.622,30.0,10.0,0.007,,2500.0,6458.333333333333,5953.125,,,,5.14444,4.999999999999999,8.660254037844387,2.5722199999999997,4.455215728244818,2.155555555555556,4.0,585663.3263837765,PADK,2022-12-31 17:05,OVC,,,PADK 311705Z AUTO 03010KT OVC025 02/01 A2883 RMK T00200010 MADISHF
239,1672506600,-176.646,51.878,35.81333333333333,89.66199999999999,30.0,11.0,0.005333333333333333,,2500.0,6854.166666666667,6218.75,,,,5.6588840000000005,5.499999999999999,9.526279441628827,2.829442,4.9007373010693005,2.118518518518519,4.0,585663.3263837765,PADK,2022-12-31 17:10,OVC,,,PADK 311710Z AUTO 03011KT OVC025 02/01 A2883 RMK T00200010 MADISHF
240,1672506900,-176.646,51.878,35.74666666666667,88.702,30.0,11.0,0.003666666666666666,,2500.0,7250.0,6484.375,,,,5.6588840000000005,5.499999999999999,9.526279441628827,2.829442,4.9007373010693005,2.081481481481482,4.0,585663.3263837765,PADK,2022-12-31 17:15,BKN,,,PADK 311715Z AUTO 03011KT BKN025 02/01 A2884 RMK T00200010 MADISHF
241,1672507200,-176.646,51.878,35.68,87.742,30.0,10.0,0.002,,2500.0,7645.833333333333,6750.0,,,,5.14444,4.999999999999999,8.660254037844387,2.5722199999999997,4.455215728244818,2.044444444444445,4.0,585663.3263837765,PADK,2022-12-31 17:20,SCT,,,PADK 311720Z AUTO 03010KT SCT025 02/01 A2884 RMK T00200010 MADISHF
242,1672507500,-176.646,51.878,35.61333333333334,86.78200000000001,30.0,10.0,0.00033333333333333305,,2500.0,8041.666666666666,7015.625,,,,5.14444,4.999999999999999,8.660254037844387,2.5722199999999997,4.455215728244818,2.0074074074074084,4.0,585663.3263837765,PADK,2022-12-31 17:25,SCT,,,PADK 311725Z AUTO 03010KT SCT025 02/01 A2884 RMK T00200010 MADISHF
243,1672507560,-176.646,51.878,35.6,86.59,30.0,10.0,0.0,,2500.0,8120.833333333333,7068.75,,,,5.14444,4.999999999999999,8.660254037844387,2.5722199999999997,4.455215728244818,2.000000000000001,4.0,585663.3263837765,PADK,2022-12-31 17:26,SCT,,,PADK 311726Z AUTO 03010KT SCT025 02/00 A2884 RMK AO2 PWINO FZRANO $
244,1672507800,-176.646,51.878,35.52,86.822,20.0,10.0,0.0,,2500.0,8437.5,7281.25,,,,5.14444,3.420201433256687,9.396926207859085,1.7595021061303033,4.834192306075859,1.9555555555555564,4.0,585663.3263837765,PADK,2022-12-31 17:30,FEW,,,PADK 311730Z AUTO 02010KT FEW025 02/00 A2884 RMK T00200000 MADISHF
245,1672508100,-176.646,51.878,35.42,87.112,30.0,10.0,0.0,,2500.0,8833.333333333332,7546.875,,,,5.14444,4.999999999999999,8.660254037844387,2.5722199999999997,4.455215728244818,1.9000000000000006,4.0,585663.3263837765,PADK,2022-12-31 17:35,FEW,,,PADK 311735Z AUTO 03010KT FEW025 02/00 A2884 RMK T00200000 MADISHF
246,1672508400,-176.646,51.878,35.32,87.402,30.0,8.0,0.0,,2800.0,9229.166666666666,7812.5,,,,4.115552,3.9999999999999996,6.92820323027551,2.0577759999999996,3.5641725825958543,1.844444444444445,4.0,585663.3263837765,PADK,2022-12-31 17:40,CLR,,,PADK 311740Z AUTO 03008KT CLR 02/00 A2884 RMK T00200000 MADISHF
247,1672508700,-176.646,51.878,35.22,87.69200000000001,20.0,7.0,0.0,,3100.0,9625.0,8078.125,,,,3.601108,2.394141003279681,6.5778483455013586,1.2316514742912121,3.3839346142531013,1.7888888888888892,4.0,585663.3263837765,PADK,2022-12-31 17:45,CLR,,,PADK 311745Z AUTO 02007KT CLR 02/00 A2884 RMK T00200000 MADISHF
248,1672509000,-176.646,51.878,35.12,87.982,20.0,7.0,0.0,,3400.0,10020.833333333332,8343.75,,,,3.601108,2.394141003279681,6.5778483455013586,1.2316514742912121,3.3839346142531013,1.7333333333333336,4.0,585663.3263837765,PADK,2022-12-31 17:50,SCT,,,PADK 311750Z AUTO 02007KT SCT034 02/00 A2884 RMK T00200000 MADISHF
249,1672509300,-176.646,51.878,35.02,88.272,20.0,8.0,0.0,,3400.0,10416.666666666666,8609.375,,,,4.115552,2.7361611466053497,7.517540966287267,1.4076016849042425,3.8673538448606872,1.6777777777777778,4.0,585663.3263837765,PADK,2022-12-31 17:55,BKN,,,PADK 311755Z AUTO 02008KT BKN034 02/00 A2884 RMK T00200000 MADISHF
250,1672509360,-176.646,51.878,35.0,88.33,30.0,8.0,0.0,,3400.0,10495.833333333332,8662.5,,,,4.115552,3.9999999999999996,6.92820323027551,2.0577759999999996,3.5641725825958543,1.6666666666666667,4.0,585663.3263837765,PADK,2022-12-31 17:56,BKN,,,PADK 311756Z AUTO 03008KT BKN034 02/00 A2885 RMK AO2 SLP768 60005 T00170000 10022 20011 53009 PWINO FZRANO $
251,1672509600,-176.646,51.878,34.93333333333333,88.11533333333333,20.0,7.0,0.0,,3400.0,10812.5,8875.0,,,,3.601108,2.394141003279681,6.5778483455013586,1.2316514742912121,3.3839346142531013,1.6296296296296298,4.0,585663.3263837765,PADK,2022-12-31 18:00,BKN,,,PADK 311800Z AUTO 02007KT BKN034 02/00 A2885 RMK T00200000 MADISHF
252,1672509900,-176.646,51.878,34.85,87.847,10.0,8.0,0.0,,3400.0,11208.333333333334,9140.625,,,,4.115552,1.3891854213354426,7.878462024097664,0.7146581048934905,4.053027517524899,1.5833333333333335,4.0,585663.3263837765,PADK,2022-12-31 18:05,BKN,,,PADK 311805Z AUTO 01008KT BKN034 02/00 A2885 RMK T00200000 MADISHF
253,1672510200,-176.646,51.878,34.766666666666666,87.57866666666666,20.0,9.0,0.0,,3400.0,11604.166666666666,9406.25,,,,4.629996,3.0781812899310186,8.457233587073176,1.583551895517273,4.350773075468273,1.5370370370370372,4.0,585663.3263837765,PADK,2022-12-31 18:10,OVC,,,PADK 311810Z AUTO 02009KT OVC034 02/00 A2885 RMK T00200000 MADISHF
254,1672510500,-176.646,51.878,34.68333333333333,87.31033333333333,20.0,8.0,0.0,,3400.0,12000.0,9671.875,,,,4.115552,2.7361611466053497,7.517540966287267,1.4076016849042425,3.8673538448606872,1.490740740740741,4.0,585663.3263837765,PADK,2022-12-31 18:15,BKN,OVC,,PADK 311815Z AUTO 02008KT BKN034 OVC120 02/00 A2885 RMK T00200000 MADISHF
255,1672510800,-176.646,51.878,34.6,87.042,20.0,9.0,0.0,,3400.0,12000.0,9937.5,,,,4.629996,3.0781812899310186,8.457233587073176,1.583551895517273,4.350773075468273,1.4444444444444444,4.0,585663.3263837765,PADK,2022-12-31 18:20,BKN,BKN,,PADK 311820Z AUTO 02009KT BKN034 BKN120 02/M01 A2885 RMK T00201010 MADISHF
256,1672511100,-176.646,51.878,34.516666666666666,86.77366666666667,20.0,9.0,0.0,,3400.0,12000.0,10203.125,,,,4.629996,3.0781812899310186,8.457233587073176,1.583551895517273,4.350773075468273,1.3981481481481481,4.0,585663.3263837765,PADK,2022-12-31 18:25,BKN,BKN,,PADK 311825Z AUTO 02009KT BKN034 BKN120 02/M01 A2886 RMK T00201010 MADISHF
257,1672511400,-176.646,51.878,34.43333333333333,86.50533333333333,20.0,9.0,0.0,,3400.0,12000.0,10468.75,,,,4.629996,3.0781812899310186,8.457233587073176,1.583551895517273,4.350773075468273,1.3518518518518519,4.0,585663.3263837765,PADK,2022-12-31 18:30,SCT,BKN,,PADK 311830Z AUTO 02009KT SCT034 BKN120 02/M01 A2886 RMK T00201010 MADISHF
258,1672511700,-176.646,51.878,34.35,86.237,20.0,8.0,0.0,,3000.0,11000.0,10734.375,,,,4.115552,2.7361611466053497,7.517540966287267,1.4076016849042425,3.8673538448606872,1.3055555555555556,4.0,585663.3263837765,PADK,2022-12-31 18:35,FEW,BKN,,PADK 311835Z AUTO 02008KT FEW030 BKN110 02/M01 A2886 RMK T00201010 MADISHF
259,1672512000,-176.646,51.878,34.266666666666666,85.96866666666666,20.0,7.0,0.0,,3000.0,3800.0,11000.0,,,,3.601108,2.394141003279681,6.5778483455013586,1.2316514742912121,3.3839346142531013,1.2592592592592593,4.0,585663.3263837765,PADK,2022-12-31 18:40,FEW,SCT,BKN,PADK 311840Z AUTO 02007KT FEW030 SCT038 BKN110 01/M01 A2886 RMK T00101010 MADISHF
260,1672512300,-176.646,51.878,34.18333333333333,85.70033333333333,10.0,7.0,0.0,,3000.0,11000.0,10744.827586206897,,,,3.601108,1.2155372436685123,6.893654271085456,0.6253258417818042,3.546399077834286,1.212962962962963,4.0,585663.3263837765,PADK,2022-12-31 18:45,FEW,BKN,,PADK 311845Z AUTO 01007KT FEW030 BKN110 01/M01 A2886 RMK T00101010 MADISHF
261,1672512600,-176.646,51.878,34.1,85.432,20.0,7.0,0.0,,3000.0,11000.0,10489.655172413793,,,,3.601108,2.394141003279681,6.5778483455013586,1.2316514742912121,3.3839346142531013,1.1666666666666667,4.0,585663.3263837765,PADK,2022-12-31 18:50,FEW,BKN,,PADK 311850Z AUTO 02007KT FEW030 BKN110 01/M01 A2886 RMK T00101010 MADISHF
262,1672512900,-176.646,51.878,34.016666666666666,85.16366666666667,20.0,8.0,0.0,,3200.0,11000.0,10234.48275862069,,,,4.115552,2.7361611466053497,7.517540966287267,1.4076016849042425,3.8673538448606872,1.1203703703703705,4.0,585663.3263837765,PADK,2022-12-31 18:55,SCT,BKN,,PADK 311855Z AUTO 02008KT SCT032 BKN110 01/M01 A2886 RMK T00101010 MADISHF
263,1672512960,-176.646,51.878,34.0,85.11,20.0,8.0,0.0,,3200.0,11000.0,10183.448275862069,,,,4.115552,2.7361611466053497,7.517540966287267,1.4076016849042425,3.8673538448606872,1.1111111111111112,4.0,585663.3263837765,PADK,2022-12-31 18:56,SCT,BKN,,PADK 311856Z AUTO 02008KT SCT032 BKN110 01/M01 A2886 RMK AO2 SLP774 T00111011 PWINO FZRANO $
264,1672513200,-176.646,51.878,34.0,85.11,10.0,8.0,0.0,,3200.0,11000.0,9979.310344827587,,,,4.115552,1.3891854213354426,7.878462024097664,0.7146581048934905,4.053027517524899,1.1111111111111112,4.0,585663.3263837765,PADK,2022-12-31 19:00,SCT,BKN,,PADK 311900Z AUTO 01008KT SCT032 BKN110 01/M01 A2886 RMK T00101010 MADISHF
265,1672513500,-176.646,51.878,34.0,85.11,20.0,8.0,0.0,,3200.0,11000.0,9724.137931034482,,,,4.115552,2.7361611466053497,7.517540966287267,1.4076016849042425,3.8673538448606872,1.1111111111111112,4.0,585663.3263837765,PADK,2022-12-31 19:05,SCT,BKN,,PADK 311905Z AUTO 02008KT SCT032 BKN110 01/M01 A2887 RMK T00101010 MADISHF
266,1672513800,-176.646,51.878,34.0,85.11,10.0,8.0,0.0,,3200.0,11000.0,9468.965517241379,,,,4.115552,1.3891854213354426,7.878462024097664,0.7146581048934905,4.053027517524899,1.1111111111111112,4.0,585663.3263837765,PADK,2022-12-31 19:10,BKN,BKN,,PADK 311910Z AUTO 01008KT BKN032 BKN110 01/M01 A2887 RMK T00101010 MADISHF
267,1672514100,-176.646,51.878,34.0,85.11,10.0,8.0,0.0,,3200.0,10630.0,9213.793103448275,,,,4.115552,1.3891854213354426,7.878462024097664,0.7146581048934905,4.053027517524899,1.1111111111111112,4.0,585663.3263837765,PADK,2022-12-31 19:15,BKN,,,PADK 311915Z AUTO 01008KT BKN032 01/M01 A2887 RMK T00101010 MADISHF
268,1672514400,-176.646,51.878,34.0,85.11,20.0,8.0,0.0,,3000.0,10260.0,8958.620689655172,,,,4.115552,2.7361611466053497,7.517540966287267,1.4076016849042425,3.8673538448606872,1.1111111111111112,4.0,585663.3263837765,PADK,2022-12-31 19:20,BKN,,,PADK 311920Z AUTO 02008KT BKN030 01/M01 A2887 RMK T00101010 MADISHF
269,1672514700,-176.646,51.878,34.0,85.11,20.0,7.0,0.0,,3000.0,9890.0,8703.448275862069,,,,3.601108,2.394141003279681,6.5778483455013586,1.2316514742912121,3.3839346142531013,1.1111111111111112,4.0,585663.3263837765,PADK,2022-12-31 19:25,BKN,,,PADK 311925Z AUTO 02007KT BKN030 01/M01 A2887 RMK T00101010 MADISHF
270,1672515000,-176.646,51.878,34.0,85.11,10.0,7.0,0.0,,3000.0,9520.0,8448.275862068966,,,,3.601108,1.2155372436685123,6.893654271085456,0.6253258417818042,3.546399077834286,1.1111111111111112,4.0,585663.3263837765,PADK,2022-12-31 19:30,BKN,,,PADK 311930Z AUTO 01007KT BKN030 01/M01 A2887 RMK T00101010 MADISHF
271,1672515300,-176.646,51.878,34.0,85.11,20.0,7.0,0.0,,3000.0,9150.0,8193.103448275862,,,,3.601108,2.394141003279681,6.5778483455013586,1.2316514742912121,3.3839346142531013,1.1111111111111112,4.0,585663.3263837765,PADK,2022-12-31 19:35,BKN,,,PADK 311935Z AUTO 02007KT BKN030 01/M01 A2887 RMK T00101010 MADISHF
272,1672515600,-176.646,51.878,34.0,85.11,20.0,7.0,0.0,,3000.0,8780.0,7937.931034482759,,,,3.601108,2.394141003279681,6.5778483455013586,1.2316514742912121,3.3839346142531013,1.1111111111111112,4.0,585663.3263837765,PADK,2022-12-31 19:40,SCT,,,PADK 311940Z AUTO 02007KT SCT030 01/M01 A2888 RMK T00101010 MADISHF
273,1672516200,-176.646,51.878,34.0,85.11,20.0,7.0,0.0,,3000.0,8040.0,7427.5862068965525,,,,3.601108,2.394141003279681,6.5778483455013586,1.2316514742912121,3.3839346142531013,1.1111111111111112,4.0,585663.3263837765,PADK,2022-12-31 19:50,BKN,,,PADK 311950Z AUTO 02007KT BKN030 01/M01 A2888 RMK T00101010 MADISHF
274,1672516500,-176.646,51.878,34.0,85.11,20.0,8.0,0.0,,3000.0,7670.0,7172.413793103448,,,,4.115552,2.7361611466053497,7.517540966287267,1.4076016849042425,3.8673538448606872,1.1111111111111112,4.0,585663.3263837765,PADK,2022-12-31 19:55,BKN,,,PADK 311955Z AUTO 02008KT BKN030 01/M01 A2888 RMK T00101010 MADISHF
275,1672516560,-176.646,51.878,34.0,85.11,30.0,7.0,0.0,,3000.0,7596.0,7121.379310344828,,,,3.601108,3.4999999999999996,6.062177826491071,1.8005539999999998,3.1186510097713724,1.1111111111111112,4.0,585663.3263837765,PADK,2022-12-31 19:56,BKN,,,PADK 311956Z AUTO 03007KT BKN030 01/M01 A2888 RMK AO2 SLP780 T00111011 PWINO FZRANO $
276,1672516800,-176.646,51.878,34.06666666666667,85.06866666666667,30.0,7.0,0.0,,3000.0,7300.0,6917.241379310345,,,,3.601108,3.4999999999999996,6.062177826491071,1.8005539999999998,3.1186510097713724,1.1481481481481481,4.0,585663.3263837765,PADK,2022-12-31 20:00,BKN,,,PADK 312000Z AUTO 03007KT BKN030 01/M01 A2888 RMK T00101010 MADISHF
277,1672517100,-176.646,51.878,34.15,85.017,20.0,8.0,0.0,,3000.0,6930.0,6662.068965517242,,,,4.115552,2.7361611466053497,7.517540966287267,1.4076016849042425,3.8673538448606872,1.1944444444444444,4.0,585663.3263837765,PADK,2022-12-31 20:05,BKN,,,PADK 312005Z AUTO 02008KT BKN030 01/M01 A2889 RMK T00101010 MADISHF
278,1672517400,-176.646,51.878,34.233333333333334,84.96533333333333,30.0,7.0,0.0,,3000.0,6560.0,6406.896551724139,,,,3.601108,3.4999999999999996,6.062177826491071,1.8005539999999998,3.1186510097713724,1.2407407407407407,4.0,585663.3263837765,PADK,2022-12-31 20:10,BKN,,,PADK 312010Z AUTO 03007KT BKN030 01/M01 A2889 RMK T00101010 MADISHF
279,1672517700,-176.646,51.878,34.31666666666667,84.91366666666667,40.0,10.0,0.0,,3000.0,6190.0,6151.724137931034,,,,5.14444,6.4278760968653925,7.66044443118978,3.3067822907758204,3.9408696749589955,1.2870370370370372,4.0,585663.3263837765,PADK,2022-12-31 20:15,SCT,,,PADK 312015Z AUTO 04010KT SCT030 01/M01 A2889 RMK T00101010 MADISHF
280,1672518000,-176.646,51.878,34.4,84.862,10.0,8.0,0.0,,3000.0,5820.0,5896.551724137931,,,,4.115552,1.3891854213354426,7.878462024097664,0.7146581048934905,4.053027517524899,1.3333333333333335,4.0,585663.3263837765,PADK,2022-12-31 20:20,BKN,,,PADK 312020Z AUTO 01008KT BKN030 02/M01 A2889 RMK T00201010 MADISHF
281,1672518300,-176.646,51.878,34.483333333333334,84.81033333333333,10.0,5.0,0.0,,3000.0,5450.0,5641.379310344828,,,,2.57222,0.8682408883346516,4.92403876506104,0.4466613155584316,2.5331421984530618,1.3796296296296298,4.0,585663.3263837765,PADK,2022-12-31 20:25,BKN,,,PADK 312025Z AUTO 01005KT BKN030 02/M01 A2889 RMK T00201010 MADISHF
282,1672518600,-176.646,51.878,34.56666666666667,84.75866666666667,20.0,5.0,0.0,,3000.0,5080.0,5386.206896551725,,,,2.57222,1.7101007166283435,4.698463103929543,0.8797510530651517,2.4170961530379294,1.425925925925926,4.0,585663.3263837765,PADK,2022-12-31 20:30,BKN,,,PADK 312030Z AUTO 02005KT BKN030 02/M01 A2889 RMK T00201010 MADISHF
283,1672518900,-176.646,51.878,34.65,84.707,20.0,8.0,0.0,,3000.0,4710.0,5131.034482758621,,,,4.115552,2.7361611466053497,7.517540966287267,1.4076016849042425,3.8673538448606872,1.4722222222222223,4.0,585663.3263837765,PADK,2022-12-31 20:35,BKN,,,PADK 312035Z AUTO 02008KT BKN030 02/M01 A2889 RMK T00201010 MADISHF
284,1672519200,-176.646,51.878,34.733333333333334,84.65533333333333,20.0,7.0,0.0,,3000.0,4340.0,4875.862068965517,,,,3.601108,2.394141003279681,6.5778483455013586,1.2316514742912121,3.3839346142531013,1.5185185185185186,4.0,585663.3263837765,PADK,2022-12-31 20:40,BKN,,,PADK 312040Z AUTO 02007KT BKN030 02/M01 A2889 RMK T00201010 MADISHF
285,1672519500,-176.646,51.878,34.81666666666667,84.60366666666667,20.0,7.0,0.0,,3000.0,3969.999999999999,4620.689655172414,,,,3.601108,2.394141003279681,6.5778483455013586,1.2316514742912121,3.3839346142531013,1.5648148148148149,4.0,585663.3263837765,PADK,2022-12-31 20:45,OVC,,,PADK 312045Z AUTO 02007KT OVC030 02/M01 A2890 RMK T00201010 MADISHF
286,1672519800,-176.646,51.878,34.9,84.55199999999999,20.0,8.0,0.0,,3000.0,3600.0,4365.517241379311,,,,4.115552,2.7361611466053497,7.517540966287267,1.4076016849042425,3.8673538448606872,1.6111111111111112,4.0,585663.3263837765,PADK,2022-12-31 20:50,BKN,OVC,,PADK 312050Z AUTO 02008KT BKN030 OVC036 02/M01 A2890 RMK T00201010 MADISHF
287,1672520100,-176.646,51.878,34.983333333333334,84.50033333333333,30.0,7.0,0.0,,3000.0,3500.0,4110.344827586207,,,,3.601108,3.4999999999999996,6.062177826491071,1.8005539999999998,3.1186510097713724,1.6574074074074074,4.0,585663.3263837765,PADK,2022-12-31 20:55,BKN,OVC,,PADK 312055Z AUTO 03007KT BKN030 OVC035 02/M01 A2890 RMK T00201010 MADISHF
288,1672520160,-176.646,51.878,35.0,84.49,30.0,6.0,0.0,,3000.0,3500.0,4059.310344827587,,,,3.086664,2.9999999999999996,5.196152422706632,1.5433319999999997,2.6731294369468905,1.6666666666666667,4.0,585663.3263837765,PADK,2022-12-31 20:56,BKN,OVC,,PADK 312056Z AUTO 03006KT BKN030 OVC035 02/M01 A2890 RMK AO2 SLP785 T00171006 51018 PWINO FZRANO $
289,1672520400,-176.646,51.878,35.07741935483871,84.76096774193547,30.0,7.0,0.0,,3000.0,3277.777777777778,3855.172413793104,,,,3.601108,3.4999999999999996,6.062177826491071,1.8005539999999998,3.1186510097713724,1.709677419354839,4.0,585663.3263837765,PADK,2022-12-31 21:00,OVC,,,PADK 312100Z AUTO 03007KT OVC030 02/M01 A2890 RMK T00201010 MADISHF
290,1672520700,-176.646,51.878,35.174193548387095,85.09967741935483,30.0,7.0,0.0,,2200.0,3000.0,3600.0,,,,3.601108,3.4999999999999996,6.062177826491071,1.8005539999999998,3.1186510097713724,1.763440860215054,4.0,585663.3263837765,PADK,2022-12-31 21:05,FEW,BKN,OVC,PADK 312105Z AUTO 03007KT FEW022 BKN030 OVC036 02/M01 A2890 RMK T00201010 MADISHF
291,1672521000,-176.646,51.878,35.270967741935486,85.43838709677419,40.0,5.0,0.0,,2800.0,3400.0,3544.4444444444443,,,,2.57222,3.2139380484326963,3.83022221559489,1.6533911453879102,1.9704348374794978,1.8172043010752692,4.0,585663.3263837765,PADK,2022-12-31 21:10,BKN,BKN,,PADK 312110Z AUTO 04005KT BKN028 BKN034 02/M01 A2890 RMK T00201010 MADISHF
292,1672521300,-176.646,51.878,35.36774193548387,85.77709677419355,40.0,5.0,0.0,,2600.0,3600.0,3488.8888888888887,,,,2.57222,3.2139380484326963,3.83022221559489,1.6533911453879102,1.9704348374794978,1.8709677419354844,4.0,585663.3263837765,PADK,2022-12-31 21:15,BKN,BKN,,PADK 312115Z AUTO 04005KT BKN026 BKN036 02/M01 A2890 RMK T00201010 MADISHF
293,1672521600,-176.646,51.878,35.46451612903226,86.11580645161291,20.0,5.0,0.0,,2300.0,3000.0,3433.3333333333335,,,,2.57222,1.7101007166283435,4.698463103929543,0.8797510530651517,2.4170961530379294,1.9247311827956997,4.0,585663.3263837765,PADK,2022-12-31 21:20,SCT,BKN,,PADK 312120Z AUTO 02005KT SCT023 BKN030 02/M01 A2891 RMK T00201010 MADISHF
294,1672521900,-176.646,51.878,35.561290322580646,86.45451612903226,40.0,5.0,0.0,,2100.0,2800.0,3377.777777777778,,,,2.57222,3.2139380484326963,3.83022221559489,1.6533911453879102,1.9704348374794978,1.9784946236559149,4.0,585663.3263837765,PADK,2022-12-31 21:25,SCT,BKN,,PADK 312125Z AUTO 04005KT SCT021 BKN028 02/00 A2891 RMK T00200000 MADISHF
295,1672522020,-176.646,51.878,35.6,86.59,30.0,6.0,0.0,,2100.0,2800.0,3355.5555555555557,,,,3.086664,2.9999999999999996,5.196152422706632,1.5433319999999997,2.6731294369468905,2.000000000000001,4.0,585663.3263837765,PADK,2022-12-31 21:27,SCT,BKN,,PADK 312127Z AUTO 03006KT SCT021 BKN028 02/00 A2891 RMK AO2 PWINO FZRANO $
296,1672522200,-176.646,51.878,35.64137931034483,86.84862068965518,40.0,5.0,0.0,,2100.0,2800.0,3322.222222222222,,,,2.57222,3.2139380484326963,3.83022221559489,1.6533911453879102,1.9704348374794978,2.022988505747127,4.0,585663.3263837765,PADK,2022-12-31 21:30,BKN,BKN,,PADK 312130Z AUTO 04005KT BKN021 BKN028 02/00 A2891 RMK T00200000 MADISHF
297,1672522500,-176.646,51.878,35.710344827586205,87.2796551724138,30.0,5.0,0.0,,2100.0,2800.0,3266.6666666666665,,,,2.57222,2.4999999999999996,4.330127018922194,1.2861099999999999,2.227607864122409,2.0613026819923377,4.0,585663.3263837765,PADK,2022-12-31 21:35,BKN,BKN,,PADK 312135Z AUTO 03005KT BKN021 BKN028 02/00 A2891 RMK T00200000 MADISHF
298,1672522800,-176.646,51.878,35.779310344827586,87.71068965517242,10.0,5.0,0.0,,2100.0,2800.0,3211.1111111111113,,,,2.57222,0.8682408883346516,4.92403876506104,0.4466613155584316,2.5331421984530618,2.0996168582375483,4.0,585663.3263837765,PADK,2022-12-31 21:40,BKN,OVC,,PADK 312140Z AUTO 01005KT BKN021 OVC028 02/01 A2891 RMK T00200010 MADISHF
299,1672523100,-176.646,51.878,35.84827586206897,88.14172413793104,360.0,8.0,0.0,,2100.0,2800.0,3155.5555555555557,,,,4.115552,-1.959434878635765e-15,8.0,-1.0080195167048977e-15,4.115552,2.137931034482759,4.0,585663.3263837765,PADK,2022-12-31 21:45,BKN,OVC,,PADK 312145Z AUTO 36008KT BKN021 OVC028 02/01 A2891 RMK T00200010 MADISHF
300,1672523400,-176.646,51.878,35.91724137931035,88.57275862068965,350.0,8.0,0.0,,1900.0,2600.0,3100.0,,,,4.115552,-1.389185421335443,7.878462024097664,-0.7146581048934907,4.053027517524899,2.1762452107279695,4.0,585663.3263837765,PADK,2022-12-31 21:50,SCT,BKN,OVC,PADK 312150Z AUTO 35008KT SCT019 BKN026 OVC031 02/01 A2891 RMK T00200010 MADISHF
301,1672523700,-176.646,51.878,35.98620689655172,89.00379310344827,360.0,7.0,0.0,,2300.0,2900.0,3050.0,,,,3.601108,-1.7145055188062944e-15,7.0,-8.820170771167854e-16,3.601108,2.21455938697318,4.0,585663.3263837765,PADK,2022-12-31 21:55,BKN,BKN,,PADK 312155Z AUTO 36007KT BKN023 BKN029 02/01 A2891 RMK T00200010 MADISHF
302,1672523760,-176.646,51.878,36.0,89.09,360.0,7.0,0.0,,2300.0,2900.0,3040.0,,,,3.601108,-1.7145055188062944e-15,7.0,-8.820170771167854e-16,3.601108,2.2222222222222223,4.0,585663.3263837765,PADK,2022-12-31 21:56,BKN,BKN,,PADK 312156Z AUTO 36007KT BKN023 BKN029 02/01 A2891 RMK AO2 SLP790 T00220006 PWINO FZRANO $
303,1672524000,-176.646,51.878,36.0,89.30733333333333,360.0,5.0,0.0,,1900.0,2600.0,3000.0,,,,2.57222,-1.2246467991473533e-15,5.0,-6.30012197940561e-16,2.57222,2.2222222222222223,4.0,585663.3263837765,PADK,2022-12-31 22:00,SCT,BKN,,PADK 312200Z AUTO 36005KT SCT019 BKN026 02/01 A2891 RMK T00200010 MADISHF
304,1672524300,-176.646,51.878,36.0,89.57900000000001,350.0,10.0,0.0,,2100.0,2800.0,2950.0,,,,5.14444,-1.736481776669304,9.84807753012208,-0.8933226311168634,5.0662843969061235,2.2222222222222223,4.0,585663.3263837765,PADK,2022-12-31 22:05,SCT,BKN,,PADK 312205Z AUTO 35010KT SCT021 BKN028 02/01 A2891 RMK T00200010 MADISHF
305,1672524600,-176.646,51.878,36.0,89.85066666666667,350.0,8.0,0.0,,1700.0,2300.0,2900.0,,,,4.115552,-1.389185421335443,7.878462024097664,-0.7146581048934907,4.053027517524899,2.2222222222222223,4.0,585663.3263837765,PADK,2022-12-31 22:10,FEW,BKN,BKN,PADK 312210Z AUTO 35008KT FEW017 BKN023 BKN029 02/01 A2891 RMK T00200010 MADISHF
306,1672524900,-176.646,51.878,36.0,90.12233333333333,350.0,5.0,0.0,,1700.0,2300.0,3850.0,,,,2.57222,-0.868240888334652,4.92403876506104,-0.4466613155584317,2.5331421984530618,2.2222222222222223,4.0,585663.3263837765,PADK,2022-12-31 22:15,FEW,BKN,,PADK 312215Z AUTO 35005KT FEW017 BKN023 02/01 A2891 RMK T00200010 MADISHF
307,1672525200,-176.646,51.878,36.0,90.394,340.0,5.0,0.0,,1700.0,2300.0,4800.0,,,,2.57222,-1.7101007166283468,4.698463103929541,-0.8797510530651533,2.4170961530379285,2.2222222222222223,4.0,585663.3263837765,PADK,2022-12-31 22:20,FEW,BKN,BKN,PADK 312220Z AUTO 34005KT FEW017 BKN023 BKN048 02/01 A2891 RMK T00200010 MADISHF
308,1672525500,-176.646,51.878,36.0,90.66566666666667,350.0,7.0,0.0,,1400.0,2100.0,2800.0,,,,3.601108,-1.2155372436685128,6.893654271085456,-0.6253258417818044,3.546399077834286,2.2222222222222223,4.0,585663.3263837765,PADK,2022-12-31 22:25,SCT,BKN,BKN,PADK 312225Z AUTO 35007KT SCT014 BKN021 BKN028 02/01 A2891 RMK T00200010 MADISHF
309,1672525800,-176.646,51.878,36.0,90.93733333333333,350.0,8.0,0.0,,1400.0,2100.0,4800.0,,,,4.115552,-1.389185421335443,7.878462024097664,-0.7146581048934907,4.053027517524899,2.2222222222222223,4.0,585663.3263837765,PADK,2022-12-31 22:30,BKN,BKN,BKN,PADK 312230Z AUTO 35008KT BKN014 BKN021 BKN048 02/01 A2891 RMK T00200010 MADISHF
310,1672526100,-176.646,51.878,36.0,91.209,350.0,7.0,0.0,,1600.0,2400.0,4800.0,,,,3.601108,-1.2155372436685128,6.893654271085456,-0.6253258417818044,3.546399077834286,2.2222222222222223,4.0,585663.3263837765,PADK,2022-12-31 22:35,BKN,BKN,OVC,PADK 312235Z AUTO 35007KT BKN016 BKN024 OVC048 02/01 A2891 RMK T00200010 MADISHF
311,1672526400,-176.646,51.878,36.0,91.48066666666666,350.0,9.0,0.0,,1600.0,2100.0,4800.0,,,,4.629996,-1.5628335990023734,8.863269777109872,-0.8039903680051771,4.5596559572155115,2.2222222222222223,4.0,585663.3263837765,PADK,2022-12-31 22:40,BKN,BKN,OVC,PADK 312240Z AUTO 35009KT BKN016 BKN021 OVC048 02/01 A2891 RMK T00200010 MADISHF
312,1672526700,-176.646,51.878,36.0,91.75233333333333,350.0,9.0,0.0,,1600.0,2100.0,2800.0,,,,4.629996,-1.5628335990023734,8.863269777109872,-0.8039903680051771,4.5596559572155115,2.2222222222222223,4.0,585663.3263837765,PADK,2022-12-31 22:45,BKN,BKN,OVC,PADK 312245Z AUTO 35009KT BKN016 BKN021 OVC028 02/01 A2891 RMK T00200010 MADISHF
313,1672527000,-176.646,51.878,36.0,92.024,360.0,8.0,0.0,,1600.0,2300.0,2720.0,,,,4.115552,-1.959434878635765e-15,8.0,-1.0080195167048977e-15,4.115552,2.2222222222222223,4.0,585663.3263837765,PADK,2022-12-31 22:50,BKN,OVC,,PADK 312250Z AUTO 36008KT BKN016 OVC023 02/01 A2891 RMK T00200010 MADISHF
314,1672527300,-176.646,51.878,36.0,92.29566666666666,350.0,7.0,0.0,,1400.0,2000.0,2640.0,,,,3.601108,-1.2155372436685128,6.893654271085456,-0.6253258417818044,3.546399077834286,2.2222222222222223,4.0,585663.3263837765,PADK,2022-12-31 22:55,BKN,OVC,,PADK 312255Z AUTO 35007KT BKN014 OVC020 02/01 A2891 RMK T00200010 MADISHF
315,1672527360,-176.646,51.878,36.0,92.35,340.0,8.0,0.0,,1400.0,2000.0,2624.0,,,,4.115552,-2.736161146605355,7.517540966287265,-1.4076016849042452,3.867353844860686,2.2222222222222223,4.0,585663.3263837765,PADK,2022-12-31 22:56,BKN,OVC,,PADK 312256Z AUTO 34008KT BKN014 OVC020 02/01 A2891 RMK AO2 SLP791 T00220011 PWINO FZRANO $
316,1672527600,-176.646,51.878,35.85454545454545,92.61545454545454,340.0,7.0,0.0,,1400.0,2000.0,2560.0,,,,3.601108,-2.3941410032796857,6.577848345501357,-1.2316514742912146,3.3839346142531,2.141414141414142,4.0,585663.3263837765,PADK,2022-12-31 23:00,BKN,BKN,,PADK 312300Z AUTO 34007KT BKN014 BKN020 02/01 A2891 RMK T00200010 MADISHF
317,1672527900,-176.646,51.878,35.67272727272727,92.94727272727272,340.0,7.0,0.0,,1400.0,2000.0,2480.0,,,,3.601108,-2.3941410032796857,6.577848345501357,-1.2316514742912146,3.3839346142531,2.040404040404041,4.0,585663.3263837765,PADK,2022-12-31 23:05,SCT,BKN,,PADK 312305Z AUTO 34007KT SCT014 BKN020 02/01 A2891 RMK T00200010 MADISHF
318,1672528020,-176.646,51.878,35.6,93.08,340.0,7.0,0.0,,1400.0,2000.0,2448.0,,,,3.601108,-2.3941410032796857,6.577848345501357,-1.2316514742912146,3.3839346142531,2.000000000000001,4.0,585663.3263837765,PADK,2022-12-31 23:07,SCT,BKN,,PADK 312307Z AUTO 34007KT SCT014 BKN020 02/01 A2891 RMK AO2 PWINO FZRANO $
319,1672528200,-176.646,51.878,35.62448979591837,93.03530612244897,340.0,7.0,0.0,,1400.0,2000.0,2400.0,,,,3.601108,-2.3941410032796857,6.577848345501357,-1.2316514742912146,3.3839346142531,2.0136054421768717,4.0,585663.3263837765,PADK,2022-12-31 23:10,SCT,BKN,BKN,PADK 312310Z AUTO 34007KT SCT014 BKN020 BKN024 02/01 A2891 RMK T00200010 MADISHF
320,1672528500,-176.646,51.878,35.66530612244898,92.9608163265306,330.0,7.0,0.0,,1400.0,1800.0,2400.0,,,,3.601108,-3.500000000000003,6.062177826491069,-1.8005540000000015,3.118651009771371,2.0362811791383226,4.0,585663.3263837765,PADK,2022-12-31 23:15,SCT,BKN,BKN,PADK 312315Z AUTO 33007KT SCT014 BKN018 BKN024 02/01 A2891 RMK T00200010 MADISHF
321,1672528800,-176.646,51.878,35.70612244897959,92.88632653061224,330.0,7.0,0.0,,1300.0,1900.0,2600.0,,,,3.601108,-3.500000000000003,6.062177826491069,-1.8005540000000015,3.118651009771371,2.058956916099774,4.0,585663.3263837765,PADK,2022-12-31 23:20,SCT,BKN,,PADK 312320Z AUTO 33007KT SCT013 BKN019 03/01 A2891 RMK T00300010 MADISHF
322,1672529100,-176.646,51.878,35.7469387755102,92.81183673469387,350.0,7.0,0.0,,1900.0,1900.0,2800.0,,,,3.601108,-1.2155372436685128,6.893654271085456,-0.6253258417818044,3.546399077834286,2.081632653061225,4.0,585663.3263837765,PADK,2022-12-31 23:25,BKN,,,PADK 312325Z AUTO 35007KT BKN019 03/01 A2891 RMK T00300010 MADISHF
323,1672529400,-176.646,51.878,35.78775510204082,92.7373469387755,360.0,11.0,0.0,,1300.0,1900.0,3000.0,,,,5.6588840000000005,-2.6942229581241772e-15,11.0,-1.3860268354692343e-15,5.6588840000000005,2.1043083900226764,4.0,585663.3263837765,PADK,2022-12-31 23:30,FEW,BKN,BKN,PADK 312330Z AUTO 36011KT FEW013 BKN019 BKN030 03/02 A2891 RMK T00300020 MADISHF
324,1672529700,-176.646,51.878,35.82857142857143,92.66285714285713,350.0,5.0,0.0,,1100.0,1900.0,2400.0,,,,2.57222,-0.868240888334652,4.92403876506104,-0.4466613155584317,2.5331421984530618,2.1269841269841274,4.0,585663.3263837765,PADK,2022-12-31 23:35,FEW,BKN,BKN,PADK 312335Z AUTO 35005KT FEW011 BKN019 BKN024 03/01 A2891 RMK T00300010 MADISHF
325,1672530000,-176.646,51.878,35.86938775510204,92.58836734693877,360.0,5.0,0.0,,1100.0,1900.0,2500.0,,,,2.57222,-1.2246467991473533e-15,5.0,-6.30012197940561e-16,2.57222,2.1496598639455784,4.0,585663.3263837765,PADK,2022-12-31 23:40,FEW,BKN,BKN,PADK 312340Z AUTO 36005KT FEW011 BKN019 BKN025 02/01 A2891 RMK T00200010 MADISHF
326,1672530300,-176.646,51.878,35.910204081632656,92.5138775510204,10.0,4.0,0.0,,1100.0,1600.0,2100.0,,,,2.057776,0.6945927106677213,3.939231012048832,0.35732905244674523,2.0265137587624493,2.17233560090703,4.0,585663.3263837765,PADK,2022-12-31 23:45,FEW,SCT,BKN,PADK 312345Z AUTO 01004KT FEW011 SCT016 BKN021 02/01 A2891 RMK T00200010 MADISHF
327,1672530600,-176.646,51.878,35.95102040816327,92.43938775510203,360.0,7.0,0.0,,1100.0,1600.0,2100.0,,,,3.601108,-1.7145055188062944e-15,7.0,-8.820170771167854e-16,3.601108,2.195011337868481,4.0,585663.3263837765,PADK,2022-12-31 23:50,FEW,BKN,BKN,PADK 312350Z AUTO 36007KT FEW011 BKN016 BKN021 02/01 A2891 RMK T00200010 MADISHF
328,1672530900,-176.646,51.878,35.99183673469388,92.36489795918366,350.0,7.0,0.0,,1100.0,1600.0,2100.0,,,,3.601108,-1.2155372436685128,6.893654271085456,-0.6253258417818044,3.546399077834286,2.217687074829932,4.0,585663.3263837765,PADK,2022-12-31 23:55,FEW,BKN,BKN,PADK 312355Z AUTO 35007KT FEW011 BKN016 BKN021 02/01 A2891 RMK T00200010 MADISHF
329,1672530960,-176.646,51.878,36.0,92.35,360.0,8.0,0.0,,1100.0,1600.0,2100.0,,,,4.115552,-1.959434878635765e-15,8.0,-1.0080195167048977e-15,4.115552,2.2222222222222223,4.0,585663.3263837765,PADK,2022-12-31 23:56,FEW,BKN,BKN,PADK 312356Z AUTO 36008KT FEW011 BKN016 BKN021 02/01 A2891 RMK AO2 SLP789 T00220011 10028 20011 50004 PWINO FZRANO $
